{"type":"FeatureCollection","name":"floor_1","crs":{"type":"name","properties":{"name":"urn:ogc:def:crs:OGC:1.3:CRS84"}},"features":[{"type":"Feature","properties":{"fid":1,"name":"CIRCUITS & NETWORK LAB","type":"lab","floor":1,"roomNo":"112-113"},"geometry":{"type":"Polygon","coordinates":[[[91.6188842631568,26.129546930384006,0.0],[91.61892094368713,26.129694175543122,0.0],[91.61901255677513,26.12967585666207,0.0],[91.6189758762448,26.129528611502955,0.0],[91.6188842631568,26.129546930384006,0.0]]]}},{"type":"Feature","properties":{"fid":2,"name":"STAFF COMMON ROOM","type":"commonRoom","floor":1,"roomNo":"115"},"geometry":{"type":"Polygon","coordinates":[[[91.61916088174283,26.129578952690455,0.0],[91.61917771322882,26.12964651863924,0.0],[91.6192159234907,26.129638878145318,0.0],[91.6191990920047,26.129571312196532,0.0],[91.61916088174283,26.129578952690455,0.0]]]}},{"type":"Feature","properties":{"fid":3,"name":null,"type":null,"floor":null,"roomNo":null},"geometry":{"type":"Polygon","coordinates":[[[91.61919828344848,26.12974934186777,0.0],[91.61920420981818,26.129773131852293,0.0],[91.61924722507239,26.12976453055588,0.0],[91.61924129870269,26.12974074057136,0.0],[91.61919828344848,26.12974934186777,0.0]]]}},{"type":"Feature","properties":{"fid":4,"name":"WASHROOM (MEN)","type":"washroom","floor":1,"roomNo":"123"},"geometry":{"type":"Polygon","coordinates":[[[91.61921411028386,26.129941011084846,0.0],[91.61923646274286,26.130030739650746,0.0],[91.61927029096559,26.130023975385928,0.0],[91.61924793850659,26.129934246820028,0.0],[91.61921411028386,26.129941011084846,0.0]]]}},{"type":"Feature","properties":{"fid":5,"name":"ELETRICAL STORE","type":"store","floor":1,"roomNo":"126"},"geometry":{"type":"Polygon","coordinates":[[[91.619512518923,26.129930457060965,0.0],[91.61952321668666,26.129973400657967,0.0],[91.61954449856836,26.129969145149634,0.0],[91.6195338008047,26.12992620155263,0.0],[91.619512518923,26.129930457060965,0.0]]]}},{"type":"Feature","properties":{"fid":6,"name":"WASHROOM (STAFF)","type":"washroom","floor":1,"roomNo":null},"geometry":{"type":"Polygon","coordinates":[[[91.61954408141686,26.130011400119415,0.0],[91.61956464020065,26.130093928408005,0.0],[91.61959660052123,26.130087537647427,0.0],[91.61957604173745,26.130005009358836,0.0],[91.61954408141686,26.130011400119415,0.0]]]}},{"type":"Feature","properties":{"fid":7,"name":"STAIRCASE","type":"staircase","floor":1,"roomNo":null},"geometry":{"type":"Polygon","coordinates":[[[91.61957853596029,26.130015021940675,0.0],[91.61958480210482,26.13004017586949,0.0],[91.61961452643492,26.130034232215813,0.0],[91.61960826029038,26.130009078287,0.0],[91.61957853596029,26.130015021940675,0.0]]]}},{"type":"Feature","properties":{"fid":8,"name":"WASHROOM (WOMEN)","type":"washroom","floor":1,"roomNo":"107"},"geometry":{"type":"Polygon","coordinates":[[[91.6192667574186,26.129470447132142,0.0],[91.61928289502531,26.129535227669585,0.0],[91.61931379840841,26.129529048253396,0.0],[91.6192976608017,26.129464267715953,0.0],[91.6192667574186,26.129470447132142,0.0]]]}},{"type":"Feature","properties":{"fid":9,"name":"CLASSROOM","type":"classroom","floor":1,"roomNo":"110"},"geometry":{"type":"Polygon","coordinates":[[[91.61897587623228,26.12952861150546,0.0],[91.61899212242041,26.129593827916832,0.0],[91.61913947398726,26.129564363613376,0.0],[91.61912322779914,26.129499147202004,0.0],[91.61897587623228,26.12952861150546,0.0]]]}},{"type":"Feature","properties":{"fid":10,"name":"BASIC ELECTRICAL ENGINEERING LAB","type":"lab","floor":1,"roomNo":"114"},"geometry":{"type":"Polygon","coordinates":[[[91.61899660006083,26.129611802326426,0.0],[91.61901255676662,26.129675856680702,0.0],[91.6191592864996,26.12964651671866,0.0],[91.6191433297938,26.129582462364382,0.0],[91.61899660006083,26.129611802326426,0.0]]]}},{"type":"Feature","properties":{"fid":11,"name":"FACULTY CABIN","type":"CABIN","floor":1,"roomNo":"117-118"},"geometry":{"type":"Polygon","coordinates":[[[91.61916036878017,26.129699774006223,0.0],[91.61917392984093,26.129754211620178,0.0],[91.61924129869477,26.12974074059713,0.0],[91.61922773763402,26.129686302983174,0.0],[91.61916036878017,26.129699774006223,0.0]]]}},{"type":"Feature","properties":{"fid":12,"name":"FACULTY CABIN","type":"CABIN","floor":1,"roomNo":"119-120"},"geometry":{"type":"Polygon","coordinates":[[[91.61917988801933,26.129777995216443,0.0],[91.6191938751161,26.129834143049347,0.0],[91.61926121212846,26.129820678393294,0.0],[91.6192472250317,26.12976453056039,0.0],[91.61917988801933,26.129777995216443,0.0]]]}},{"type":"Feature","properties":{"fid":13,"name":null,"type":null,"floor":null,"roomNo":null},"geometry":{"type":"Polygon","coordinates":[[[91.61921720541501,26.12982947794112,0.0],[91.61922292726425,26.129852446927472,0.0],[91.61926693398681,26.12984364737783,0.0],[91.61926121213757,26.129820678391475,0.0],[91.61921720541501,26.12982947794112,0.0]]]}},{"type":"Feature","properties":{"fid":14,"name":"FACULTY CABIN","type":"CABIN","floor":1,"roomNo":"121-122"},"geometry":{"type":"Polygon","coordinates":[[[91.61919919471715,26.129857192474976,0.0],[91.61921304807693,26.129912803452918,0.0],[91.61928078737189,26.129899258356755,0.0],[91.61926693401212,26.129843647378813,0.0],[91.61919919471715,26.129857192474976,0.0]]]}},{"type":"Feature","properties":{"fid":15,"name":"FLUID MECHANICS LAB","type":"lab","floor":1,"roomNo":"152"},"geometry":{"type":"Polygon","coordinates":[[[91.6196065158198,26.130002075630475,0.0],[91.61963189596067,26.130103958096374,0.0],[91.61970804341082,26.13008873171211,0.0],[91.61968266326996,26.12998684924621,0.0],[91.6196065158198,26.130002075630475,0.0]]]}},{"type":"Feature","properties":{"fid":16,"name":"STAIRCASE","type":"staircase","floor":1,"roomNo":null},"geometry":{"type":"Polygon","coordinates":[[[91.61955310284308,26.129912926814015,0.0],[91.61955974967809,26.129939608933057,0.0],[91.61958991603119,26.12993357689281,0.0],[91.61958326919618,26.129906894773768,0.0],[91.61955310284308,26.129912926814015,0.0]]]}},{"type":"Feature","properties":{"fid":17,"name":"MECHANICAL LAB","type":"lab","floor":1,"roomNo":null},"geometry":{"type":"Polygon","coordinates":[[[91.61962565907467,26.129974482636324,0.0],[91.61963129834744,26.12999712013936,0.0],[91.61966071139257,26.129991238729986,0.0],[91.6196550721198,26.12996860122695,0.0],[91.61962565907467,26.129974482636324,0.0]]]}},{"type":"Feature","properties":{"fid":18,"name":"HOD EEE","type":"office","floor":1,"roomNo":"115"},"geometry":{"type":"Polygon","coordinates":[[[91.61917771322508,26.12964651862427,0.0],[91.61918952732579,26.129693943487574,0.0],[91.61922773758766,26.12968630299365,0.0],[91.61921592348696,26.129638878130347,0.0],[91.61917771322508,26.12964651862427,0.0]]]}},{"type":"Feature","properties":{"fid":19,"name":"ENGINEERING GEO","type":null,"floor":1,"roomNo":"153"},"geometry":{"type":"Polygon","coordinates":[[[91.61968266328836,26.129986849334436,0.0],[91.61970800472137,26.13008857641699,0.0],[91.61978677490387,26.13007282559323,0.0],[91.61976143347086,26.129971098510676,0.0],[91.61968266328836,26.129986849334436,0.0]]]}},{"type":"Feature","properties":{"fid":20,"name":"CLASSROOM","type":"classroom","floor":1,"roomNo":"154"},"geometry":{"type":"Polygon","coordinates":[[[91.6197614173122,26.12997103377036,0.0],[91.61978677486998,26.130072825581863,0.0],[91.61986526833829,26.130057130089657,0.0],[91.61983991078051,26.129955338278155,0.0],[91.6197614173122,26.12997103377036,0.0]]]}},{"type":"Feature","properties":{"fid":21,"name":"DBU GLOBAL CENTER","type":"center","floor":1,"roomNo":"155"},"geometry":{"type":"Polygon","coordinates":[[[91.61983994388189,26.12995538074195,0.0],[91.61986528980248,26.13005712583881,0.0],[91.61993971545978,26.13004224374289,0.0],[91.61991436953919,26.12994049864603,0.0],[91.61983994388189,26.12995538074195,0.0]]]}},{"type":"Feature","properties":{"fid":22,"name":"MECHANICAL LAB","type":"lab","floor":1,"roomNo":null},"geometry":{"type":"Polygon","coordinates":[[[91.61969922828614,26.129960299706237,0.0],[91.61970474230237,26.129982434397082,0.0],[91.61973407985309,26.129976568083507,0.0],[91.61972856583685,26.129954433392662,0.0],[91.61969922828614,26.129960299706237,0.0]]]}},{"type":"Feature","properties":{"fid":23,"name":"MECHANICAL LAB","type":"lab","floor":1,"roomNo":null},"geometry":{"type":"Polygon","coordinates":[[[91.61977809807149,26.12994486762571,0.0],[91.61978360602653,26.12996697798532,0.0],[91.6198105761479,26.129961585061054,0.0],[91.61980506819286,26.129939474701445,0.0],[91.61977809807149,26.12994486762571,0.0]]]}},{"type":"Feature","properties":{"fid":24,"name":"MECHANICAL LAB","type":"lab","floor":1,"roomNo":null},"geometry":{"type":"Polygon","coordinates":[[[91.61985517667145,26.129929709271316,0.0],[91.61986053385627,26.129951214400148,0.0],[91.61988750397877,26.129945821475655,0.0],[91.61988214679396,26.129924316346823,0.0],[91.61985517667145,26.129929709271316,0.0]]]}},{"type":"Feature","properties":{"fid":25,"name":null,"type":null,"floor":null,"roomNo":null},"geometry":{"type":"LineString","coordinates":[[91.61988650037122,26.129828624167654,0.0],[91.61990415507543,26.129899494727823,0.0]]}},{"type":"Feature","properties":{"fid":26,"name":"CLASSROOM","type":"classroom","floor":1,"roomNo":"125"},"geometry":{"type":"Polygon","coordinates":[[[91.6193776979458,26.12993000454435,0.0],[91.61939490018753,26.129999058802845,0.0],[91.61952321675992,26.12997340072192,0.0],[91.61950601451818,26.129904346463423,0.0],[91.6193776979458,26.12993000454435,0.0]]]}},{"type":"Feature","properties":{"fid":27,"name":"MECHANICAL ENGINEERING LAB-1","type":"lab","floor":1,"roomNo":"124"},"geometry":{"type":"Polygon","coordinates":[[[91.61925308873786,26.129954921303597,0.0],[91.61927029095895,26.13002397547916,0.0],[91.61939490012934,26.129999058727417,0.0],[91.61937769790825,26.129930004551856,0.0],[91.61925308873786,26.129954921303597,0.0]]]}},{"type":"Feature","properties":{"fid":28,"name":"LIFT","type":"lift","floor":1,"roomNo":null},"geometry":{"type":"Polygon","coordinates":[[[91.61950702063322,26.12990827865595,0.0],[91.61951254428546,26.1299304520282,0.0],[91.6195338008992,26.12992620157243,0.0],[91.61952827724697,26.12990402820018,0.0],[91.61950702063322,26.12990827865595,0.0]]]}},{"type":"Feature","properties":{"fid":29,"name":"CLASSROOM","type":"classroom","floor":1,"roomNo":"131"},"geometry":{"type":"Polygon","coordinates":[[[91.61943854133058,26.129845703732638,0.0],[91.61945210390012,26.1299001474032,0.0],[91.61952951340298,26.12988466865987,0.0],[91.61951595083345,26.129830224989306,0.0],[91.61943854133058,26.129845703732638,0.0]]]}},{"type":"Feature","properties":{"fid":30,"name":"COMPUTING CENTER","type":"center","floor":1,"roomNo":"132"},"geometry":{"type":"Polygon","coordinates":[[[91.61942513441828,26.129791884910585,0.0],[91.6194385413257,26.12984570371306,0.0],[91.61951603364965,26.12983020840889,0.0],[91.61950262674222,26.129776389606416,0.0],[91.61942513441828,26.129791884910585,0.0]]]}},{"type":"Feature","properties":{"fid":31,"name":"ADMINISTRATIVE OFFICE","type":"office","floor":1,"roomNo":"133"},"geometry":{"type":"Polygon","coordinates":[[[91.61941172750971,26.129738066103503,0.0],[91.61942513441743,26.129791884907128,0.0],[91.61950262674137,26.12977638960296,0.0],[91.61948921983365,26.129722570799334,0.0],[91.61941172750971,26.129738066103503,0.0]]]}},{"type":"Feature","properties":{"fid":32,"name":"CLASSROOM","type":"classroom","floor":1,"roomNo":"135"},"geometry":{"type":"Polygon","coordinates":[[[91.61938268820901,26.12962184385219,0.0],[91.61940266232192,26.129702025120228,0.0],[91.61948015464587,26.12968652981606,0.0],[91.61946018053297,26.12960634854802,0.0],[91.61938268820901,26.12962184385219,0.0]]]}},{"type":"Feature","properties":{"fid":33,"name":"CLASSROOM","type":"classroom","floor":1,"roomNo":"136"},"geometry":{"type":"Polygon","coordinates":[[[91.61936217435151,26.12953949590942,0.0],[91.619382688207,26.129621843844127,0.0],[91.61946018053095,26.12960634853996,0.0],[91.61943966667546,26.12952400060525,0.0],[91.61936217435151,26.12953949590942,0.0]]]}},{"type":"Feature","properties":{"fid":34,"name":"STAIRCASE","type":"staircase","floor":1,"roomNo":null},"geometry":{"type":"Polygon","coordinates":[[[91.61942327005859,26.129698057301553,0.0],[91.61943221614906,26.12973396922822,0.0],[91.6194602680356,26.129728359995045,0.0],[91.61945132194512,26.12969244806838,0.0],[91.61942327005859,26.129698057301553,0.0]]]}},{"type":"Feature","properties":{"fid":35,"name":"COMPUTER PROGRAMMING LAB-1","type":"lab","floor":1,"roomNo":"134"},"geometry":{"type":"Polygon","coordinates":[[[91.61949247337864,26.129653550543402,0.0],[91.6195150487882,26.12974417409065,0.0],[91.61966433813141,26.129714322310956,0.0],[91.61964176272186,26.12962369876371,0.0],[91.61949247337864,26.129653550543402,0.0]]]}},{"type":"Feature","properties":{"fid":36,"name":"ENGINEERING PHYSICS LAB","type":"lab","floor":1,"roomNo":"103"},"geometry":{"type":"Polygon","coordinates":[[[91.61949525642686,26.12943183402507,0.0],[91.61950976255314,26.129490065377073,0.0],[91.61963180250783,26.12946566236369,0.0],[91.61961729638155,26.129407431011686,0.0],[91.61949525642686,26.12943183402507,0.0]]]}},{"type":"Feature","properties":{"fid":37,"name":"CLASSROOM","type":"classroom","floor":1,"roomNo":"108"},"geometry":{"type":"Polygon","coordinates":[[[91.61918178705481,26.12948743773928,0.0],[91.61919792466296,26.12955221828248,0.0],[91.6192828950347,26.129535227673752,0.0],[91.61926675742656,26.12947044713055,0.0],[91.61918178705481,26.12948743773928,0.0]]]}},{"type":"Feature","properties":{"fid":38,"name":"LIFT","type":"lift","floor":1,"roomNo":null},"geometry":{"type":"Polygon","coordinates":[[[91.61916098338857,26.129538283084237,0.0],[91.61916526534137,26.12955547195295,0.0],[91.6191866033268,26.129551205226164,0.0],[91.619182321374,26.12953401635745,0.0],[91.61916098338857,26.129538283084237,0.0]]]}},{"type":"Feature","properties":{"fid":39,"name":"STAIRCASE","type":"staircase","floor":1,"roomNo":null},"geometry":{"type":"Polygon","coordinates":[[[91.61912742989465,26.129516391027927,0.0],[91.61913421677518,26.12954363532609,0.0],[91.61916098340026,26.129538283092785,0.0],[91.61915419651973,26.12951103879462,0.0],[91.61912742989465,26.129516391027927,0.0]]]}},{"type":"Feature","properties":{"fid":40,"name":"HOD COMMERCE","type":"office","floor":1,"roomNo":"106"},"geometry":{"type":"Polygon","coordinates":[[[91.61931218851277,26.129467669788422,0.0],[91.61932707017478,26.129527408638214,0.0],[91.61935797355675,26.129521229222252,0.0],[91.61934309189473,26.12946149037246,0.0],[91.61931218851277,26.129467669788422,0.0]]]}},{"type":"Feature","properties":{"fid":41,"name":"CLASSROOM","type":"classroom","floor":1,"roomNo":"105"},"geometry":{"type":"Polygon","coordinates":[[[91.61934309188905,26.1294614903736,0.0],[91.61935797355106,26.129521229223393,0.0],[91.6194517452796,26.129502478702275,0.0],[91.6194368636176,26.129442739852482,0.0],[91.61934309188905,26.1294614903736,0.0]]]}},{"type":"Feature","properties":{"fid":42,"name":"STAIRCASE","type":"staircase","floor":null,"roomNo":null},"geometry":{"type":"Polygon","coordinates":[[[91.61944031341255,26.129456636796444,0.0],[91.61944657954274,26.12948179066766,0.0],[91.61947502599608,26.129476102537215,0.0],[91.6194687598659,26.129450948665998,0.0],[91.61944031341255,26.129456636796444,0.0]]]}},{"type":"Feature","properties":{"fid":43,"name":"SERVER ROOM","type":"room","floor":1,"roomNo":"104"},"geometry":{"type":"Polygon","coordinates":[[[91.61946549692529,26.12943778471161,0.0],[91.61948000304898,26.129496016053245,0.0],[91.61950976261198,26.129490065354425,0.0],[91.61949525648829,26.129431834012788,0.0],[91.61946549692529,26.12943778471161,0.0]]]}},{"type":"Feature","properties":{"fid":44,"name":"DARK ROOM","type":"room","floor":1,"roomNo":"102"},"geometry":{"type":"Polygon","coordinates":[[[91.61961729632239,26.129407431023512,0.0],[91.61963180244608,26.12946566236515,0.0],[91.6196563926873,26.12946074531985,0.0],[91.61964188656361,26.129402513978214,0.0],[91.61961729632239,26.129407431023512,0.0]]]}},{"type":"Feature","properties":{"fid":45,"name":"CLASSROOM","type":"classroom","floor":1,"roomNo":"101"},"geometry":{"type":"Polygon","coordinates":[[[91.6196418865875,26.129402513973435,0.0],[91.61965639271119,26.129460745315072,0.0],[91.6197885358943,26.12943432206807,0.0],[91.61977402977061,26.129376090726435,0.0],[91.6196418865875,26.129402513973435,0.0]]]}},{"type":"Feature","properties":{"fid":46,"name":null,"type":null,"floor":null,"roomNo":null},"geometry":{"type":"Polygon","coordinates":[[[91.61919928028834,26.129572068078218,0.0],[91.61928756939213,26.129926483432108,0.0],[91.61945046348715,26.129893911256943,0.0],[91.61936217438337,26.129539495903053,0.0],[91.61919928028834,26.129572068078218,0.0]]]}},{"type":"Feature","properties":{"fid":47,"name":null,"type":null,"floor":null,"roomNo":null},"geometry":{"type":"Polygon","coordinates":[[[91.61940266232651,26.12970202513866,0.0],[91.61941164469123,26.12973808267954,0.0],[91.61943221615903,26.12973396922502,0.0],[91.61942323379431,26.129697911684136,0.0],[91.61940266232651,26.12970202513866,0.0]]]}},{"type":"Feature","properties":{"fid":48,"name":null,"type":null,"floor":null,"roomNo":null},"geometry":{"type":"LineString","coordinates":[[91.61915328595067,26.129507057377715,0.0],[91.6191534597976,26.129507772468344,0.0],[91.61915363766848,26.129508503485592,0.0],[91.61915381917464,26.129509248846386,0.0],[91.61915400392745,26.129510006967653,0.0],[91.61915419153827,26.12951077626632,0.0],[91.61915438161843,26.129511555159315,0.0],[91.61915457377927,26.129512342063563,0.0],[91.61915476763217,26.129513135395996,0.0],[91.61915496278843,26.129513933573534,0.0],[91.61915515885947,26.12951473501311,0.0],[91.61915535545658,26.12951553813165,0.0],[91.61915555219115,26.12951634134608,0.0],[91.61915574867449,26.12951714307333,0.0],[91.61915594451798,26.129517941730327,0.0],[91.61915613933297,26.129518735733996,0.0],[91.6191563327308,26.129519523501266,0.0],[91.61915652432282,26.129520303449063,0.0],[91.61915671372036,26.12952107399431,0.0],[91.6191569005348,26.129521833553945,0.0],[91.61915708437749,26.129522580544887,0.0],[91.61915726485977,26.129523313384066,0.0],[91.61915744159298,26.129524030488408,0.0],[91.61915761418848,26.12952473027484,0.0],[91.61915778225762,26.129525411160294,0.0],[91.61915794541176,26.129526071561695,0.0],[91.61915810326221,26.129526709895966,0.0],[91.61915825542036,26.129527324580035,0.0],[91.61915840149754,26.129527914030835,0.0],[91.61915854110512,26.129528476665293,0.0],[91.61915867385443,26.129529010900328,0.0],[91.61915879935682,26.129529515152875,0.0]]}},{"type":"Feature","properties":{"fid":49,"name":null,"type":null,"floor":null,"roomNo":null},"geometry":{"type":"LineString","coordinates":[[91.61916603418784,26.12949058771613,0.0],[91.61915005980869,26.129493781940425,0.0],[91.61915328595067,26.129507057377715,0.0]]}},{"type":"Feature","properties":{"fid":50,"name":null,"type":null,"floor":null,"roomNo":null},"geometry":{"type":"LineString","coordinates":[[91.61916438261245,26.12953803841116,0.0],[91.6191645649916,26.129538001828948,0.0],[91.61916476085042,26.12953796232754,0.0],[91.61916496955075,26.12953792004028,0.0],[91.61916519045442,26.12953787510052,0.0],[91.61916542292323,26.12953782764161,0.0],[91.61916566631906,26.12953777779688,0.0],[91.61916592000372,26.129537725699695,0.0],[91.61916618333902,26.12953767148339,0.0],[91.61916645568685,26.12953761528131,0.0],[91.61916673640897,26.129537557226815,0.0],[91.61916702486727,26.129537497453235,0.0],[91.61916732042356,26.129537436093933,0.0],[91.61916762243968,26.12953737328224,0.0],[91.61916793027744,26.12953730915151,0.0],[91.61916824329869,26.129537243835088,0.0],[91.61916856086528,26.12953717746632,0.0],[91.61916888233901,26.129537110178557,0.0],[91.61916920708174,26.129537042105138,0.0],[91.61916953445528,26.12953697337942,0.0],[91.61916986382147,26.12953690413474,0.0],[91.61917019454214,26.129536834504446,0.0],[91.61917052597913,26.129536764621886,0.0],[91.61917085749428,26.129536694620406,0.0],[91.61917118844939,26.129536624633353,0.0],[91.61917151820633,26.129536554794072,0.0],[91.6191718461269,26.129536485235914,0.0],[91.61917217157297,26.129536416092222,0.0],[91.61917249390635,26.12953634749634,0.0],[91.61917281248886,26.129536279581618,0.0],[91.61917312668234,26.129536212481405,0.0],[91.61917343584865,26.12953614632904,0.0]]}},{"type":"Feature","properties":{"fid":51,"name":null,"type":null,"floor":null,"roomNo":null},"geometry":{"type":"LineString","coordinates":[[91.61915879935682,26.129529515152875,0.0],[91.61916108672877,26.12953869745347,0.0],[91.61916438261245,26.12953803841116,0.0]]}},{"type":"Feature","properties":{"fid":52,"name":null,"type":null,"floor":null,"roomNo":null},"geometry":{"type":"LineString","coordinates":[[91.61917343584865,26.12953614632904,0.0],[91.61917919320229,26.12953491328901,0.0],[91.61917753174124,26.12952824375361,0.0],[91.61917587028422,26.129521574234342,0.0],[91.61918284923031,26.12952017872977,0.0],[91.61918982820711,26.12951878321906,0.0],[91.61918591842112,26.12950308825733,0.0],[91.61918200865165,26.12948739342895,0.0],[91.61916603418784,26.12949058771613,0.0]]}},{"type":"Feature","properties":{"fid":53,"name":null,"type":null,"floor":null,"roomNo":null},"geometry":{"type":"LineString","coordinates":[[91.619788535931,26.129434322061943,0.0],[91.61979325684479,26.1294532730339,0.0],[91.61945858793814,26.12952021706277,0.0]]}},{"type":"Feature","properties":{"fid":54,"name":null,"type":null,"floor":null,"roomNo":null},"geometry":{"type":"LineString","coordinates":[[91.61899206174425,26.129593584414113,0.0],[91.61899678265804,26.12961253538607,0.0],[91.61914350078155,26.129583173540862,0.0],[91.6191592869468,26.129646516672775,0.0],[91.61912265866428,26.12965382551642,0.0],[91.61919515574401,26.129944847591286,0.0],[91.61921411027296,26.129941011041073,0.0],[91.61924793851503,26.129934246772386,0.0],[91.61925308872696,26.129954921259824,0.0],[91.6195060145471,26.12990434641169,0.0],[91.61950702063824,26.129908278608998,0.0],[91.61952827721785,26.12990402816005,0.0],[91.61954449852871,26.1299691451104,0.0],[91.61953406056597,26.129971173758637,0.0],[91.61954408141816,26.130011400057484,0.0],[91.61957604170917,26.130005009302824,0.0],[91.6195785359834,26.13001502196629,0.0],[91.6196082602896,26.130009078317393,0.0],[91.6196065158211,26.130002075568548,0.0],[91.61963129833195,26.12999712007716,0.0],[91.61962565906377,26.12997448259255,0.0],[91.61965507214188,26.12996860117658,0.0],[91.61966071133745,26.129991238767612,0.0],[91.61970474229607,26.12998243437174,0.0],[91.6196992282718,26.12996029964864,0.0],[91.61972856585778,26.129954433328013,0.0],[91.61973407988205,26.129976568051113,0.0],[91.61978360601951,26.129966977889985,0.0],[91.61977809807308,26.129944867564934,0.0],[91.61980506816602,26.129939474646356,0.0],[91.61981057611244,26.129961584971408,0.0],[91.61986053384479,26.129951214354072,0.0],[91.61985517668235,26.129929709315086,0.0],[91.61988214676049,26.129924316399464,0.0],[91.61988751559511,26.12994586829362,0.0],[91.61991436955104,26.12994049859771,0.0],[91.6199041550965,26.129899494730864,0.0],[91.61962107931048,26.129956098342475,0.0],[91.61961792363287,26.129943430634405,0.0],[91.61959297907835,26.129948418527917,0.0],[91.61958931189612,26.129933697637135,0.0],[91.6195597496643,26.129939608877766,0.0],[91.61955310282845,26.12991292675527,0.0],[91.61958266506026,26.12990701551464,0.0],[91.61957848011343,26.129890215655013,0.0],[91.61988650037435,26.129828624165818,0.0],[91.61988174553069,26.129809536990532,0.0],[91.6195494518256,26.12987598217854,0.0],[91.61955057349527,26.129880484851448,0.0],[91.61954843466252,26.12988088510955,0.0],[91.61945858793098,26.129520217033974,0.0]]}},{"type":"Feature","properties":{"fid":55,"name":null,"type":null,"floor":null,"roomNo":null},"geometry":{"type":"LineString","coordinates":[[91.619788535931,26.129434322061943,0.0],[91.61948000304926,26.129496016054397,0.0],[91.61947502578221,26.12947610258482,0.0],[91.6194465908388,26.129481788413745,0.0],[91.61945174505325,26.129502478766884,0.0],[91.61919792449062,26.1295522183242,0.0],[91.61918982794822,26.129518783378447,0.0],[91.6191758701357,26.129521574371665,0.0],[91.61917919302823,26.129534913323816,0.0],[91.61918232117831,26.12953401639658,0.0],[91.6191866031314,26.129551205266445,0.0],[91.61916526534165,26.129555471954102,0.0],[91.61916108672877,26.12953869745347,0.0],[91.61913421678005,26.129543635345673,0.0],[91.61913937026738,26.12956432277994,0.0],[91.61899212240678,26.12959382792923,0.0]]}},{"type":"Feature","properties":{"fid":56,"name":null,"type":null,"floor":null,"roomNo":null},"geometry":{"type":"Polygon","coordinates":[[[91.61945132199405,26.129692448058595,0.0],[91.61948027371194,26.12968665889585,0.0],[91.61943966668798,26.12952400060275,0.0],[91.61916088177468,26.129578952684085,0.0],[91.61918952735735,26.129693943480053,0.0],[91.61916036882795,26.12969977399667,0.0],[91.61917392989386,26.129754211631358,0.0],[91.61919828348034,26.1297493418614,0.0],[91.61920420984917,26.12977313184247,0.0],[91.61917985625179,26.129778001568656,0.0],[91.61919387510017,26.129834143052534,0.0],[91.61921720539908,26.129829477944305,0.0],[91.61922292724974,26.12985244693642,0.0],[91.61919919470236,26.129857192477935,0.0],[91.61921341848954,26.129912729361315,0.0],[91.61928078737752,26.12989925833144,0.0],[91.61928751212194,26.12992649485358,0.0],[91.61945046346405,26.12989391123133,0.0],[91.61945210386969,26.12990014741533,0.0],[91.61952951335209,26.12988466867609,0.0],[91.61948921989281,26.129722570787504,0.0],[91.6194602680805,26.129728359969132,0.0],[91.61945132199405,26.129692448058595,0.0]]]}},{"type":"Feature","properties":{"fid":57,"name":null,"type":null,"floor":null,"roomNo":null},"geometry":{"type":"LineString","coordinates":[[91.61970496185256,26.129864924527574,0.0],[91.61972261654788,26.129935795052035,0.0]]}},{"type":"Feature","properties":{"fid":58,"name":null,"type":null,"floor":null,"roomNo":null},"geometry":{"type":"LineString","coordinates":[[91.61982586354361,26.12984074912049,0.0],[91.61984351823892,26.12991161964495,0.0]]}},{"type":"Feature","properties":{"fid":59,"name":"WASHROOM (STAFF)","type":"washroom","floor":1,"roomNo":"109"},"geometry":{"type":"LineString","coordinates":[[91.61918960549144,26.129518829535407,0.0],[91.61918178705507,26.129487437740035,0.0],[91.61915005980865,26.129493781940425,0.0],[91.61916108672878,26.129538697453356,0.0],[91.61917919319875,26.12953491327509,0.0],[91.61917587028418,26.129521574234538,0.0],[91.61918960549167,26.12951882953525,0.0]]}},{"type":"Feature","properties":{"fid":60,"name":"CLASSROOM","type":"classroom","floor":1,"roomNo":"130"},"geometry":{"type":"LineString","coordinates":[[91.6199041550962,26.129899494730136,0.0],[91.6198865003743,26.129828624165814,0.0],[91.619825863529,26.12984074906211,0.0],[91.61984351823544,26.129911619630285,0.0],[91.61990415509622,26.129899494730203,0.0]]}},{"type":"Feature","properties":{"fid":61,"name":"CLASSROOM","type":"classroom","floor":1,"roomNo":"129"},"geometry":{"type":"LineString","coordinates":[[91.61984350036991,26.129911571596473,0.0],[91.61982586562753,26.129840749307235,0.0],[91.61970496465182,26.129864927205205,0.0],[91.61972262236608,26.12993578778092,0.0],[91.6198435022843,26.129911577339474,0.0]]}},{"type":"Feature","properties":{"fid":62,"name":"CLASSROOM","type":"classroom","floor":1,"roomNo":"128"},"geometry":{"type":"LineString","coordinates":[[91.61972258982256,26.129935789695256,0.0],[91.61970496273754,26.12986494443413,0.0],[91.61957889309004,26.12989042790031,0.0],[91.6195929825064,26.12994837828252,0.0],[91.61961803716424,26.129943477615946,0.0],[91.61962110008085,26.129956096832366,0.0],[91.61972258982262,26.129935766723378,0.0]]}}]}