{
"type": "FeatureCollection",
"name": "floor_4",
"crs": { "type": "name", "properties": { "name": "urn:ogc:def:crs:OGC:1.3:CRS84" } },
"features": [
{ "type": "Feature", "properties": { "fid": 1, "name": "SALESIANS RESIDENCE & GUEST HOUSE", "type": "guestHouse", "floor": 4, "roomNo": "405" }, "geometry": { "type": "LineString", "coordinates": [ [ 91.618769635687613, 26.129542926550553 ], [ 91.618801387668213, 26.129695728250777 ], [ 91.61904964342726, 26.129644582605351 ], [ 91.61901789144666, 26.129491780905127 ], [ 91.618769635687613, 26.129542926550553 ] ] } },
{ "type": "Feature", "properties": { "fid": 2, "name": "STAIR-1", "type": "staircase", "floor": 4, "roomNo": null }, "geometry": { "type": "LineString", "coordinates": [ [ 91.619021964179666, 26.129511033908781 ], [ 91.619027336347784, 26.129536886671584 ], [ 91.6190573022443, 26.129530713098319 ], [ 91.619051930076182, 26.129504860335516 ], [ 91.619021964179666, 26.129511033908781 ] ] } },
{ "type": "Feature", "properties": { "fid": 3, "name": "LIFT-1", "type": "lift", "floor": 4, "roomNo": null }, "geometry": { "type": "LineString", "coordinates": [ [ 91.619057376498304, 26.12953120676319 ], [ 91.619061890405902, 26.12955292927445 ], [ 91.619084161811585, 26.129548340919992 ], [ 91.619079647903988, 26.129526618408732 ], [ 91.619057376498304, 26.12953120676319 ] ] } },
{ "type": "Feature", "properties": { "fid": 4, "name": "403 (WOMEN)", "type": "washroom", "floor": 4, "roomNo": "403" }, "geometry": { "type": "LineString", "coordinates": [ [ 91.619171690620746, 26.129459942110756 ], [ 91.61918571233204, 26.129527419517895 ], [ 91.619216833986584, 26.129521007835383 ], [ 91.619202812275319, 26.129453530428247 ], [ 91.619171690620746, 26.129459942110756 ] ] } },
{ "type": "Feature", "properties": { "fid": 5, "name": "402", "type": "classroom", "floor": 4, "roomNo": "402" }, "geometry": { "type": "LineString", "coordinates": [ [ 91.61922071364414, 26.129458593129584 ], [ 91.619232991616144, 26.129517679049993 ], [ 91.619360891662637, 26.129491329085532 ], [ 91.619348613690633, 26.129432243165123 ], [ 91.61922071364414, 26.129458593129584 ] ] } },
{ "type": "Feature", "properties": { "fid": 6, "name": "STAIR-2", "type": "staircase", "floor": 4, "roomNo": null }, "geometry": { "type": "LineString", "coordinates": [ [ 91.619351849242548, 26.129445607082818 ], [ 91.619357339007479, 26.129472025762915 ], [ 91.619383938472311, 26.129466545741817 ], [ 91.619378448707366, 26.129440127061724 ], [ 91.619351849242548, 26.129445607082818 ] ] } },
{ "type": "Feature", "properties": { "fid": 7, "name": "TUTORIAL ROOM", "type": "room", "floor": 4, "roomNo": "401" }, "geometry": { "type": "LineString", "coordinates": [ [ 91.619376288600918, 26.129426632646286 ], [ 91.61938850529333, 26.129485423667671 ], [ 91.619456006472532, 26.129471517076379 ], [ 91.619443789780121, 26.129412726054991 ], [ 91.619376288600918, 26.129426632646286 ] ] } },
{ "type": "Feature", "properties": { "fid": 8, "name": "TERRACE-1", "type": "terrace", "floor": 4, "roomNo": null }, "geometry": { "type": "LineString", "coordinates": [ [ 91.619443789786089, 26.129412726053765 ], [ 91.619460638087347, 26.129493806006259 ], [ 91.619707529749547, 26.129442941392032 ], [ 91.619690681448276, 26.129361861439538 ], [ 91.619443789786089, 26.129412726053765 ] ] } },
{ "type": "Feature", "properties": { "fid": 9, "name": "ROYALE ENFIELD CLASSROOM", "type": "classroom", "floor": 4, "roomNo": "406" }, "geometry": { "type": "LineString", "coordinates": [ [ 91.619054528481769, 26.129576305390859 ], [ 91.619068151314906, 26.129641863256069 ], [ 91.619110432944211, 26.129633152395829 ], [ 91.619096810111074, 26.129567594530624 ], [ 91.619054528481769, 26.129576305390859 ] ] } },
{ "type": "Feature", "properties": { "fid": 10, "name": "407", "type": "room", "floor": 4, "roomNo": "407" }, "geometry": { "type": "LineString", "coordinates": [ [ 91.619068151297895, 26.129641863174172 ], [ 91.619073820265982, 26.129669144242772 ], [ 91.619116101898271, 26.129660433381918 ], [ 91.619110432930185, 26.129633152313318 ], [ 91.619068151297895, 26.129641863174172 ] ] } },
{ "type": "Feature", "properties": { "fid": 11, "name": "408", "type": "lab", "floor": 4, "roomNo": "408" }, "geometry": { "type": "LineString", "coordinates": [ [ 91.619041208741734, 26.129675862918663 ], [ 91.619052920625222, 26.129732224622 ], [ 91.619127813779883, 26.129716795136108 ], [ 91.619116101896395, 26.129660433432772 ], [ 91.619041208741734, 26.129675862918663 ] ] } },
{ "type": "Feature", "properties": { "fid": 12, "name": null, "type": null, "floor": 4, "roomNo": "409" }, "geometry": { "type": "LineString", "coordinates": [ [ 91.61905292062626, 26.129732224626963 ], [ 91.619064691182203, 26.12978886868277 ], [ 91.619139584336864, 26.129773439196878 ], [ 91.619127813780921, 26.129716795141071 ], [ 91.61905292062626, 26.129732224626963 ] ] } },
{ "type": "Feature", "properties": { "fid": 13, "name": "EMBEDDED SYSTEM, MAT, VLSI, DIGITAL SIGNAL PROCESSING LAB", "type": "lab", "floor": 4, "roomNo": "410" }, "geometry": { "type": "LineString", "coordinates": [ [ 91.619064691169825, 26.129788868623208 ], [ 91.619078184725652, 26.129853804360472 ], [ 91.61915307789819, 26.129838374870893 ], [ 91.619139584342378, 26.129773439133636 ], [ 91.619064691169825, 26.129788868623208 ] ] } },
{ "type": "Feature", "properties": { "fid": 14, "name": "COMMUNICATION SYSTEM Engg. & MICROWAVE PROPAGATION LAB", "type": "lab", "floor": 4, "roomNo": "411" }, "geometry": { "type": "LineString", "coordinates": [ [ 91.619078184719982, 26.129853804333177 ], [ 91.619092433010792, 26.129922372120792 ], [ 91.619167326192269, 26.129906942629368 ], [ 91.619153077901458, 26.129838374841754 ], [ 91.619078184719982, 26.129853804333177 ] ] } },
{ "type": "Feature", "properties": { "fid": 15, "name": "412 (MEN)", "type": "washroom", "floor": 4, "roomNo": "412" }, "geometry": { "type": "LineString", "coordinates": [ [ 91.619090039736164, 26.129953657303737 ], [ 91.619108454427774, 26.130042275277621 ], [ 91.619143788293329, 26.130034995795501 ], [ 91.619125373601719, 26.129946377821614 ], [ 91.619090039736164, 26.129953657303737 ] ] } },
{ "type": "Feature", "properties": { "fid": 16, "name": "COMPUTER PROGRAMMING LAB - 5", "type": "lab", "floor": 4, "roomNo": "413" }, "geometry": { "type": "LineString", "coordinates": [ [ 91.619129595163216, 26.129966693557865 ], [ 91.61914378829097, 26.130034995881392 ], [ 91.619275856257275, 26.130007787242192 ], [ 91.619261663129521, 26.129939484918665 ], [ 91.619129595163216, 26.129966693557865 ] ] } },
{ "type": "Feature", "properties": { "fid": 17, "name": "VIDEO CONFERENCE (AUDIO & VIDEO)", "type": "room", "floor": 4, "roomNo": "414" }, "geometry": { "type": "LineString", "coordinates": [ [ 91.619261663101199, 26.129939484924503 ], [ 91.619275856221478, 26.130007787212048 ], [ 91.619375062517236, 26.129987348733415 ], [ 91.619360869396957, 26.129919046445874 ], [ 91.619261663101199, 26.129939484924503 ] ] } },
{ "type": "Feature", "properties": { "fid": 18, "name": "DEVELOPMENT CELL & INCUBATION CENTER", "type": "lab", "floor": 4, "roomNo": null }, "geometry": { "type": "LineString", "coordinates": [ [ 91.619360922814096, 26.129919303507954 ], [ 91.619375246877937, 26.129988235942015 ], [ 91.61943026546696, 26.129976901013649 ], [ 91.619421318520892, 26.129928825221526 ], [ 91.619402312115682, 26.129932740920665 ], [ 91.61939793531046, 26.129911678194354 ], [ 91.619360922814096, 26.129919303507954 ] ] } },
{ "type": "Feature", "properties": { "fid": 19, "name": "LIFT-2", "type": "lift", "floor": 4, "roomNo": null }, "geometry": { "type": "LineString", "coordinates": [ [ 91.619397935319753, 26.129911678239026 ], [ 91.619402312101741, 26.129932740853654 ], [ 91.619421318477151, 26.129928825160661 ], [ 91.61941694169515, 26.129907762546033 ], [ 91.619397935319753, 26.129911678239026 ] ] } },
{ "type": "Feature", "properties": { "fid": 20, "name": "452", "type": "classroom", "floor": 4, "roomNo": "452" }, "geometry": { "type": "LineString", "coordinates": [ [ 91.619263149507503, 26.129535440737115 ], [ 91.619291781087711, 26.129673225972954 ], [ 91.619394023904349, 26.129652161910364 ], [ 91.619365392324141, 26.129514376674525 ], [ 91.619263149507503, 26.129535440737115 ] ] } },
{ "type": "Feature", "properties": { "fid": 21, "name": "NEW CONFERENCE HALL", "type": "hall", "floor": 4, "roomNo": "460" }, "geometry": { "type": "LineString", "coordinates": [ [ 91.619310320895039, 26.12976730676969 ], [ 91.619338993637115, 26.129905290091038 ], [ 91.619442205052678, 26.129884026477725 ], [ 91.619413532310574, 26.129746043156377 ], [ 91.619310320895039, 26.12976730676969 ] ] } },
{ "type": "Feature", "properties": { "fid": 22, "name": "417", "type": "room", "floor": 4, "roomNo": "417" }, "geometry": { "type": "LineString", "coordinates": [ [ 91.619304285850035, 26.12973716876699 ], [ 91.61931063813266, 26.129767738185564 ], [ 91.619392664737489, 26.129750839066435 ], [ 91.619386312454878, 26.129720269647862 ], [ 91.619304285850035, 26.12973716876699 ] ] } },
{ "type": "Feature", "properties": { "fid": 23, "name": "WASHROOM (MEN)", "type": "washroom", "floor": 4, "roomNo": null }, "geometry": { "type": "LineString", "coordinates": [ [ 91.619291511609475, 26.129673502989334 ], [ 91.619297353020812, 26.129701613915511 ], [ 91.619358775365825, 26.129688959685488 ], [ 91.619352933954488, 26.129660848759311 ], [ 91.619291511609475, 26.129673502989334 ] ] } },
{ "type": "Feature", "properties": { "fid": 24, "name": "WASHROOM (WOMEN)", "type": "washroom", "floor": 4, "roomNo": null }, "geometry": { "type": "LineString", "coordinates": [ [ 91.619352933963427, 26.129660848757467 ], [ 91.619358775359572, 26.129688959610434 ], [ 91.619379993000379, 26.129684588352593 ], [ 91.619374151604262, 26.129656477499623 ], [ 91.619352933963427, 26.129660848757467 ] ] } },
{ "type": "Feature", "properties": { "fid": 25, "name": "STAIR-3", "type": "staircase", "floor": 4, "roomNo": null }, "geometry": { "type": "LineString", "coordinates": [ [ 91.619320478644866, 26.129696849384789 ], [ 91.619327844618098, 26.12973229703918 ], [ 91.61935675234507, 26.129726341469979 ], [ 91.619349386371823, 26.129690893815589 ], [ 91.619320478644866, 26.129696849384789 ] ] } },
{ "type": "Feature", "properties": { "fid": 26, "name": "OLD CONFERENCE HALL", "type": "hall", "floor": 4, "roomNo": "418" }, "geometry": { "type": "LineString", "coordinates": [ [ 91.619394023903027, 26.129652161933929 ], [ 91.619413532281911, 26.129746043115695 ], [ 91.619570122626968, 26.129713782376626 ], [ 91.619550614248084, 26.129619901194861 ], [ 91.619394023903027, 26.129652161933929 ] ] } },
{ "type": "Feature", "properties": { "fid": 27, "name": "STAIR-4", "type": "staircase", "floor": 4, "roomNo": null }, "geometry": { "type": "LineString", "coordinates": [ [ 91.6194463334879, 26.129919745099805 ], [ 91.61945156822847, 26.129944936512903 ], [ 91.61947993563092, 26.129939092261345 ], [ 91.619474700890336, 26.129913900848248 ], [ 91.6194463334879, 26.129919745099805 ] ] } },
{ "type": "Feature", "properties": { "fid": 28, "name": "TERRACE-2", "type": "terrace", "floor": 4, "roomNo": null }, "geometry": { "type": "LineString", "coordinates": [ [ 91.619534124281259, 26.129864588083127 ], [ 91.619552240898614, 26.129951771618785 ], [ 91.61979998506115, 26.129900731372462 ], [ 91.619781868443809, 26.1298135478368 ], [ 91.619534124281259, 26.129864588083127 ] ] } },
{ "type": "Feature", "properties": { "fid": 29, "name": "SUPPORT STAFF QUARTERS", "type": "room", "floor": 4, "roomNo": null }, "geometry": { "type": "LineString", "coordinates": [ [ 91.619496555659893, 26.130005139554452 ], [ 91.619517603208578, 26.130106427762801 ], [ 91.619635105327617, 26.130082219979105 ], [ 91.619614057778932, 26.129980931770756 ], [ 91.619496555659893, 26.130005139554452 ] ] } },
{ "type": "Feature", "properties": { "fid": 30, "name": "STAIR-5", "type": "staircase", "floor": 4, "roomNo": null }, "geometry": { "type": "LineString", "coordinates": [ [ 91.619462787953864, 26.130022654211508 ], [ 91.619467595358827, 26.130045789135362 ], [ 91.619503878585832, 26.130038314065821 ], [ 91.619499071180869, 26.130015179141967 ], [ 91.619462787953864, 26.130022654211508 ] ] } },
{ "type": "Feature", "properties": { "fid": 31, "name": "BIO MECHANICAL ENGINEERING LAB", "type": "lab", "floor": 4, "roomNo": "461" }, "geometry": { "type": "LineString", "coordinates": [ [ 91.619428476274493, 26.130019165267772 ], [ 91.619445438424407, 26.130100793100116 ], [ 91.619477877130038, 26.130094110078769 ], [ 91.61946091498011, 26.130012482246428 ], [ 91.619428476274493, 26.130019165267772 ] ] } },
{ "type": "Feature", "properties": { "fid": 32, "name": null, "type": null, "floor": null, "roomNo": null }, "geometry": { "type": "LineString", "coordinates": [ [ 91.619424308129311, 26.129999106686942 ], [ 91.61942847628454, 26.130019165316167 ], [ 91.619448217237277, 26.130015098285565 ], [ 91.619444049082048, 26.12999503965634 ], [ 91.619424308129311, 26.129999106686942 ] ] } },
{ "type": "Feature", "properties": { "fid": 33, "name": null, "type": null, "floor": null, "roomNo": null }, "geometry": { "type": "LineString", "coordinates": [ [ 91.619467595367851, 26.130045789178794 ], [ 91.619470745526073, 26.130060948848261 ], [ 91.619507028751585, 26.130053473779025 ], [ 91.619503878593378, 26.130038314109559 ], [ 91.619467595367851, 26.130045789178794 ] ] } },
{ "type": "Feature", "properties": { "fid": 34, "name": null, "type": null, "floor": null, "roomNo": null }, "geometry": { "type": "LineString", "coordinates": [ [ 91.619460638101529, 26.129493806074507 ], [ 91.619365392281281, 26.129514376729944 ], [ 91.619263149516797, 26.129535440781783 ], [ 91.619096810115551, 26.1295675945297 ], [ 91.619054528477292, 26.129576305391783 ], [ 91.619073820271552, 26.129669144292091 ], [ 91.619041208741734, 26.129675862918663 ], [ 91.619092433028584, 26.129922372206412 ], [ 91.619167326196646, 26.129906942717753 ], [ 91.619173127795875, 26.129935935178121 ], [ 91.619337648268527, 26.129901471974001 ], [ 91.619338993418452, 26.129905290198199 ], [ 91.619442204768433, 26.129884026598397 ], [ 91.619467218840839, 26.129878371986916 ], [ 91.619474700853075, 26.129913900855929 ], [ 91.619446333393981, 26.129919745119153 ], [ 91.619451568125029, 26.129944936486339 ], [ 91.61947993558411, 26.129939092223115 ], [ 91.619482855202548, 26.129953619659918 ], [ 91.619427785014054, 26.129964965361147 ], [ 91.619416941457004, 26.129907762641682 ], [ 91.619129594918093, 26.129966693515197 ], [ 91.619125373346222, 26.129946377826368 ], [ 91.619090039489606, 26.129953657306647 ], [ 91.619070542445741, 26.129957259470274 ], [ 91.619007245736881, 26.129653749147973 ], [ 91.619049643274295, 26.129644582849082 ], [ 91.619027991189611, 26.129536751934484 ], [ 91.619056455946534, 26.129530887625965 ], [ 91.619061890215761, 26.129552929474077 ], [ 91.61936089150521, 26.129491329330186 ], [ 91.619357338860311, 26.12947202598216 ], [ 91.619383938271469, 26.129466545972122 ], [ 91.61938850514511, 26.129485423881956 ], [ 91.619456006328789, 26.129471517289744 ], [ 91.619460638101529, 26.129493806074507 ] ] } },
{ "type": "Feature", "properties": { "fid": 35, "name": null, "type": null, "floor": null, "roomNo": null }, "geometry": { "type": "LineString", "coordinates": [ [ 91.619392664703341, 26.129750839089006 ], [ 91.619413532244991, 26.129746043169888 ], [ 91.619394023856827, 26.129652161943451 ], [ 91.619374151669973, 26.12965647767372 ], [ 91.619379993071746, 26.129684588553982 ], [ 91.619349386443758, 26.129690893989693 ], [ 91.619356752432452, 26.129726341718534 ], [ 91.619386312605059, 26.129720270557662 ], [ 91.619392664703341, 26.129750839089006 ] ] } },
{ "type": "Feature", "properties": { "fid": 36, "name": null, "type": null, "floor": null, "roomNo": null }, "geometry": { "type": "LineString", "coordinates": [ [ 91.619297353011021, 26.129701613868356 ], [ 91.619304286081075, 26.129737168719387 ], [ 91.619327844716295, 26.129732296344777 ], [ 91.619320478727332, 26.129696848614692 ], [ 91.619297353011021, 26.129701613868356 ] ] } },
{ "type": "Feature", "properties": { "fid": 37, "name": null, "type": null, "floor": null, "roomNo": null }, "geometry": { "type": "LineString", "coordinates": [ [ 91.619351849242548, 26.129445607082818 ], [ 91.619378448655198, 26.129440127072474 ], [ 91.619376288610212, 26.129426632690958 ], [ 91.619348613684537, 26.129432242978748 ], [ 91.619351849242548, 26.129445607082818 ] ] } },
{ "type": "Feature", "properties": { "fid": 38, "name": null, "type": null, "floor": null, "roomNo": null }, "geometry": { "type": "LineString", "coordinates": [ [ 91.619047868683452, 26.12948545190326 ], [ 91.619171690620746, 26.129459942110756 ] ] } },
{ "type": "Feature", "properties": { "fid": 39, "name": null, "type": null, "floor": null, "roomNo": null }, "geometry": { "type": "LineString", "coordinates": [ [ 91.619017891461837, 26.129491780903294 ], [ 91.619047868682031, 26.129485451881553 ], [ 91.61905192972047, 26.129504860381623 ], [ 91.619021963809061, 26.129511033957964 ], [ 91.619017891461837, 26.129491780903294 ] ] } },
{ "type": "Feature", "properties": { "fid": 40, "name": null, "type": null, "floor": null, "roomNo": null }, "geometry": { "type": "LineString", "coordinates": [ [ 91.619829381009637, 26.130042195376419 ], [ 91.619799985064361, 26.129900731402856 ], [ 91.619552240874995, 26.12995177165471 ], [ 91.619516909228921, 26.129959050679574 ], [ 91.619514429040493, 26.12994711478883 ], [ 91.619482855420216, 26.129953619585308 ] ] } },
{ "type": "Feature", "properties": { "fid": 42, "name": null, "type": null, "floor": null, "roomNo": null }, "geometry": { "type": "LineString", "coordinates": [ [ 91.619470745540582, 26.130060948858208 ], [ 91.61950702874968, 26.130053473792351 ], [ 91.61950387859406, 26.130038314135298 ], [ 91.619467595384947, 26.130045789201155 ], [ 91.619470745540582, 26.130060948858208 ] ] } },
{ "type": "Feature", "properties": { "fid": 44, "name": null, "type": null, "floor": null, "roomNo": null }, "geometry": { "type": "LineString", "coordinates": [ [ 91.619479935652933, 26.129939092210229 ], [ 91.61947470092268, 26.129913900846766 ] ] } },
{ "type": "Feature", "properties": { "fid": 45, "name": "404", "type": "classroom", "floor": 4, "roomNo": "404" }, "geometry": { "type": "LineString", "coordinates": [ [ 91.619185712197691, 26.129527419547454 ], [ 91.619171690619453, 26.129459942113346 ], [ 91.619047868688511, 26.12948545190368 ], [ 91.619057469213075, 26.129531105892166 ], [ 91.619079653507356, 26.129526611603875 ], [ 91.619084170041177, 26.129548330623212 ], [ 91.61918571219509, 26.12952741953325 ] ] } },
{ "type": "Feature", "properties": { "fid": 46, "name": "TERRACE-3", "type": "terrace", "floor": 4, "roomNo": null }, "geometry": { "type": "LineString", "coordinates": [ [ 91.619829359065818, 26.130042308158743 ], [ 91.619799984963095, 26.129900730488892 ], [ 91.619516919593593, 26.1299590706553 ], [ 91.619514427851811, 26.129947125873564 ], [ 91.619427873747512, 26.129965256085068 ], [ 91.619430671641538, 26.12997716533296 ], [ 91.619420438793014, 26.129979377465798 ], [ 91.619424347504619, 26.129999119528438 ], [ 91.619444123102568, 26.129995135401252 ], [ 91.619448263794467, 26.130015076956756 ], [ 91.619460922914399, 26.13001248856644 ], [ 91.619463023101304, 26.130022609919052 ], [ 91.619498641569578, 26.130015237311589 ], [ 91.619496566140725, 26.130005140923682 ], [ 91.619614144369081, 26.129980874731501 ], [ 91.619635113278179, 26.130082209931786 ], [ 91.619829364733178, 26.13004229450981 ] ] } },
{ "type": "Feature", "properties": { "fid": 47, "name": "CENTER OF GEOINFORMATICS", "type": "room", "floor": 4, "roomNo": "416" }, "geometry": { "type": "LineString", "coordinates": [ [ 91.619552168354858, 26.129951850223421 ], [ 91.619534109011752, 26.12986472281337 ], [ 91.619467303834213, 26.129878601034243 ], [ 91.619482875058111, 26.129953649618443 ], [ 91.61951441811496, 26.129947133267365 ], [ 91.619516910083121, 26.129959069671337 ], [ 91.619552161234338, 26.129951800013078 ] ] } },
{ "type": "Feature", "properties": { "fid": 1, "type": "path", "floor": 4 }, "geometry": { "type": "LineString", "coordinates": [ [ 91.619448804169423, 26.129482931370248 ], [ 91.619401709727171, 26.129492882206996 ], [ 91.619391119991008, 26.129494880133343 ], [ 91.619377181588959, 26.129498056900744 ], [ 91.619362657763048, 26.129501237547636 ], [ 91.619343039421011, 26.129505223054998 ], [ 91.619248866168434, 26.129524546299876 ], [ 91.61920275264329, 26.129534297861255 ], [ 91.619099956699444, 26.129555027672193 ], [ 91.61907543898252, 26.129559816746848 ], [ 91.619064068681197, 26.129561819845843 ], [ 91.619044460760449, 26.129565419734142 ], [ 91.61902561256224, 26.12956978568792 ] ] } },
{ "type": "Feature", "properties": { "fid": 2, "type": "path", "floor": 4 }, "geometry": { "type": "LineString", "coordinates": [ [ 91.619044460760449, 26.129565419734142 ], [ 91.619037090973919, 26.129527684670418 ] ] } },
{ "type": "Feature", "properties": { "fid": 3, "type": "path", "floor": 4 }, "geometry": { "type": "LineString", "coordinates": [ [ 91.61907543898252, 26.129559816746848 ], [ 91.619071640886645, 26.129541528290193 ] ] } },
{ "type": "Feature", "properties": { "fid": 4, "type": "path", "floor": 4 }, "geometry": { "type": "LineString", "coordinates": [ [ 91.61907543898252, 26.129559816746848 ], [ 91.619079041937155, 26.129578106496673 ] ] } },
{ "type": "Feature", "properties": { "fid": 5, "type": "path", "floor": 4 }, "geometry": { "type": "LineString", "coordinates": [ [ 91.619099956699444, 26.129555027672193 ], [ 91.619096153392874, 26.129536932025069 ] ] } },
{ "type": "Feature", "properties": { "fid": 6, "type": "path", "floor": 4 }, "geometry": { "type": "LineString", "coordinates": [ [ 91.619064068681197, 26.129561819845843 ], [ 91.619037090973919, 26.129527684670418 ] ] } },
{ "type": "Feature", "properties": { "fid": 7, "type": "path", "floor": 4 }, "geometry": { "type": "LineString", "coordinates": [ [ 91.61920275264329, 26.129534297861255 ], [ 91.619198780248695, 26.129515239459575 ] ] } },
{ "type": "Feature", "properties": { "fid": 8, "type": "path", "floor": 4 }, "geometry": { "type": "LineString", "coordinates": [ [ 91.619248866168434, 26.129524546299876 ], [ 91.619244978317809, 26.129505969275449 ] ] } },
{ "type": "Feature", "properties": { "fid": 9, "type": "path", "floor": 4 }, "geometry": { "type": "LineString", "coordinates": [ [ 91.619343039421011, 26.129505223054998 ], [ 91.619339700519603, 26.12948799181785 ] ] } },
{ "type": "Feature", "properties": { "fid": 10, "type": "path", "floor": 4 }, "geometry": { "type": "LineString", "coordinates": [ [ 91.619377181588959, 26.129498056900744 ], [ 91.619368998799715, 26.129457917536964 ] ] } },
{ "type": "Feature", "properties": { "fid": 11, "type": "path", "floor": 4 }, "geometry": { "type": "LineString", "coordinates": [ [ 91.619401709727171, 26.129492882206996 ], [ 91.619397990964529, 26.129475267937096 ] ] } },
{ "type": "Feature", "properties": { "fid": 12, "type": "path", "floor": 4 }, "geometry": { "type": "LineString", "coordinates": [ [ 91.619448804169423, 26.129482931370248 ], [ 91.619465189653454, 26.129479449223918 ] ] } },
{ "type": "Feature", "properties": { "fid": 13, "type": "path", "floor": 4 }, "geometry": { "type": "LineString", "coordinates": [ [ 91.619343039421011, 26.129505223054998 ], [ 91.619349268450136, 26.129538242690511 ] ] } },
{ "type": "Feature", "properties": { "fid": 14, "type": "path", "floor": 4 }, "geometry": { "type": "LineString", "coordinates": [ [ 91.619044460760449, 26.129565419734142 ], [ 91.619061904567971, 26.129652727604189 ], [ 91.619025800565808, 26.129660292309183 ] ] } },
{ "type": "Feature", "properties": { "fid": 15, "type": "corridor", "floor": 4 }, "geometry": { "type": "LineString", "coordinates": [ [ 91.619025800565808, 26.129660292309183 ], [ 91.619034955024134, 26.129704184346515 ], [ 91.61904846694901, 26.129767325008725 ], [ 91.61906056364198, 26.129825077349125 ], [ 91.619074299108377, 26.129894385330275 ], [ 91.619084059833284, 26.129937502249962 ], [ 91.619102486484962, 26.129934295739755 ], [ 91.61914407528586, 26.129925923587965 ], [ 91.61914926256037, 26.129950564414116 ], [ 91.619236363830566, 26.129933023009055 ], [ 91.619272077550136, 26.12992546089038 ], [ 91.619343874429276, 26.129911105304881 ], [ 91.61942742668154, 26.129894936843563 ], [ 91.619480396205105, 26.129884175973682 ] ] } },
{ "type": "Feature", "properties": { "fid": 16, "type": "path", "floor": 4 }, "geometry": { "type": "LineString", "coordinates": [ [ 91.61942742668154, 26.129894936843563 ], [ 91.619393307379838, 26.129699110760807 ] ] } },
{ "type": "Feature", "properties": { "fid": 17, "type": "path", "floor": 4 }, "geometry": { "type": "LineString", "coordinates": [ [ 91.619393307379838, 26.129699110760807 ], [ 91.619387246006724, 26.129670716614456 ], [ 91.619381699713529, 26.129644921517379 ] ] } },
{ "type": "Feature", "properties": { "fid": 18, "type": "path", "floor": 4 }, "geometry": { "type": "LineString", "coordinates": [ [ 91.619387246006724, 26.129670716614456 ], [ 91.619370770767887, 26.129673910192995 ] ] } },
{ "type": "Feature", "properties": { "fid": 19, "type": "path", "floor": 4 }, "geometry": { "type": "LineString", "coordinates": [ [ 91.619393307379838, 26.129699110760807 ], [ 91.619357401954602, 26.129706095824822 ], [ 91.619344439259024, 26.129709266126394 ] ] } },
{ "type": "Feature", "properties": { "fid": 20, "type": "path", "floor": 4 }, "geometry": { "type": "LineString", "coordinates": [ [ 91.619357401954602, 26.129706095824822 ], [ 91.619352906664091, 26.129684727588192 ] ] } },
{ "type": "Feature", "properties": { "fid": 21, "type": "path", "floor": 4 }, "geometry": { "type": "LineString", "coordinates": [ [ 91.61942742668154, 26.129894936843563 ], [ 91.619421578817111, 26.129861373307776 ], [ 91.619410595891182, 26.129863566132176 ] ] } },
{ "type": "Feature", "properties": { "fid": 22, "type": "path", "floor": 4 }, "geometry": { "type": "LineString", "coordinates": [ [ 91.61942742668154, 26.129894936843563 ], [ 91.619457592127631, 26.129907785724011 ], [ 91.619460872538212, 26.129923571536143 ] ] } },
{ "type": "Feature", "properties": { "fid": 23, "type": "path", "floor": 4 }, "geometry": { "type": "LineString", "coordinates": [ [ 91.619457592127631, 26.129907785724011 ], [ 91.619454131972432, 26.129889511608102 ], [ 91.619480396205105, 26.129884175973682 ] ] } },
{ "type": "Feature", "properties": { "fid": 24, "type": "path", "floor": 4 }, "geometry": { "type": "LineString", "coordinates": [ [ 91.619457592127631, 26.129907785724011 ], [ 91.619443720019063, 26.129901876941442 ] ] } },
{ "type": "Feature", "properties": { "fid": 25, "type": "path", "floor": 4 }, "geometry": { "type": "LineString", "coordinates": [ [ 91.619443720019063, 26.129901876941442 ], [ 91.619424478999065, 26.129915282869717 ], [ 91.619413288207042, 26.129917863104176 ] ] } },
{ "type": "Feature", "properties": { "fid": 26, "type": "path", "floor": 4 }, "geometry": { "type": "LineString", "coordinates": [ [ 91.61942742668154, 26.129894936843563 ], [ 91.619424478999065, 26.129915282869717 ] ] } },
{ "type": "Feature", "properties": { "fid": 27, "type": "path", "floor": 4 }, "geometry": { "type": "LineString", "coordinates": [ [ 91.619424478999065, 26.129915282869717 ], [ 91.619429627193597, 26.129941369767415 ], [ 91.619414723506424, 26.129944167381559 ] ] } },
{ "type": "Feature", "properties": { "fid": 28, "type": "path", "floor": 4 }, "geometry": { "type": "LineString", "coordinates": [ [ 91.619343874429276, 26.129911105304881 ], [ 91.619347220769129, 26.129929578259077 ] ] } },
{ "type": "Feature", "properties": { "fid": 29, "type": "path", "floor": 4 }, "geometry": { "type": "LineString", "coordinates": [ [ 91.619272077550136, 26.12992546089038 ], [ 91.619275993681882, 26.129944508393699 ] ] } },
{ "type": "Feature", "properties": { "fid": 30, "type": "path", "floor": 4 }, "geometry": { "type": "LineString", "coordinates": [ [ 91.619236363830566, 26.129933023009055 ], [ 91.619241135823614, 26.129956498665948 ] ] } },
{ "type": "Feature", "properties": { "fid": 31, "type": "path", "floor": 4 }, "geometry": { "type": "LineString", "coordinates": [ [ 91.61914926256037, 26.129950564414116 ], [ 91.619154435257315, 26.129973651865594 ] ] } },
{ "type": "Feature", "properties": { "fid": 32, "type": "path", "floor": 4 }, "geometry": { "type": "LineString", "coordinates": [ [ 91.619102486484962, 26.129934295739755 ], [ 91.619107981725946, 26.129959887128926 ] ] } },
{ "type": "Feature", "properties": { "fid": 33, "type": "path", "floor": 4 }, "geometry": { "type": "LineString", "coordinates": [ [ 91.619074299108377, 26.129894385330275 ], [ 91.619096624429574, 26.129889213962997 ] ] } },
{ "type": "Feature", "properties": { "fid": 34, "type": "path", "floor": 4 }, "geometry": { "type": "LineString", "coordinates": [ [ 91.61906056364198, 26.129825077349125 ], [ 91.619081686851473, 26.12982107059808 ] ] } },
{ "type": "Feature", "properties": { "fid": 35, "type": "path", "floor": 4 }, "geometry": { "type": "LineString", "coordinates": [ [ 91.61904846694901, 26.129767325008725 ], [ 91.619067818254919, 26.129763908324776 ] ] } },
{ "type": "Feature", "properties": { "fid": 36, "type": "path", "floor": 4 }, "geometry": { "type": "LineString", "coordinates": [ [ 91.619034955024134, 26.129704184346515 ], [ 91.619059031406238, 26.12969919415027 ] ] } },
{ "type": "Feature", "properties": { "fid": 37, "type": "path", "floor": 4 }, "geometry": { "type": "LineString", "coordinates": [ [ 91.61942742668154, 26.129894936843563 ], [ 91.619443674529748, 26.129983068848585 ], [ 91.619452151089803, 26.129980745430455 ], [ 91.619472653899791, 26.129976830819558 ], [ 91.619516767285077, 26.129967217589996 ], [ 91.619525106310078, 26.130007720831909 ] ] } },
{ "type": "Feature", "properties": { "fid": 38, "type": "path", "floor": 4 }, "geometry": { "type": "LineString", "coordinates": [ [ 91.619452151089803, 26.129980745430455 ], [ 91.619457773542379, 26.130017991764412 ] ] } },
{ "type": "Feature", "properties": { "fid": 39, "type": "path", "floor": 4 }, "geometry": { "type": "LineString", "coordinates": [ [ 91.619472653899791, 26.129976830819558 ], [ 91.619482519232861, 26.130026896761311 ] ] } },
{ "type": "Feature", "properties": { "fid": 40, "type": "path", "floor": 4 }, "geometry": { "type": "LineString", "coordinates": [ [ 91.619421578817111, 26.129861373307776 ], [ 91.619398267038861, 26.129727576517372 ], [ 91.619393307379838, 26.129699110760807 ] ] } },
{ "type": "Feature", "properties": { "fid": 41, "type": "path", "floor": 4 }, "geometry": { "type": "LineString", "coordinates": [ [ 91.619398267038861, 26.129727576517372 ], [ 91.619381212157606, 26.129731527083095 ] ] } },
{ "type": "Feature", "properties": { "fid": 42, "type": "path", "floor": 4 }, "geometry": { "type": "LineString", "coordinates": [ [ 91.619061904567971, 26.129652727604189 ], [ 91.619074687681405, 26.129650211131032 ] ] } }
]
}
