{
"type": "FeatureCollection",
"name": "floor_3",
"crs": { "type": "name", "properties": { "name": "urn:ogc:def:crs:OGC:1.3:CRS84" } },
"features": [
{ "type": "Feature", "properties": { "fid": 1, "name": "ELECTRONIC DEVICES & CIRCUIT LAB", "type": "lab", "floor": 3, "roomNo": "312-313" }, "geometry": { "type": "LineString", "coordinates": [ [ 91.61875701192082, 26.129542087861353, 0.0 ], [ 91.61878805980443, 26.129695740116965, 0.0 ], [ 91.618876734598331, 26.129678026334517, 0.0 ], [ 91.618845686714721, 26.129524374078905, 0.0 ], [ 91.61875701192082, 26.129542087861353, 0.0 ] ] } },
{ "type": "Feature", "properties": { "fid": 2, "name": "COMMUNICATION LAB", "type": "lab", "floor": 3, "roomNo": "310" }, "geometry": { "type": "LineString", "coordinates": [ [ 91.618845686714721, 26.129524374078905, 0.0 ], [ 91.618859441516648, 26.129592444945391, 0.0 ], [ 91.619016349198958, 26.129561100879894, 0.0 ], [ 91.619002594397031, 26.129493030013407, 0.0 ], [ 91.618845686714721, 26.129524374078905, 0.0 ] ] } },
{ "type": "Feature", "properties": { "fid": 3, "name": "DIGITAL ELECTRONICS AND MICROPROCESSOR LAB", "type": "lab", "floor": 3, "roomNo": "314" }, "geometry": { "type": "LineString", "coordinates": [ [ 91.618863763336108, 26.129613833112021, 0.0 ], [ 91.618876734600107, 26.129678026343292, 0.0 ], [ 91.619034216734789, 26.129646567524507, 0.0 ], [ 91.619021245470776, 26.129582374293232, 0.0 ], [ 91.618863763336108, 26.129613833112021, 0.0 ] ] } },
{ "type": "Feature", "properties": { "fid": 4, "name": "STAIR-1", "type": "staircase", "floor": 3, "roomNo": null }, "geometry": { "type": "LineString", "coordinates": [ [ 91.619006447356668, 26.129508812303744, 0.0 ], [ 91.619011662464843, 26.129534621249178, 0.0 ], [ 91.619039305042037, 26.129529099335034, 0.0 ], [ 91.619034089933876, 26.1295032903896, 0.0 ], [ 91.619006447356668, 26.129508812303744, 0.0 ] ] } },
{ "type": "Feature", "properties": { "fid": 5, "name": "LIFT-1", "type": "lift", "floor": 3, "roomNo": null }, "geometry": { "type": "LineString", "coordinates": [ [ 91.61903930504333, 26.129529099334771, 0.0 ], [ 91.619043772684904, 26.129551209157558, 0.0 ], [ 91.619065830504951, 26.129546802861153, 0.0 ], [ 91.619061362863377, 26.12952469303837, 0.0 ], [ 91.61903930504333, 26.129529099334771, 0.0 ] ] } },
{ "type": "Feature", "properties": { "fid": 6, "name": "308", "type": "classroom", "floor": 3, "roomNo": "308" }, "geometry": { "type": "LineString", "coordinates": [ [ 91.619063999687029, 26.129481129873732, 0.0 ], [ 91.619077346002143, 26.129547179187981, 0.0 ], [ 91.619203979853609, 26.129521882658981, 0.0 ], [ 91.619190633538494, 26.129455833344736, 0.0 ], [ 91.619063999687029, 26.129481129873732, 0.0 ] ] } },
{ "type": "Feature", "properties": { "fid": 7, "name": "307 (MEN)", "type": "washroom", "floor": 3, "roomNo": "307" }, "geometry": { "type": "LineString", "coordinates": [ [ 91.619208148412412, 26.129455946263242, 0.0 ], [ 91.619220653043115, 26.129517830182287, 0.0 ], [ 91.619288864710214, 26.129504204138421, 0.0 ], [ 91.61927636007951, 26.129442320219376, 0.0 ], [ 91.619208148412412, 26.129455946263242, 0.0 ] ] } },
{ "type": "Feature", "properties": { "fid": 8, "name": "306", "type": "washroom", "floor": 3, "roomNo": "306" }, "geometry": { "type": "LineString", "coordinates": [ [ 91.619276360068099, 26.129442320216437, 0.0 ], [ 91.619288864698817, 26.129504204135486, 0.0 ], [ 91.619327886535956, 26.129496409086826, 0.0 ], [ 91.619315381905238, 26.129434525167774, 0.0 ], [ 91.619276360068099, 26.129442320216437, 0.0 ] ] } },
{ "type": "Feature", "properties": { "fid": 9, "name": "SPORTS STORE ROOM", "type": "storeRoom", "floor": 3, "roomNo": "305" }, "geometry": { "type": "LineString", "coordinates": [ [ 91.619315381866244, 26.129434525175562, 0.0 ], [ 91.619327886496976, 26.12949640909461, 0.0 ], [ 91.61935369455685, 26.129491253645828, 0.0 ], [ 91.619341189926146, 26.129429369726783, 0.0 ], [ 91.619315381866244, 26.129434525175562, 0.0 ] ] } },
{ "type": "Feature", "properties": { "fid": 10, "name": "STAIR-2", "type": "staircase", "floor": 3, "roomNo": null }, "geometry": { "type": "LineString", "coordinates": [ [ 91.619343439172454, 26.129443907013158, 0.0 ], [ 91.619348851982352, 26.129470694360837, 0.0 ], [ 91.619379389317842, 26.129464594186331, 0.0 ], [ 91.619373976507944, 26.129437806838656, 0.0 ], [ 91.619343439172454, 26.129443907013158, 0.0 ] ] } },
{ "type": "Feature", "properties": { "fid": 11, "name": "303", "type": "classroom", "floor": 3, "roomNo": "303" }, "geometry": { "type": "LineString", "coordinates": [ [ 91.619371323613564, 26.129424147338856, 0.0 ], [ 91.619383630541265, 26.129485052849393, 0.0 ], [ 91.619478910324077, 26.129466019646493, 0.0 ], [ 91.619466603396376, 26.12940511413596, 0.0 ], [ 91.619371323613564, 26.129424147338856, 0.0 ] ] } },
{ "type": "Feature", "properties": { "fid": 12, "name": "302", "type": "classroom", "floor": 3, "roomNo": "302" }, "geometry": { "type": "LineString", "coordinates": [ [ 91.619466603421344, 26.129405114125749, 0.0 ], [ 91.619478910349045, 26.129466019636286, 0.0 ], [ 91.61958992148088, 26.129443843920374, 0.0 ], [ 91.61957761455318, 26.129382938409837, 0.0 ], [ 91.619466603421344, 26.129405114125749, 0.0 ] ] } },
{ "type": "Feature", "properties": { "fid": 13, "name": "ENVIRONMENTAL ENGINEERING LAB", "type": "lab", "floor": 3, "roomNo": "301" }, "geometry": { "type": "LineString", "coordinates": [ [ 91.619577614579171, 26.129382938404643, 0.0 ], [ 91.619593881355257, 26.129463440730287, 0.0 ], [ 91.619705226912629, 26.129441198209133, 0.0 ], [ 91.619688960136543, 26.129360695883484, 0.0 ], [ 91.619577614579171, 26.129382938404643, 0.0 ] ] } },
{ "type": "Feature", "properties": { "fid": 18, "name": "318A", "type": "room", "floor": 3, "roomNo": "318A" }, "geometry": { "type": "LineString", "coordinates": [ [ 91.619078767305894, 26.129754242204985, 0.0 ], [ 91.619084275332767, 26.129781500770036, 0.0 ], [ 91.619130259299141, 26.129772314958146, 0.0 ], [ 91.619124751272267, 26.129745056393098, 0.0 ], [ 91.619078767305894, 26.129754242204985, 0.0 ] ] } },
{ "type": "Feature", "properties": { "fid": 19, "name": "MTECH-ECE2", "type": "room", "floor": 3, "roomNo": "320A" }, "geometry": { "type": "LineString", "coordinates": [ [ 91.619096358042299, 26.129836860147549, 0.0 ], [ 91.619101727968996, 26.129863435271357, 0.0 ], [ 91.619146850250942, 26.129854421590572, 0.0 ], [ 91.619141480324231, 26.12982784646676, 0.0 ], [ 91.619096358042299, 26.129836860147549, 0.0 ] ] } },
{ "type": "Feature", "properties": { "fid": 22, "name": "NANO TECHNOLOGY LAB", "type": "lab", "floor": 3, "roomNo": "325A" }, "geometry": { "type": "LineString", "coordinates": [ [ 91.619240140652295, 26.129946794281874, 0.0 ], [ 91.619253684671435, 26.130013822009644, 0.0 ], [ 91.61928075279755, 26.130008414848533, 0.0 ], [ 91.619267208778425, 26.129941387120763, 0.0 ], [ 91.619240140652295, 26.129946794281874, 0.0 ] ] } },
{ "type": "Feature", "properties": { "fid": 23, "name": "326", "type": "classroom", "floor": 3, "roomNo": "326" }, "geometry": { "type": "LineString", "coordinates": [ [ 91.619267208762807, 26.129941387123878, 0.0 ], [ 91.619280752772326, 26.130008414804021, 0.0 ], [ 91.619342158339734, 26.129996148354738, 0.0 ], [ 91.619328614330229, 26.129929120674596, 0.0 ], [ 91.619267208762807, 26.129941387123878, 0.0 ] ] } },
{ "type": "Feature", "properties": { "fid": 24, "name": "327", "type": "classroom", "floor": 3, "roomNo": "327" }, "geometry": { "type": "LineString", "coordinates": [ [ 91.619328614357542, 26.129929120669146, 0.0 ], [ 91.619342158376682, 26.129996148396913, 0.0 ], [ 91.619404251221738, 26.129983744656226, 0.0 ], [ 91.619390707202612, 26.129916716928456, 0.0 ], [ 91.619328614357542, 26.129929120669146, 0.0 ] ] } },
{ "type": "Feature", "properties": { "fid": 25, "name": "LIFT-2", "type": "lift", "floor": 3, "roomNo": null }, "geometry": { "type": "LineString", "coordinates": [ [ 91.619400910224527, 26.129916698798649, 0.0 ], [ 91.619405112111906, 26.129937493435865, 0.0 ], [ 91.6194271637317, 26.129933088378035, 0.0 ], [ 91.619422961844307, 26.129912293740816, 0.0 ], [ 91.619400910224527, 26.129916698798649, 0.0 ] ] } },
{ "type": "Feature", "properties": { "fid": 26, "name": "EMPTY ROOM", "type": "room", "floor": 3, "roomNo": null }, "geometry": { "type": "LineString", "coordinates": [ [ 91.619395301446076, 26.129939453235295, 0.0 ], [ 91.619404251228602, 26.129983744636601, 0.0 ], [ 91.619436113543287, 26.12997737978267, 0.0 ], [ 91.619427163760761, 26.12993308838136, 0.0 ], [ 91.619395301446076, 26.129939453235295, 0.0 ] ] } },
{ "type": "Feature", "properties": { "fid": 27, "name": null, "type": null, "floor": null, "roomNo": null }, "geometry": { "type": "LineString", "coordinates": [ [ 91.619290017180319, 26.129552312747837, 0.0 ], [ 91.619290198164464, 26.129553208416706, 0.0 ], [ 91.619292363614605, 26.129552775843809, 0.0 ], [ 91.61929218263046, 26.12955188017494, 0.0 ], [ 91.619290017180319, 26.129552312747837, 0.0 ] ] } },
{ "type": "Feature", "properties": { "fid": 28, "name": "STAIR-3", "type": "staircase", "floor": 3, "roomNo": null }, "geometry": { "type": "LineString", "coordinates": [ [ 91.619319522643991, 26.129700210653908, 0.0 ], [ 91.619326759832006, 26.129736026630251, 0.0 ], [ 91.619356700231705, 26.129730045700352, 0.0 ], [ 91.619349463043662, 26.129694229724009, 0.0 ], [ 91.619319522643991, 26.129700210653908, 0.0 ] ] } },
{ "type": "Feature", "properties": { "fid": 29, "name": "ENGINEERING DRAWING HALL", "type": "hall", "floor": 3, "roomNo": "330" }, "geometry": { "type": "LineString", "coordinates": [ [ 91.619566041650586, 26.129859541192992, 0.0 ], [ 91.619583275257597, 26.129944828249084, 0.0 ], [ 91.619794035429379, 26.129902726546145, 0.0 ], [ 91.619776801822368, 26.129817439490051, 0.0 ], [ 91.619566041650586, 26.129859541192992, 0.0 ] ] } },
{ "type": "Feature", "properties": { "fid": 30, "name": "STAIR-4", "type": "staircase", "floor": 3, "roomNo": null }, "geometry": { "type": "LineString", "coordinates": [ [ 91.619452186776144, 26.129921019191968, 0.0 ], [ 91.619457073350176, 26.129945202261407, 0.0 ], [ 91.619484141471105, 26.129939795101333, 0.0 ], [ 91.619479254897058, 26.129915612031894, 0.0 ], [ 91.619452186776144, 26.129921019191968, 0.0 ] ] } },
{ "type": "Feature", "properties": { "fid": 31, "name": "352", "type": "classroom", "floor": 3, "roomNo": "352" }, "geometry": { "type": "LineString", "coordinates": [ [ 91.619500373774443, 26.130002323689606, 0.0 ], [ 91.619520174829773, 26.130100316739789, 0.0 ], [ 91.619601379193853, 26.130084095259306, 0.0 ], [ 91.619581578138508, 26.129986102209127, 0.0 ], [ 91.619500373774443, 26.130002323689606, 0.0 ] ] } },
{ "type": "Feature", "properties": { "fid": 32, "name": "353", "type": "classroom", "floor": 3, "roomNo": "353" }, "geometry": { "type": "LineString", "coordinates": [ [ 91.61958157812812, 26.129986102211202, 0.0 ], [ 91.619601379174597, 26.130084095217512, 0.0 ], [ 91.61967065401123, 26.130070256793637, 0.0 ], [ 91.619650852964753, 26.129972263787327, 0.0 ], [ 91.61958157812812, 26.129986102211202, 0.0 ] ] } },
{ "type": "Feature", "properties": { "fid": 33, "name": "MECHANICAL ENGINEERING LAB-1", "type": "lab", "floor": 3, "roomNo": "354" }, "geometry": { "type": "LineString", "coordinates": [ [ 91.619650852959566, 26.12997226378836, 0.0 ], [ 91.619670654009596, 26.130070256812221, 0.0 ], [ 91.619746786261217, 26.13005504854296, 0.0 ], [ 91.619726985211187, 26.129957055519103, 0.0 ], [ 91.619650852959566, 26.12997226378836, 0.0 ] ] } },
{ "type": "Feature", "properties": { "fid": 34, "name": "MECHANICAL ENGINEERING LAB-2", "type": "lab", "floor": 3, "roomNo": "355" }, "geometry": { "type": "LineString", "coordinates": [ [ 91.619726985217696, 26.129957055517803, 0.0 ], [ 91.619746786267712, 26.13005504854166, 0.0 ], [ 91.619821299816664, 26.130040163626376, 0.0 ], [ 91.619801498766648, 26.129942170602515, 0.0 ], [ 91.619726985217696, 26.129957055517803, 0.0 ] ] } },
{ "type": "Feature", "properties": { "fid": 35, "name": "STAIR-5", "type": "staircase", "floor": 3, "roomNo": null }, "geometry": { "type": "LineString", "coordinates": [ [ 91.619467448865876, 26.130019536864832, 0.0 ], [ 91.619472055604788, 26.130042335063656, 0.0 ], [ 91.619507166109642, 26.130035321347389, 0.0 ], [ 91.61950255937073, 26.130012523148562, 0.0 ], [ 91.619467448865876, 26.130019536864832, 0.0 ] ] } },
{ "type": "Feature", "properties": { "fid": 36, "name": "WASHROOM (MEN)", "type": "washroom", "floor": 3, "roomNo": null }, "geometry": { "type": "LineString", "coordinates": [ [ 91.619438340727953, 26.130039599202355, 0.0 ], [ 91.619449497786732, 26.13009481414942, 0.0 ], [ 91.619480896805342, 26.130088541844067, 0.0 ], [ 91.619469739746549, 26.130033326897003, 0.0 ], [ 91.619438340727953, 26.130039599202355, 0.0 ] ] } },
{ "type": "Feature", "properties": { "fid": 37, "name": "RESEARCH SCHOLAR'S CABIN-1", "type": "cabin", "floor": 3, "roomNo": null }, "geometry": { "type": "LineString", "coordinates": [ [ 91.619521615100297, 26.129977766136445, 0.0 ], [ 91.619525593119576, 26.129997452877173, 0.0 ], [ 91.61955101966835, 26.12999237363951, 0.0 ], [ 91.619547041649071, 26.129972686898778, 0.0 ], [ 91.619521615100297, 26.129977766136445, 0.0 ] ] } },
{ "type": "Feature", "properties": { "fid": 38, "name": "RESEARCH SCHOLAR'S CABIN-2", "type": "lab", "floor": 3, "roomNo": null }, "geometry": { "type": "LineString", "coordinates": [ [ 91.619595887806085, 26.129962929332269, 0.0 ], [ 91.619599824091523, 26.129982409537252, 0.0 ], [ 91.619626457436269, 26.129977089228589, 0.0 ], [ 91.619622521150831, 26.129957609023606, 0.0 ], [ 91.619595887806085, 26.129962929332269, 0.0 ] ] } },
{ "type": "Feature", "properties": { "fid": 39, "name": "RESEARCH SCHOLAR'S CABIN-3", "type": "cabin", "floor": 3, "roomNo": null }, "geometry": { "type": "LineString", "coordinates": [ [ 91.619670139111705, 26.129947848562804, 0.0 ], [ 91.619674137159421, 26.129967634421888, 0.0 ], [ 91.619700059653809, 26.129962456113535, 0.0 ], [ 91.619696061606092, 26.129942670254451, 0.0 ], [ 91.619670139111705, 26.129947848562804, 0.0 ] ] } },
{ "type": "Feature", "properties": { "fid": 40, "name": "RESEARCH SCHOLAR'S CABIN-4", "type": "cabin", "floor": 3, "roomNo": null }, "geometry": { "type": "LineString", "coordinates": [ [ 91.619748250966779, 26.129932244845602, 0.0 ], [ 91.619752239824322, 26.129951985223578, 0.0 ], [ 91.619778568519081, 26.12994672577215, 0.0 ], [ 91.619774579661552, 26.129926985394171, 0.0 ], [ 91.619748250966779, 26.129932244845602, 0.0 ] ] } },
{ "type": "Feature", "properties": { "fid": 41, "name": null, "type": null, "floor": null, "roomNo": null }, "geometry": { "type": "LineString", "coordinates": [ [ 91.619433497524412, 26.130015630768401, 0.0 ], [ 91.619438340720606, 26.130039599166011, 0.0 ], [ 91.619456458242595, 26.130035979988232, 0.0 ], [ 91.619451615046401, 26.130012011590626, 0.0 ], [ 91.619433497524412, 26.130015630768401, 0.0 ] ] } },
{ "type": "Feature", "properties": { "fid": 42, "name": "309 (STAFF)", "type": "washroom", "floor": 3, "roomNo": "309" }, "geometry": { "type": "LineString", "coordinates": [ [ 91.619030946249893, 26.129487732667698, 0.0 ], [ 91.619037222106172, 26.129518791128302, 0.0 ], [ 91.619070275538078, 26.129512188335372, 0.0 ], [ 91.619063999681828, 26.129481129874769, 0.0 ], [ 91.619030946249893, 26.129487732667698, 0.0 ] ] } },
{ "type": "Feature", "properties": { "fid": 43, "name": null, "type": null, "floor": null, "roomNo": null }, "geometry": { "type": "LineString", "coordinates": [ [ 91.61903722210667, 26.129518791130806, 0.0 ], [ 91.619039305042321, 26.129529099329762, 0.0 ], [ 91.619061362825974, 26.129524693040626, 0.0 ], [ 91.619059279890323, 26.129514384841677, 0.0 ], [ 91.61903722210667, 26.129518791130806, 0.0 ] ] } },
{ "type": "Feature", "properties": { "fid": 47, "name": "HOD OFFICE - MECHANICAL ENGINEERING DEPARTMENT", "type": "office", "floor": 3, "roomNo": "323" }, "geometry": { "type": "LineString", "coordinates": [ [ 91.619100211902833, 26.129974746615535, 0.0 ], [ 91.619113755916629, 26.130041774316982, 0.0 ], [ 91.619189871330065, 26.130026569411342, 0.0 ], [ 91.619176327316254, 26.129959541709887, 0.0 ], [ 91.619100211902833, 26.129974746615535, 0.0 ] ] } },
{ "type": "Feature", "properties": { "fid": 48, "name": null, "type": null, "floor": null, "roomNo": null }, "geometry": { "type": "LineString", "coordinates": [ [ 91.619391099548039, 26.129918658545424, 0.0 ], [ 91.619395301440491, 26.129939453207719, 0.0 ], [ 91.619405112104218, 26.129937493417849, 0.0 ], [ 91.619400910211766, 26.129916698755554, 0.0 ], [ 91.619391099548039, 26.129918658545424, 0.0 ] ] } },
{ "type": "Feature", "properties": { "fid": 49, "name": "", "type": "", "floor": null, "roomNo": "" }, "geometry": { "type": "LineString", "coordinates": [ [ 91.619507611103558, 26.129891511127148, 0.0 ], [ 91.619520902366489, 26.129957287994699, 0.0 ], [ 91.619583275274962, 26.129944828308215, 0.0 ], [ 91.619569984012031, 26.129879051440664, 0.0 ], [ 91.619507611103558, 26.129891511127148, 0.0 ] ] } },
{ "type": "Feature", "properties": { "fid": 50, "name": null, "type": null, "floor": null, "roomNo": null }, "geometry": { "type": "LineString", "coordinates": [ [ 91.619593881356025, 26.12946344073405, 0.0 ], [ 91.619044264248132, 26.129576514241684, 0.0 ], [ 91.619068901294909, 26.12969844003409, 0.0 ], [ 91.619042830900227, 26.129703647887183, 0.0 ], [ 91.619054051922802, 26.12975917938326, 0.0 ], [ 91.619078767306632, 26.12975424220874, 0.0 ], [ 91.619084275337087, 26.129781500791342, 0.0 ], [ 91.619060278050227, 26.129786294517945, 0.0 ], [ 91.619071499072774, 26.129841826014029, 0.0 ], [ 91.619096358044047, 26.12983686015632, 0.0 ], [ 91.619101727968484, 26.129863435268849, 0.0 ], [ 91.619077443439181, 26.129868286375345, 0.0 ], [ 91.619088664461486, 26.129923817870175, 0.0 ], [ 91.619158071235063, 26.129909953090422, 0.0 ], [ 91.619163272286613, 26.129936864718733, 0.0 ], [ 91.619338783718717, 26.12990144770518, 0.0 ], [ 91.619339862104155, 26.129906702964867, 0.0 ], [ 91.619440104627813, 26.129886678398954, 0.0 ], [ 91.619440104627813, 26.129886678398954, 0.0 ], [ 91.619439545568866, 26.129884324807399, 0.0 ], [ 91.619566040322383, 26.129859541412674, 0.0 ], [ 91.619569982670001, 26.129879051618765, 0.0 ], [ 91.619475316693681, 26.129897962206947, 0.0 ], [ 91.619479253336166, 26.129915612298056, 0.0 ], [ 91.619452185236042, 26.129921019453974, 0.0 ], [ 91.61945707180098, 26.129945202478289, 0.0 ], [ 91.619484139901118, 26.129939795322372, 0.0 ], [ 91.619486437158926, 26.129952996056847, 0.0 ], [ 91.619518730230695, 26.129946545154372, 0.0 ], [ 91.619520900974592, 26.129957288173639, 0.0 ], [ 91.619794034034058, 26.129902726788369, 0.0 ], [ 91.61980149741791, 26.129942170827608, 0.0 ], [ 91.619778413269074, 26.129945964324943, 0.0 ], [ 91.619774578319024, 26.129926985616713, 0.0 ], [ 91.619748249585285, 26.129932245075928, 0.0 ], [ 91.619752084535335, 26.129951223784158, 0.0 ], [ 91.619699974407041, 26.129962040889772, 0.0 ], [ 91.619696060314041, 26.129942670512552, 0.0 ], [ 91.619670137792355, 26.129947848826355, 0.0 ], [ 91.619674051885369, 26.129967219203579, 0.0 ], [ 91.619626414105028, 26.129976881673997, 0.0 ], [ 91.619622519804423, 26.129957609246926, 0.0 ], [ 91.619595886424605, 26.129962929562598, 0.0 ], [ 91.61959978072521, 26.129982201989669, 0.0 ], [ 91.619550962382078, 26.129992097110183, 0.0 ], [ 91.61954704032982, 26.129972687343574, 0.0 ], [ 91.619521613764149, 26.129977766584613, 0.0 ], [ 91.619525535816422, 26.129997176351225, 0.0 ], [ 91.619500372472501, 26.130002324313519, 0.0 ], [ 91.619502558093444, 26.130012523720602, 0.0 ], [ 91.619467447608088, 26.130019537432975, 0.0 ], [ 91.619469738187448, 26.130033327526636, 0.0 ], [ 91.619456456680439, 26.130035980656295, 0.0 ], [ 91.619451613485765, 26.130012012266214, 0.0 ], [ 91.619433496011865, 26.130015631434379, 0.0 ], [ 91.619426443999842, 26.129979527828709, 0.0 ], [ 91.619436111942463, 26.129977380292843, 0.0 ], [ 91.619422960268992, 26.129912294236764, 0.0 ], [ 91.619391144619826, 26.129918706559511, 0.0 ], [ 91.619390704327813, 26.12991671786655, 0.0 ], [ 91.619136112602135, 26.129967575458544, 0.0 ], [ 91.619131691205794, 26.129945694497806, 0.0 ], [ 91.619074379968225, 26.129957067187455, 0.0 ], [ 91.619012589441695, 26.129650931901267, 0.0 ], [ 91.619034213829792, 26.129646568119142, 0.0 ], [ 91.619021242541734, 26.129582374768802, 0.0 ], [ 91.618863763320022, 26.129613833005696, 0.0 ], [ 91.618859441501314, 26.129592444842821, 0.0 ], [ 91.619016349210924, 26.12956110077187, 0.0 ], [ 91.619011662443555, 26.129534621143886, 0.0 ], [ 91.619039305022056, 26.129529099229483, 0.0 ], [ 91.619043772664384, 26.129551209056029, 0.0 ], [ 91.619065830464919, 26.129546802763517, 0.0 ], [ 91.619059279908214, 26.129514384843311, 0.0 ], [ 91.619070275551309, 26.129512188340556, 0.0 ], [ 91.619077346011437, 26.129547179200468, 0.0 ], [ 91.619353694572155, 26.129491253647984, 0.0 ], [ 91.619348851982608, 26.129470694362091, 0.0 ], [ 91.619379389285598, 26.129464594194072, 0.0 ], [ 91.619383630383439, 26.129485052884831, 0.0 ], [ 91.619589921349601, 26.129443843946596, 0.0 ], [ 91.619593881356025, 26.12946344073405, 0.0 ] ] } },
{ "type": "Feature", "properties": { "fid": 52, "name": null, "type": null, "floor": null, "roomNo": null }, "geometry": { "type": "LineString", "coordinates": [ [ 91.619095790501007, 26.129952865708042, 0.0 ], [ 91.619100211893056, 26.129974746647477, 0.0 ], [ 91.619136115411493, 26.12996757451787, 0.0 ], [ 91.619131694019444, 26.129945693578438, 0.0 ], [ 91.619095790501007, 26.129952865708042, 0.0 ] ] } },
{ "type": "Feature", "properties": { "fid": 53, "name": null, "type": null, "floor": null, "roomNo": null }, "geometry": { "type": "LineString", "coordinates": [ [ 91.619396029075787, 26.129917730504847, 0.0 ], [ 91.619391146193536, 26.129918705915216, 0.0 ], [ 91.619393244957024, 26.129929092444211, 0.0 ], [ 91.619395343718736, 26.129939478964431, 0.0 ], [ 91.619400226600973, 26.129938503554062, 0.0 ], [ 91.619405109472808, 26.129937528145767, 0.0 ], [ 91.619403010711082, 26.129927141625551, 0.0 ], [ 91.619400911947608, 26.129916755096556, 0.0 ], [ 91.619396029075787, 26.129917730504847, 0.0 ] ] } },
{ "type": "Feature", "properties": { "fid": 54, "name": "", "type": "", "floor": null, "roomNo": null }, "geometry": { "type": "LineString", "coordinates": [ [ 91.619475318079054, 26.129897961982369, 0.0 ], [ 91.619486438550368, 26.12995299586235, 0.0 ], [ 91.619518731587036, 26.129946544966881, 0.0 ], [ 91.619507611115722, 26.129891511086896, 0.0 ], [ 91.619475318079054, 26.129897961982369, 0.0 ] ] } },
{ "type": "Feature", "properties": { "fid": 55, "name": null, "type": null, "floor": null, "roomNo": null }, "geometry": { "type": "LineString", "coordinates": [ [ 91.619002594417807, 26.12949303001578, 0.0 ], [ 91.619003434544041, 26.129492905734189, 0.0 ], [ 91.619004341469306, 26.129492764685622, 0.0 ], [ 91.619005308796801, 26.129492608283218, 0.0 ], [ 91.619006330129665, 26.129492437940097, 0.0 ], [ 91.619007399071194, 26.129492255069405, 0.0 ], [ 91.619008509224486, 26.12949206108426, 0.0 ], [ 91.619009654192794, 26.129491857397813, 0.0 ], [ 91.619010827579274, 26.129491645423187, 0.0 ], [ 91.61901202298715, 26.129491426573516, 0.0 ], [ 91.619013234019576, 26.129491202261935, 0.0 ], [ 91.619014454279821, 26.129490973901575, 0.0 ], [ 91.619015677370982, 26.12949074290557, 0.0 ], [ 91.619016896896341, 26.129490510687052, 0.0 ], [ 91.619018106459023, 26.129490278659151, 0.0 ], [ 91.619019299662284, 26.129490048235017, 0.0 ], [ 91.619020470109263, 26.129489820827757, 0.0 ], [ 91.619021611403184, 26.129489597850522, 0.0 ], [ 91.61902271714726, 26.129489380716439, 0.0 ], [ 91.61902378094463, 26.129489170838646, 0.0 ], [ 91.61902479639852, 26.129488969630266, 0.0 ], [ 91.619025757112155, 26.129488778504442, 0.0 ], [ 91.619026656688675, 26.129488598874296, 0.0 ], [ 91.619027488731305, 26.129488432152979, 0.0 ], [ 91.619028246843214, 26.129488279753609, 0.0 ], [ 91.619028924627642, 26.129488143089318, 0.0 ], [ 91.619029515687743, 26.129488023573252, 0.0 ], [ 91.619030013626713, 26.129487922618534, 0.0 ], [ 91.619030412047763, 26.129487841638298, 0.0 ], [ 91.619030704554092, 26.129487782045683, 0.0 ], [ 91.619030884748867, 26.129487745253812, 0.0 ], [ 91.619030946235327, 26.129487732675827, 0.0 ] ] } },
{ "type": "Feature", "properties": { "fid": 56, "name": null, "type": null, "floor": null, "roomNo": null }, "geometry": { "type": "LineString", "coordinates": [ [ 91.619480896725506, 26.130088541863923, 0.0 ], [ 91.619474547328693, 26.130056230336042, 0.0 ], [ 91.61951041182725, 26.130049677269323, 0.0 ], [ 91.619520174761533, 26.13010031678342, 0.0 ] ] } },
{ "type": "Feature", "properties": { "fid": 57, "name": null, "type": null, "floor": null, "roomNo": null }, "geometry": { "type": "LineString", "coordinates": [ [ 91.619341189934175, 26.129429369726481, 0.0 ], [ 91.619371323583394, 26.12942414734357, 0.0 ] ] } },
{ "type": "Feature", "properties": { "fid": 58, "name": null, "type": null, "floor": null, "roomNo": null }, "geometry": { "type": "LineString", "coordinates": [ [ 91.619306171339403, 26.1297399644404, 0.0 ], [ 91.619299229452722, 26.129703606935312, 0.0 ] ] } },
{ "type": "Feature", "properties": { "fid": 59, "name": "CENTRAL LIBRARY", "type": "library", "floor": 3, "roomNo": "304" }, "geometry": { "type": "LineString", "coordinates": [ [ 91.619364270838375, 26.129511378452655, 0.0 ], [ 91.619393541526662, 26.129656235849222, 0.0 ], [ 91.619552953054352, 26.129624391612587, 0.0 ], [ 91.619571701998638, 26.129717177891191, 0.0 ], [ 91.619412290470947, 26.129749022127825, 0.0 ], [ 91.619440106046127, 26.129886678183439, 0.0 ], [ 91.619339862104155, 26.129906702964867, 0.0 ], [ 91.619306171339403, 26.1297399644404, 0.0 ], [ 91.619384297405517, 26.129724357870039, 0.0 ], [ 91.619376965733508, 26.129688074303779, 0.0 ], [ 91.619299229452722, 26.129703606935312, 0.0 ], [ 91.61926398048692, 26.129531412572717, 0.0 ], [ 91.619364270838375, 26.129511378452655, 0.0 ] ] } },
{ "type": "Feature", "properties": { "fid": 60, "name": "HOD ECE", "type": "office", "floor": 3, "roomNo": "316" }, "geometry": { "type": "LineString", "coordinates": [ [ 91.619068901293161, 26.129698440025312, 0.0 ], [ 91.619061900414636, 26.129663846612143, 0.0 ], [ 91.619106553480933, 26.12965559238781, 0.0 ], [ 91.619113530235694, 26.129689524894598, 0.0 ], [ 91.619068901293161, 26.129698440025312, 0.0 ] ] } },
{ "type": "Feature", "properties": { "fid": 61, "name": "ECE STAFF COMMON ROOM", "type": "commonRoom", "floor": 3, "roomNo": "315" }, "geometry": { "type": "LineString", "coordinates": [ [ 91.619061900414636, 26.129663846612143, 0.0 ], [ 91.619044264248132, 26.129576514241684, 0.0 ], [ 91.619088893190664, 26.12956759911097, 0.0 ], [ 91.619106553480933, 26.12965559238781, 0.0 ], [ 91.619061900414636, 26.129663846612143, 0.0 ] ] } },
{ "type": "Feature", "properties": { "fid": 62, "name": "317", "type": "fcabin", "floor": 3, "roomNo": "317" }, "geometry": { "type": "LineString", "coordinates": [ [ 91.619042830900227, 26.129703647887183, 0.0 ], [ 91.619048810886127, 26.129733188966174, 0.0 ], [ 91.619119575963964, 26.129720140744272, 0.0 ], [ 91.619113530232809, 26.129689524900385, 0.0 ], [ 91.619042830900227, 26.129703647887183, 0.0 ] ] } },
{ "type": "Feature", "properties": { "fid": 63, "name": "318", "type": "fcabin", "floor": 3, "roomNo": "318" }, "geometry": { "type": "LineString", "coordinates": [ [ 91.619048810886127, 26.129733188966174, 0.0 ], [ 91.619054051922802, 26.12975917938326, 0.0 ], [ 91.61912475125537, 26.129745056396466, 0.0 ], [ 91.619119575963964, 26.129720140744272, 0.0 ], [ 91.619048810886127, 26.129733188966174, 0.0 ] ] } },
{ "type": "Feature", "properties": { "fid": 64, "name": "319", "type": "fcabin", "floor": 3, "roomNo": "319" }, "geometry": { "type": "LineString", "coordinates": [ [ 91.619060278050227, 26.129786294517945, 0.0 ], [ 91.619066094592796, 26.129814711355614, 0.0 ], [ 91.619135588071487, 26.129800644680806, 0.0 ], [ 91.619130259290998, 26.129772314978027, 0.0 ], [ 91.619060278050227, 26.129786294517945, 0.0 ] ] } },
{ "type": "Feature", "properties": { "fid": 65, "name": "320", "type": "fcabin", "floor": 3, "roomNo": "320" }, "geometry": { "type": "LineString", "coordinates": [ [ 91.619066094592796, 26.129814711355614, 0.0 ], [ 91.619071499072774, 26.129841826014029, 0.0 ], [ 91.619141480313303, 26.129827846472857, 0.0 ], [ 91.619135588071487, 26.129800644680806, 0.0 ], [ 91.619066094592796, 26.129814711355614, 0.0 ] ] } },
{ "type": "Feature", "properties": { "fid": 66, "name": "321", "type": "fcabin", "floor": 3, "roomNo": "321" }, "geometry": { "type": "LineString", "coordinates": [ [ 91.619077443439181, 26.129868286375345, 0.0 ], [ 91.619083385238582, 26.129895976979206, 0.0 ], [ 91.619152591089914, 26.12988293909002, 0.0 ], [ 91.619146850250942, 26.129854421590572, 0.0 ], [ 91.619077443439181, 26.129868286375345, 0.0 ] ] } },
{ "type": "Feature", "properties": { "fid": 67, "name": "322", "type": "fcabin", "floor": 3, "roomNo": "322" }, "geometry": { "type": "LineString", "coordinates": [ [ 91.619083385238582, 26.129895976979206, 0.0 ], [ 91.619088664461486, 26.129923817870175, 0.0 ], [ 91.619158071244698, 26.129909953084585, 0.0 ], [ 91.619152591089914, 26.12988293909002, 0.0 ], [ 91.619083385238582, 26.129895976979206, 0.0 ] ] } },
{ "type": "Feature", "properties": { "fid": 68, "name": "324", "type": "fcabin", "floor": 3, "roomNo": "324" }, "geometry": { "type": "LineString", "coordinates": [ [ 91.619176327316254, 26.129959541709887, 0.0 ], [ 91.61920809353748, 26.12995393941523, 0.0 ], [ 91.61922085603787, 26.130020088572429, 0.0 ], [ 91.619189871330065, 26.130026569411342, 0.0 ], [ 91.619176327316254, 26.129959541709887, 0.0 ] ] } },
{ "type": "Feature", "properties": { "fid": 69, "name": "325", "type": "fcabin", "floor": 3, "roomNo": "325" }, "geometry": { "type": "LineString", "coordinates": [ [ 91.61920809353748, 26.12995393941523, 0.0 ], [ 91.619240140652295, 26.129946794281874, 0.0 ], [ 91.619253684666219, 26.130013822010682, 0.0 ], [ 91.61922085603787, 26.130020088572429, 0.0 ] ] } },
{ "type": "Feature", "properties": { "fid": 70, "name": "", "type": "", "floor": null, "roomNo": "" }, "geometry": { "type": "LineString", "coordinates": [ [ 91.61920809353748, 26.12995393941523, 0.0 ], [ 91.619240140647094, 26.129946794282915, 0.0 ], [ 91.619253684666219, 26.130013822010682, 0.0 ], [ 91.61922085603787, 26.130020088572429, 0.0 ], [ 91.61920809353748, 26.12995393941523, 0.0 ] ] } },
{ "type": "Feature", "properties": { "fid": 71, "name": "351 (STAFF)", "type": "washroom", "floor": 3, "roomNo": "351" }, "geometry": { "type": "LineString", "coordinates": [ [ 91.619456458242595, 26.130035979988232, 0.0 ], [ 91.619451613485765, 26.130012012266214, 0.0 ], [ 91.619433497524412, 26.130015630768401, 0.0 ], [ 91.619438340727953, 26.130039599202355, 0.0 ], [ 91.619456456680439, 26.130035980656295, 0.0 ] ] } },
{ "type": "Feature", "properties": { "fid": 72, "name": "329", "type": "classroom", "floor": 3, "roomNo": "329" }, "geometry": { "type": "LineString", "coordinates": [ [ 91.619486437158926, 26.129952996056847, 0.0 ], [ 91.619475318079054, 26.129897961982369, 0.0 ], [ 91.619569982670001, 26.129879051618765, 0.0 ], [ 91.619583275257597, 26.129944828249084, 0.0 ], [ 91.619520902366489, 26.129957287994699, 0.0 ], [ 91.619518730230695, 26.129946545154372, 0.0 ], [ 91.619486437158926, 26.129952996056847, 0.0 ] ] } },
{ "type": "Feature", "properties": { "fid": 1, "type": "path", "floor": 3 }, "geometry": { "type": "LineString", "coordinates": [ [ 91.619578190978103, 26.129454699896403 ], [ 91.619494232811164, 26.129471449372652 ], [ 91.619465211212656, 26.129476846618736 ], [ 91.619397733495148, 26.129490209706894 ], [ 91.619370077885648, 26.129495597900817 ], [ 91.619354778705215, 26.129498590910828 ], [ 91.619342617417416, 26.129500984801581 ], [ 91.619308475249412, 26.129508150955836 ], [ 91.619256296712351, 26.129518521033962 ], [ 91.619182907438926, 26.129534043822034 ], [ 91.619095036024902, 26.129551204780672 ], [ 91.619073455848621, 26.12955558883877 ], [ 91.619056189623365, 26.129559173209064 ], [ 91.619044397775497, 26.129562335751643 ] ] } },
{ "type": "Feature", "properties": { "fid": 2, "type": "corridor", "floor": 3 }, "geometry": { "type": "LineString", "coordinates": [ [ 91.619044397775497, 26.129562335751643 ], [ 91.619031748634441, 26.129564732875316 ], [ 91.619018210936304, 26.129567521437298 ], [ 91.619003687110364, 26.129570702084191 ], [ 91.618869480976571, 26.129598579945057 ], [ 91.618854171374849, 26.12960195857416 ] ] } },
{ "type": "Feature", "properties": { "fid": 3, "type": "path", "floor": 3 }, "geometry": { "type": "LineString", "coordinates": [ [ 91.618869480976571, 26.129598579945057 ], [ 91.618873803271114, 26.129619130034314 ] ] } },
{ "type": "Feature", "properties": { "fid": 4, "type": "path", "floor": 3 }, "geometry": { "type": "LineString", "coordinates": [ [ 91.618869480976571, 26.129598579945057 ], [ 91.618866540044664, 26.129584671439606 ] ] } },
{ "type": "Feature", "properties": { "fid": 5, "type": "path", "floor": 3 }, "geometry": { "type": "LineString", "coordinates": [ [ 91.619003687110364, 26.129570702084191 ], [ 91.619008404898125, 26.129591056777553 ] ] } },
{ "type": "Feature", "properties": { "fid": 6, "type": "path", "floor": 3 }, "geometry": { "type": "LineString", "coordinates": [ [ 91.619003687110364, 26.129570702084191 ], [ 91.619000566669115, 26.129556216443262 ] ] } },
{ "type": "Feature", "properties": { "fid": 7, "type": "path", "floor": 3 }, "geometry": { "type": "LineString", "coordinates": [ [ 91.619031748634441, 26.129564732875316 ], [ 91.619024374939812, 26.12952714241872 ] ] } },
{ "type": "Feature", "properties": { "fid": 8, "type": "path", "floor": 3 }, "geometry": { "type": "LineString", "coordinates": [ [ 91.619018210936304, 26.129567521437298 ], [ 91.619024374939812, 26.12952714241872 ] ] } },
{ "type": "Feature", "properties": { "fid": 9, "type": "path", "floor": 3 }, "geometry": { "type": "LineString", "coordinates": [ [ 91.619044397775497, 26.129562335751643 ], [ 91.619024374939812, 26.12952714241872 ] ] } },
{ "type": "Feature", "properties": { "fid": 10, "type": "path", "floor": 3 }, "geometry": { "type": "LineString", "coordinates": [ [ 91.619056189623365, 26.129559173209064 ], [ 91.619053187595327, 26.129543915683399 ] ] } },
{ "type": "Feature", "properties": { "fid": 11, "type": "path", "floor": 3 }, "geometry": { "type": "LineString", "coordinates": [ [ 91.619073455848621, 26.12955558883877 ], [ 91.619064811388668, 26.129510874127934 ] ] } },
{ "type": "Feature", "properties": { "fid": 12, "type": "path", "floor": 3 }, "geometry": { "type": "LineString", "coordinates": [ [ 91.619095036024902, 26.129551204780672 ], [ 91.619092788508738, 26.129536906130024 ] ] } },
{ "type": "Feature", "properties": { "fid": 13, "type": "path", "floor": 3 }, "geometry": { "type": "LineString", "coordinates": [ [ 91.619182907438926, 26.129534043822034 ], [ 91.619179229058886, 26.129514935278205 ] ] } },
{ "type": "Feature", "properties": { "fid": 14, "type": "path", "floor": 3 }, "geometry": { "type": "LineString", "coordinates": [ [ 91.619256296712351, 26.129518521033962 ], [ 91.619252571436348, 26.129501147776004 ] ] } },
{ "type": "Feature", "properties": { "fid": 15, "type": "path", "floor": 3 }, "geometry": { "type": "LineString", "coordinates": [ [ 91.619308475249412, 26.129508150955836 ], [ 91.61930528850138, 26.129492509104228 ] ] } },
{ "type": "Feature", "properties": { "fid": 16, "type": "path", "floor": 3 }, "geometry": { "type": "LineString", "coordinates": [ [ 91.619342617417416, 26.129500984801581 ], [ 91.619339963986604, 26.129487267165867 ] ] } },
{ "type": "Feature", "properties": { "fid": 17, "type": "path", "floor": 3 }, "geometry": { "type": "LineString", "coordinates": [ [ 91.619342617417416, 26.129500984801581 ], [ 91.619344238082562, 26.129509600743368 ], [ 91.619345918541256, 26.129519613907792 ] ] } },
{ "type": "Feature", "properties": { "fid": 18, "type": "path", "floor": 3 }, "geometry": { "type": "LineString", "coordinates": [ [ 91.619370077885648, 26.129495597900817 ], [ 91.619362786129614, 26.129458585226221 ] ] } },
{ "type": "Feature", "properties": { "fid": 19, "type": "path", "floor": 3 }, "geometry": { "type": "LineString", "coordinates": [ [ 91.619354778705215, 26.129498590910828 ], [ 91.619344238082562, 26.129509600743368 ] ] } },
{ "type": "Feature", "properties": { "fid": 20, "type": "path", "floor": 3 }, "geometry": { "type": "LineString", "coordinates": [ [ 91.619354778705215, 26.129498590910828 ], [ 91.619362786129614, 26.129458585226221 ] ] } },
{ "type": "Feature", "properties": { "fid": 21, "type": "path", "floor": 3 }, "geometry": { "type": "LineString", "coordinates": [ [ 91.619397733495148, 26.129490209706894 ], [ 91.619395132170951, 26.129474563975759 ] ] } },
{ "type": "Feature", "properties": { "fid": 22, "type": "path", "floor": 3 }, "geometry": { "type": "LineString", "coordinates": [ [ 91.619465211212656, 26.129476846618736 ], [ 91.619462375667226, 26.129462648252311 ] ] } },
{ "type": "Feature", "properties": { "fid": 23, "type": "path", "floor": 3 }, "geometry": { "type": "LineString", "coordinates": [ [ 91.619494232811164, 26.129471449372652 ], [ 91.619491505257699, 26.129456864740554 ] ] } },
{ "type": "Feature", "properties": { "fid": 24, "type": "path", "floor": 3 }, "geometry": { "type": "LineString", "coordinates": [ [ 91.619578190978103, 26.129454699896403 ], [ 91.619599174006339, 26.129450753539167 ] ] } },
{ "type": "Feature", "properties": { "fid": 25, "type": "path", "floor": 3 }, "geometry": { "type": "LineString", "coordinates": [ [ 91.619578190978103, 26.129454699896403 ], [ 91.619575611669973, 26.129441849256992 ] ] } },
{ "type": "Feature", "properties": { "fid": 26, "type": "path", "floor": 3 }, "geometry": { "type": "LineString", "coordinates": [ [ 91.619031748634441, 26.129564732875316 ], [ 91.619034320126289, 26.129577872728845 ], [ 91.619049557973909, 26.129652954004296 ], [ 91.619034147819463, 26.129703370402162 ], [ 91.619037930283412, 26.129722237287428 ], [ 91.619043086293971, 26.12974803497082 ], [ 91.619047904128536, 26.129771907145148 ], [ 91.619054506634953, 26.129801936293099 ], [ 91.619059620960243, 26.12982927645281 ], [ 91.619065325920047, 26.129856419923481 ], [ 91.619071590250471, 26.129884523562367 ], [ 91.619077105279672, 26.129911475516668 ], [ 91.61908302101277, 26.129938039265554 ], [ 91.619141074631145, 26.129926859154285 ], [ 91.619146230641718, 26.129952656837681 ], [ 91.619189380572934, 26.129944274340563 ], [ 91.619220759498901, 26.129938283147862 ], [ 91.61925096757713, 26.129932299714159 ], [ 91.61929685990772, 26.129923513493637 ], [ 91.619359227477062, 26.129911533694571 ] ] } },
{ "type": "Feature", "properties": { "fid": 27, "type": "path", "floor": 3 }, "geometry": { "type": "LineString", "coordinates": [ [ 91.619359227477062, 26.129911533694571 ], [ 91.619363306431737, 26.129933868565239 ] ] } },
{ "type": "Feature", "properties": { "fid": 28, "type": "path", "floor": 3 }, "geometry": { "type": "LineString", "coordinates": [ [ 91.61929685990772, 26.129923513493637 ], [ 91.619302047182202, 26.129948154319791 ] ] } },
{ "type": "Feature", "properties": { "fid": 29, "type": "path", "floor": 3 }, "geometry": { "type": "LineString", "coordinates": [ [ 91.61925096757713, 26.129932299714159 ], [ 91.619255405550433, 26.129955788855735 ] ] } },
{ "type": "Feature", "properties": { "fid": 30, "type": "path", "floor": 3 }, "geometry": { "type": "LineString", "coordinates": [ [ 91.619220759498901, 26.129938283147862 ], [ 91.61922517662957, 26.129962543527601 ] ] } },
{ "type": "Feature", "properties": { "fid": 31, "type": "path", "floor": 3 }, "geometry": { "type": "LineString", "coordinates": [ [ 91.619189380572934, 26.129944274340563 ], [ 91.619193469948897, 26.129966223592149 ] ] } },
{ "type": "Feature", "properties": { "fid": 32, "type": "path", "floor": 3 }, "geometry": { "type": "LineString", "coordinates": [ [ 91.619146230641718, 26.129952656837681 ], [ 91.619151417916228, 26.129977297663835 ] ] } },
{ "type": "Feature", "properties": { "fid": 33, "type": "path", "floor": 3 }, "geometry": { "type": "LineString", "coordinates": [ [ 91.619077105279672, 26.129911475516668 ], [ 91.619092805164001, 26.129908094301236 ] ] } },
{ "type": "Feature", "properties": { "fid": 34, "type": "path", "floor": 3 }, "geometry": { "type": "LineString", "coordinates": [ [ 91.619071590250471, 26.129884523562367 ], [ 91.619085913724476, 26.129881537018171 ] ] } },
{ "type": "Feature", "properties": { "fid": 35, "type": "path", "floor": 3 }, "geometry": { "type": "LineString", "coordinates": [ [ 91.619065325920047, 26.129856419923481 ], [ 91.619105717819934, 26.129849019578373 ] ] } },
{ "type": "Feature", "properties": { "fid": 36, "type": "path", "floor": 3 }, "geometry": { "type": "LineString", "coordinates": [ [ 91.619059620960243, 26.12982927645281 ], [ 91.619074925351313, 26.129826090633237 ] ] } },
{ "type": "Feature", "properties": { "fid": 37, "type": "path", "floor": 3 }, "geometry": { "type": "LineString", "coordinates": [ [ 91.619054506634953, 26.129801936293099 ], [ 91.619071282401663, 26.129798451560458 ] ] } },
{ "type": "Feature", "properties": { "fid": 38, "type": "path", "floor": 3 }, "geometry": { "type": "LineString", "coordinates": [ [ 91.619047904128536, 26.129771907145148 ], [ 91.619087420497905, 26.129764416214503 ] ] } },
{ "type": "Feature", "properties": { "fid": 39, "type": "path", "floor": 3 }, "geometry": { "type": "LineString", "coordinates": [ [ 91.619043086293971, 26.12974803497082 ], [ 91.619061417980333, 26.129744732702402 ] ] } },
{ "type": "Feature", "properties": { "fid": 40, "type": "path", "floor": 3 }, "geometry": { "type": "LineString", "coordinates": [ [ 91.619037930283412, 26.129722237287428 ], [ 91.619055291473998, 26.129718748675291 ] ] } },
{ "type": "Feature", "properties": { "fid": 41, "type": "path", "floor": 3 }, "geometry": { "type": "LineString", "coordinates": [ [ 91.619049557973909, 26.129652954004296 ], [ 91.619069329185265, 26.129648726515082 ], [ 91.619081891176975, 26.129645944418922 ] ] } },
{ "type": "Feature", "properties": { "fid": 42, "type": "path", "floor": 3 }, "geometry": { "type": "LineString", "coordinates": [ [ 91.619069329185265, 26.129648726515082 ], [ 91.6190730855959, 26.12966855744806 ] ] } },
{ "type": "Feature", "properties": { "fid": 43, "type": "path", "floor": 3 }, "geometry": { "type": "LineString", "coordinates": [ [ 91.619359227477062, 26.129911533694571 ], [ 91.619435264771198, 26.129897294589853 ], [ 91.619459587346839, 26.129892506808353 ], [ 91.619489600283785, 26.129886524667818 ], [ 91.619538255856355, 26.129876563485741 ], [ 91.619590782990741, 26.129867733297583 ] ] } },
{ "type": "Feature", "properties": { "fid": 44, "type": "path", "floor": 3 }, "geometry": { "type": "LineString", "coordinates": [ [ 91.619538255856355, 26.129876563485741 ], [ 91.619541505003014, 26.129893506155117 ] ] } },
{ "type": "Feature", "properties": { "fid": 45, "type": "path", "floor": 3 }, "geometry": { "type": "LineString", "coordinates": [ [ 91.619489600283785, 26.129886524667818 ], [ 91.619492880694409, 26.129902310479956 ] ] } },
{ "type": "Feature", "properties": { "fid": 46, "type": "path", "floor": 3 }, "geometry": { "type": "LineString", "coordinates": [ [ 91.619459587346839, 26.129892506808353 ], [ 91.619466691906624, 26.129925617029443 ] ] } },
{ "type": "Feature", "properties": { "fid": 47, "type": "path", "floor": 3 }, "geometry": { "type": "LineString", "coordinates": [ [ 91.619435264771198, 26.129897294589853 ], [ 91.619439200691176, 26.129917702658279 ], [ 91.61944536601905, 26.129949469678412 ], [ 91.619455329442857, 26.129999525155206 ], [ 91.619480822866223, 26.129994729614715 ], [ 91.619486644807481, 26.130024763935328 ] ] } },
{ "type": "Feature", "properties": { "fid": 48, "type": "path", "floor": 3 }, "geometry": { "type": "LineString", "coordinates": [ [ 91.619455329442857, 26.129999525155206 ], [ 91.619463945373312, 26.130041685786189 ] ] } },
{ "type": "Feature", "properties": { "fid": 49, "type": "path", "floor": 3 }, "geometry": { "type": "LineString", "coordinates": [ [ 91.619455329442857, 26.129999525155206 ], [ 91.619441986885988, 26.130002312424033 ], [ 91.619444882224641, 26.13001790801296 ] ] } },
{ "type": "Feature", "properties": { "fid": 50, "type": "corridor", "floor": 3 }, "geometry": { "type": "LineString", "coordinates": [ [ 91.619480822866223, 26.129994729614715 ], [ 91.619507492347964, 26.129989733505695 ], [ 91.61950371509468, 26.129970673810874 ], [ 91.619561557939804, 26.129960073421394 ], [ 91.61958490480896, 26.129955292105716 ], [ 91.619632183971206, 26.129945725594883 ], [ 91.61965591591229, 26.129941134502413 ], [ 91.619709835088997, 26.129931331214394 ], [ 91.619736910485287, 26.129925754090415 ], [ 91.619784590351387, 26.129915799374178 ], [ 91.619791806681903, 26.129951993254746 ] ] } },
{ "type": "Feature", "properties": { "fid": 51, "type": "path", "floor": 3 }, "geometry": { "type": "LineString", "coordinates": [ [ 91.619736910485287, 26.129925754090415 ], [ 91.619740359983822, 26.129942502657098 ], [ 91.619743793850432, 26.129959829652382 ] ] } },
{ "type": "Feature", "properties": { "fid": 52, "type": "path", "floor": 3 }, "geometry": { "type": "LineString", "coordinates": [ [ 91.619740359983822, 26.129942502657098 ], [ 91.619755648742924, 26.129939895266155 ] ] } },
{ "type": "Feature", "properties": { "fid": 53, "type": "path", "floor": 3 }, "geometry": { "type": "LineString", "coordinates": [ [ 91.619709835088997, 26.129931331214394 ], [ 91.619716697611508, 26.129966178014524 ] ] } },
{ "type": "Feature", "properties": { "fid": 54, "type": "path", "floor": 3 }, "geometry": { "type": "LineString", "coordinates": [ [ 91.61965591591229, 26.129941134502413 ], [ 91.619659724429454, 26.129959037339987 ], [ 91.619663337805392, 26.129976941470733 ] ] } },
{ "type": "Feature", "properties": { "fid": 55, "type": "path", "floor": 3 }, "geometry": { "type": "LineString", "coordinates": [ [ 91.619659724429454, 26.129959037339987 ], [ 91.619677565657284, 26.129955834709278 ] ] } },
{ "type": "Feature", "properties": { "fid": 56, "type": "path", "floor": 3 }, "geometry": { "type": "LineString", "coordinates": [ [ 91.619632183971206, 26.129945725594883 ], [ 91.619639743688325, 26.129983652174957 ] ] } },
{ "type": "Feature", "properties": { "fid": 57, "type": "path", "floor": 3 }, "geometry": { "type": "LineString", "coordinates": [ [ 91.61958490480896, 26.129955292105716 ], [ 91.619588518184841, 26.129973196236438 ], [ 91.619591952051451, 26.129990523231729 ] ] } },
{ "type": "Feature", "properties": { "fid": 58, "type": "path", "floor": 3 }, "geometry": { "type": "LineString", "coordinates": [ [ 91.619588518184841, 26.129973196236438 ], [ 91.619602641306855, 26.129970403794953 ] ] } },
{ "type": "Feature", "properties": { "fid": 59, "type": "path", "floor": 3 }, "geometry": { "type": "LineString", "coordinates": [ [ 91.619561557939804, 26.129960073421394 ], [ 91.619568932936943, 26.129997615675538 ] ] } },
{ "type": "Feature", "properties": { "fid": 60, "type": "path", "floor": 3 }, "geometry": { "type": "LineString", "coordinates": [ [ 91.619507492347964, 26.129989733505695 ], [ 91.619511290443782, 26.130008021962311 ] ] } },
{ "type": "Feature", "properties": { "fid": 61, "type": "path", "floor": 3 }, "geometry": { "type": "LineString", "coordinates": [ [ 91.619507492347964, 26.129989733505695 ], [ 91.619528872172211, 26.129985543550259 ] ] } },
{ "type": "Feature", "properties": { "fid": 62, "type": "path", "floor": 3 }, "geometry": { "type": "LineString", "coordinates": [ [ 91.619439200691176, 26.129917702658279 ], [ 91.619418005586667, 26.129922276939514 ] ] } },
{ "type": "Feature", "properties": { "fid": 63, "type": "path", "floor": 3 }, "geometry": { "type": "LineString", "coordinates": [ [ 91.61944536601905, 26.129949469678412 ], [ 91.619421048653962, 26.12995406465031 ] ] } },
{ "type": "Feature", "properties": { "fid": 64, "type": "path", "floor": 3 }, "geometry": { "type": "LineString", "coordinates": [ [ 91.619480822866223, 26.129994729614715 ], [ 91.61944536601905, 26.129949469678412 ] ] } },
{ "type": "Feature", "properties": { "fid": 65, "type": "path", "floor": 3 }, "geometry": { "type": "LineString", "coordinates": [ [ 91.619341848054006, 26.129715355710829 ], [ 91.619388141088479, 26.129706181284902 ] ] } }
]
}
