{
"type": "FeatureCollection",
"name": "floor_2",
"crs": { "type": "name", "properties": { "name": "urn:ogc:def:crs:OGC:1.3:CRS84" } },
"features": [
{ "type": "Feature", "properties": { "fid": 1, "name": null, "type": null, "floor": null, "roomNo": null }, "geometry": { "type": "LineString", "coordinates": [ [ 91.618992562629018, 26.129588145344187 ], [ 91.619144018655987, 26.12955835158176 ], [ 91.61913848329408, 26.129535101363832 ], [ 91.619163860670767, 26.129530109238086 ], [ 91.61916870732999, 26.12955108246728 ], [ 91.619191266919088, 26.129546644644286 ], [ 91.619186420259865, 26.129525671415095 ], [ 91.619183282643718, 26.129526128484382 ] ] } },
{ "type": "Feature", "properties": { "fid": 2, "name": null, "type": null, "floor": null, "roomNo": null }, "geometry": { "type": "LineString", "coordinates": [ [ 91.6191925167183, 26.12951171599391 ], [ 91.619200641718209, 26.129545480086392 ], [ 91.61931813437846, 26.129522367463657 ], [ 91.61933222439788, 26.129519369742713 ], [ 91.619457836791256, 26.129494659826037 ], [ 91.619453156777695, 26.12947440748097 ], [ 91.619481093923028, 26.129468911808814 ], [ 91.619485273483491, 26.129485413181225 ], [ 91.619780612348762, 26.129427315420681 ] ] } },
{ "type": "Feature", "properties": { "fid": 3, "name": null, "type": null, "floor": null, "roomNo": null }, "geometry": { "type": "LineString", "coordinates": [ [ 91.619767088972011, 26.129368794929139 ], [ 91.619471750088266, 26.129426892693321 ], [ 91.619474956774326, 26.129442354253456 ], [ 91.619447019628979, 26.129447849925615 ], [ 91.619444123118157, 26.129435315943592 ], [ 91.619318510764401, 26.129460025852474 ], [ 91.619304260728228, 26.129462856199634 ], [ 91.619302228112872, 26.129453535317264 ], [ 91.61918473549045, 26.129476647972083 ] ] } },
{ "type": "Feature", "properties": { "fid": 4, "name": null, "type": null, "floor": null, "roomNo": null }, "geometry": { "type": "LineString", "coordinates": [ [ 91.619157646840875, 26.12950321977203 ], [ 91.61913226947344, 26.12950821189596 ], [ 91.619127947726383, 26.129488806917042 ], [ 91.618887353791266, 26.129536135496085 ], [ 91.618923006164749, 26.129690416077242 ], [ 91.619130656362941, 26.129649818272473 ] ] } },
{ "type": "Feature", "properties": { "fid": 5, "name": null, "type": null, "floor": null, "roomNo": null }, "geometry": { "type": "LineString", "coordinates": [ [ 91.619284506280977, 26.129905732270618 ], [ 91.619291362830609, 26.129936095263723 ], [ 91.619451065771401, 26.129905034504954 ] ] } },
{ "type": "Feature", "properties": { "fid": 6, "name": "ARTIFICIAL INTELLIGENCE LAB", "type": "lab", "floor": 2, "roomNo": "211" }, "geometry": { "type": "LineString", "coordinates": [ [ 91.618887353670104, 26.129536135527825 ], [ 91.618923006049698, 26.129690416135436 ], [ 91.619012143537574, 26.129672881401497 ], [ 91.618976491157952, 26.129518600793887 ], [ 91.618887353670104, 26.129536135527825 ] ] } },
{ "type": "Feature", "properties": { "fid": 7, "name": "DATA COMMUNICATION & NETWORKING LAB", "type": "lab", "floor": 2, "roomNo": "209" }, "geometry": { "type": "LineString", "coordinates": [ [ 91.618976491153987, 26.129518600794665 ], [ 91.618992562087399, 26.129588145475758 ], [ 91.619144017416545, 26.129558351850601 ], [ 91.619127946483133, 26.129488807169512 ], [ 91.618976491153987, 26.129518600794665 ] ] } },
{ "type": "Feature", "properties": { "fid": 8, "name": "MICRO CONTROLLER LAB", "type": "lab", "floor": 2, "roomNo": "212-213" }, "geometry": { "type": "LineString", "coordinates": [ [ 91.618996614397318, 26.129606440899551 ], [ 91.619011975628496, 26.12967291444501 ], [ 91.619163362129129, 26.129643134359494 ], [ 91.619148000897965, 26.129576660814035 ], [ 91.618996614397318, 26.129606440899551 ] ] } },
{ "type": "Feature", "properties": { "fid": 9, "name": "STAIRCASE", "type": "staircase", "floor": 2, "roomNo": null }, "geometry": { "type": "LineString", "coordinates": [ [ 91.619132268209185, 26.129508212159148 ], [ 91.619138482044036, 26.129535101646621 ], [ 91.619163859307065, 26.129530109543236 ], [ 91.619157645472214, 26.129503220055764 ], [ 91.619132268209185, 26.129508212159148 ] ] } },
{ "type": "Feature", "properties": { "fid": 10, "name": "LIFT-1", "type": "lift", "floor": 2, "roomNo": null }, "geometry": { "type": "LineString", "coordinates": [ [ 91.619163859295597, 26.129530109541527 ], [ 91.619168705960348, 26.129551082794663 ], [ 91.619191265446375, 26.129546644991954 ], [ 91.619186418781624, 26.129525671738822 ], [ 91.619163859295597, 26.129530109541527 ] ] } },
{ "type": "Feature", "properties": { "fid": 11, "name": "207", "type": "classroom", "floor": 2, "roomNo": "207" }, "geometry": { "type": "LineString", "coordinates": [ [ 91.61918473391286, 26.129476648266603 ], [ 91.619200640195572, 26.129545480445199 ], [ 91.619289801776972, 26.129527940971684 ], [ 91.61927389549426, 26.129459108793093 ], [ 91.61918473391286, 26.129476648266603 ] ] } },
{ "type": "Feature", "properties": { "fid": 12, "name": "206 (WOMEN)", "type": "washroom", "floor": 2, "roomNo": "206" }, "geometry": { "type": "LineString", "coordinates": [ [ 91.619273895514084, 26.129459108789192 ], [ 91.61928980179853, 26.129527940975343 ], [ 91.619318132330704, 26.129522367917858 ], [ 91.619302226046258, 26.129453535731702 ], [ 91.619273895514084, 26.129459108789192 ] ] } },
{ "type": "Feature", "properties": { "fid": 13, "name": "HOD OFFICE - CSE & IT", "type": "office", "floor": 2, "roomNo": "205" }, "geometry": { "type": "LineString", "coordinates": [ [ 91.619318508653734, 26.129460026279535 ], [ 91.619332222315165, 26.129519370201155 ], [ 91.619365624701089, 26.129512799430938 ], [ 91.619351911039644, 26.12945345550931 ], [ 91.619318508653734, 26.129460026279535 ] ] } },
{ "type": "Feature", "properties": { "fid": 14, "name": "204", "type": "classroom", "floor": 2, "roomNo": "204" }, "geometry": { "type": "LineString", "coordinates": [ [ 91.619351911033064, 26.129453455510617 ], [ 91.619365624694495, 26.129512799432234 ], [ 91.619457834045093, 26.129494660414988 ], [ 91.619444120383648, 26.129435316493364 ], [ 91.619351911033064, 26.129453455510617 ] ] } },
{ "type": "Feature", "properties": { "fid": 15, "name": "203", "type": "classroom", "floor": 2, "roomNo": "203" }, "geometry": { "type": "LineString", "coordinates": [ [ 91.619471747213964, 26.129426893271916 ], [ 91.619485270603505, 26.129485413818898 ], [ 91.619544741577101, 26.129473714950958 ], [ 91.619531218187561, 26.129415194403972 ], [ 91.619471747213964, 26.129426893271916 ] ] } },
{ "type": "Feature", "properties": { "fid": 16, "name": "STAIR-4", "type": "staircase", "floor": 2, "roomNo": null }, "geometry": { "type": "LineString", "coordinates": [ [ 91.619447016913128, 26.129447850478318 ], [ 91.619453154053502, 26.129474408081411 ], [ 91.619481091044193, 26.129468912439663 ], [ 91.619474953903818, 26.129442354836566 ], [ 91.619447016913128, 26.129447850478318 ] ] } },
{ "type": "Feature", "properties": { "fid": 17, "name": "202", "type": "classroom", "floor": 2, "roomNo": "202" }, "geometry": { "type": "LineString", "coordinates": [ [ 91.61953121820342, 26.129415194400853 ], [ 91.619544741594709, 26.129473714955395 ], [ 91.619661585229949, 26.129450729990197 ], [ 91.61964806183866, 26.129392209435654 ], [ 91.61953121820342, 26.129415194400853 ] ] } },
{ "type": "Feature", "properties": { "fid": 18, "name": "201", "type": "classroom", "floor": 2, "roomNo": "201" }, "geometry": { "type": "LineString", "coordinates": [ [ 91.61964806177258, 26.12939220944865 ], [ 91.619661585162973, 26.129450729999409 ], [ 91.619780608062115, 26.129427316339019 ], [ 91.619767084671679, 26.12936879578826 ], [ 91.61964806177258, 26.12939220944865 ] ] } },
{ "type": "Feature", "properties": { "fid": 19, "name": "233", "type": "classroom", "floor": 2, "roomNo": "233" }, "geometry": { "type": "LineString", "coordinates": [ [ 91.61936630291747, 26.129536275779216 ], [ 91.619386138554219, 26.129622111679247 ], [ 91.619463856538715, 26.129606823339707 ], [ 91.619444020901938, 26.129520987439676 ], [ 91.61936630291747, 26.129536275779216 ] ] } },
{ "type": "Feature", "properties": { "fid": 20, "name": "230", "type": "classroom", "floor": 2, "roomNo": "230" }, "geometry": { "type": "LineString", "coordinates": [ [ 91.619412674101426, 26.129738910393257 ], [ 91.619432002115232, 26.129822549627189 ], [ 91.619510862828662, 26.129807036495048 ], [ 91.619491534814813, 26.12972339726112 ], [ 91.619412674101426, 26.129738910393257 ] ] } },
{ "type": "Feature", "properties": { "fid": 21, "name": "229", "type": "classroom", "floor": 2, "roomNo": "229" }, "geometry": { "type": "LineString", "coordinates": [ [ 91.619432002110017, 26.129822549604508 ], [ 91.619451063508052, 26.129905035096403 ], [ 91.619529924183098, 26.129889521971805 ], [ 91.619510862785077, 26.12980703647991 ], [ 91.619432002110017, 26.129822549604508 ] ] } },
{ "type": "Feature", "properties": { "fid": 22, "name": "223", "type": "classroom", "floor": 2, "roomNo": "223" }, "geometry": { "type": "LineString", "coordinates": [ [ 91.619256203144332, 26.129962714680349 ], [ 91.619272506902675, 26.1300332668783 ], [ 91.619397592480183, 26.13000866059452 ], [ 91.619381288721826, 26.129938108396566 ], [ 91.619256203144332, 26.129962714680349 ] ] } },
{ "type": "Feature", "properties": { "fid": 23, "name": "254", "type": "classroom", "floor": 2, "roomNo": "254" }, "geometry": { "type": "LineString", "coordinates": [ [ 91.619721470083689, 26.129982686964777 ], [ 91.619745405098257, 26.13008626233993 ], [ 91.619858106830847, 26.130064092151574 ], [ 91.619834171816279, 26.129960516776418 ], [ 91.619721470083689, 26.129982686964777 ] ] } },
{ "type": "Feature", "properties": { "fid": 24, "name": "255", "type": "classroom", "floor": 2, "roomNo": "255" }, "geometry": { "type": "LineString", "coordinates": [ [ 91.619834171804385, 26.129960516778759 ], [ 91.619858106809062, 26.130064092111073 ], [ 91.619933835383591, 26.130049195119494 ], [ 91.6199099003789, 26.129945619787179 ], [ 91.619834171804385, 26.129960516778759 ] ] } },
{ "type": "Feature", "properties": { "fid": 25, "name": "COMPUTER PROGRAMMING LAB-2", "type": "lab", "floor": 2, "roomNo": "231" }, "geometry": { "type": "LineString", "coordinates": [ [ 91.619496832081694, 26.129653537562973 ], [ 91.619518458609676, 26.12974712329018 ], [ 91.619668865190562, 26.129717535970165 ], [ 91.61964723866258, 26.129623950242959 ], [ 91.619496832081694, 26.129653537562973 ] ] } },
{ "type": "Feature", "properties": { "fid": 26, "name": "COMPUTER PROGRAMMING LAB-3", "type": "lab", "floor": 2, "roomNo": "228" }, "geometry": { "type": "LineString", "coordinates": [ [ 91.61970367392081, 26.129870753013837 ], [ 91.619719700751631, 26.129940106847243 ], [ 91.619899928240997, 26.129904653289476 ], [ 91.619883901410191, 26.129835299456069 ], [ 91.61970367392081, 26.129870753013837 ] ] } },
{ "type": "Feature", "properties": { "fid": 27, "name": "STAIR-3", "type": "staircase", "floor": 2, "roomNo": null }, "geometry": { "type": "LineString", "coordinates": [ [ 91.619427348252884, 26.129697414416132 ], [ 91.61943590346408, 26.129734435877168 ], [ 91.619466003634301, 26.129728514704283 ], [ 91.619457448423077, 26.129691493243246 ], [ 91.619427348252884, 26.129697414416132 ] ] } },
{ "type": "Feature", "properties": { "fid": 28, "name": "253", "type": "classroom", "floor": 2, "roomNo": "253" }, "geometry": { "type": "LineString", "coordinates": [ [ 91.619644285523279, 26.129997870371483 ], [ 91.619668220531466, 26.130101445718921 ], [ 91.619745405087912, 26.130086262312989 ], [ 91.619721470079725, 26.129982686965555 ], [ 91.619644285523279, 26.129997870371483 ] ] } },
{ "type": "Feature", "properties": { "fid": 29, "name": "HOD CIVIL ENGINEERING DEPT. OFFICE", "type": "office", "floor": 2, "roomNo": "252" }, "geometry": { "type": "LineString", "coordinates": [ [ 91.619608313637443, 26.130004946602405 ], [ 91.619632248645615, 26.130108521949836 ], [ 91.6196682205222, 26.130101445720744 ], [ 91.619644285514028, 26.129997870373305 ], [ 91.619608313637443, 26.130004946602405 ] ] } },
{ "type": "Feature", "properties": { "fid": 30, "name": "RESEARCH SCHOLAR'S CABIN-1", "type": "cabin", "floor": 2, "roomNo": null }, "geometry": { "type": "LineString", "coordinates": [ [ 91.619666729098682, 26.129972550742071 ], [ 91.619671341143203, 26.129992508709478 ], [ 91.619695245780861, 26.129987806294459 ], [ 91.61969063373634, 26.129967848327059 ], [ 91.619666729098682, 26.129972550742071 ] ] } },
{ "type": "Feature", "properties": { "fid": 31, "name": "RESEARCH SCHOLAR'S CABIN-2", "type": "cabin", "floor": 2, "roomNo": null }, "geometry": { "type": "LineString", "coordinates": [ [ 91.619720675408914, 26.129961979724882 ], [ 91.619725278269669, 26.12998189795082 ], [ 91.619750686842409, 26.129976899688319 ], [ 91.619746083981639, 26.129956981462382 ], [ 91.619720675408914, 26.129961979724882 ] ] } },
{ "type": "Feature", "properties": { "fid": 32, "name": "RESEARCH SCHOLAR'S CABIN-3", "type": "cabin", "floor": 2, "roomNo": null }, "geometry": { "type": "LineString", "coordinates": [ [ 91.619746083943326, 26.12995698146992 ], [ 91.619750686804082, 26.129976899695862 ], [ 91.619774512288572, 26.129972212851509 ], [ 91.619769909427802, 26.129952294625564 ], [ 91.619746083943326, 26.12995698146992 ] ] } },
{ "type": "Feature", "properties": { "fid": 33, "name": "RESEARCH SCHOLAR'S CABIN-4", "type": "cabin", "floor": 2, "roomNo": null }, "geometry": { "type": "LineString", "coordinates": [ [ 91.619843333891609, 26.129937934558907 ], [ 91.619847918369089, 26.129957773233905 ], [ 91.619873327001301, 26.129952774959705 ], [ 91.619868742523821, 26.12993293628471 ], [ 91.619843333891609, 26.129937934558907 ] ] } },
{ "type": "Feature", "properties": { "fid": 34, "name": "STAIR-2", "type": "staircase", "floor": 2, "roomNo": null }, "geometry": { "type": "LineString", "coordinates": [ [ 91.619557135010396, 26.129918921803394 ], [ 91.619563163694551, 26.129945010077556 ], [ 91.619589779698529, 26.129939774294503 ], [ 91.619583751014375, 26.129913686020345 ], [ 91.619557135010396, 26.129918921803394 ] ] } },
{ "type": "Feature", "properties": { "fid": 35, "name": "STAIR-1", "type": "staircase", "floor": 2, "roomNo": null }, "geometry": { "type": "LineString", "coordinates": [ [ 91.619577418544907, 26.13002211701512 ], [ 91.619583292818163, 26.130047537098086 ], [ 91.619616397382572, 26.130041024914004 ], [ 91.619610523109344, 26.130015604831041 ], [ 91.619577418544907, 26.13002211701512 ] ] } },
{ "type": "Feature", "properties": { "fid": 36, "name": "251 (STAFF GENTS)", "type": "washroom", "floor": 2, "roomNo": "251" }, "geometry": { "type": "LineString", "coordinates": [ [ 91.619544037953858, 26.130018837638239 ], [ 91.619555195567813, 26.130067120627544 ], [ 91.619573682643122, 26.130063483931526 ], [ 91.619562525029153, 26.130015200942221 ], [ 91.619544037953858, 26.130018837638239 ] ] } },
{ "type": "Feature", "properties": { "fid": 37, "name": "WASHROOM (WOMEN)", "type": "washroom", "floor": 2, "roomNo": null }, "geometry": { "type": "LineString", "coordinates": [ [ 91.619555195566946, 26.130067120623757 ], [ 91.619563347146823, 26.130102395427503 ], [ 91.619594849377251, 26.130096198447504 ], [ 91.619586697797388, 26.130060923643757 ], [ 91.619555195566946, 26.130067120623757 ] ] } },
{ "type": "Feature", "properties": { "fid": 39, "name": "225", "type": "room", "floor": 2, "roomNo": "225" }, "geometry": { "type": "LineString", "coordinates": [ [ 91.619514780608952, 26.12993672835244 ], [ 91.619525148180912, 26.129981592547111 ], [ 91.619545233182535, 26.129977641514071 ], [ 91.619534865610575, 26.1299327773194 ], [ 91.619514780608952, 26.12993672835244 ] ] } },
{ "type": "Feature", "properties": { "fid": 40, "name": "LIFT-2", "type": "lift", "floor": 2, "roomNo": null }, "geometry": { "type": "LineString", "coordinates": [ [ 91.619510045453836, 26.129916237641378 ], [ 91.619514780601975, 26.1299367283222 ], [ 91.619534865582452, 26.129932777293323 ], [ 91.619530130434313, 26.129912286612502 ], [ 91.619510045453836, 26.129916237641378 ] ] } },
{ "type": "Feature", "properties": { "fid": 41, "name": "222 (MEN)", "type": "washroom", "floor": 2, "roomNo": "222" }, "geometry": { "type": "LineString", "coordinates": [ [ 91.619216561484606, 26.129948832991492 ], [ 91.619237657343135, 26.130040122322228 ], [ 91.619272506896962, 26.130033266871518 ], [ 91.619251411038434, 26.129941977540781 ], [ 91.619216561484606, 26.129948832991492 ] ] } },
{ "type": "Feature", "properties": { "fid": 45, "name": null, "type": null, "floor": null, "roomNo": null }, "geometry": { "type": "LineString", "coordinates": [ [ 91.619166291733109, 26.129574163493178 ], [ 91.619193947798024, 26.129693841184942 ], [ 91.619234021646491, 26.129685958034006 ], [ 91.619206365581576, 26.129566280342246 ], [ 91.619166291733109, 26.129574163493178 ] ] } },
{ "type": "Feature", "properties": { "fid": 46, "name": "217A", "type": "room", "floor": 2, "roomNo": "217A" }, "geometry": { "type": "LineString", "coordinates": [ [ 91.61920057518752, 26.129752476516114 ], [ 91.619206213524208, 26.1297768756171 ], [ 91.619252908912827, 26.129767689905965 ], [ 91.619247270576125, 26.129743290804974 ], [ 91.61920057518752, 26.129752476516114 ] ] } },
{ "type": "Feature", "properties": { "fid": 47, "name": "BIO MEDICAL INTELLIGENCE UNIT", "type": "room", "floor": 2, "roomNo": null }, "geometry": { "type": "LineString", "coordinates": [ [ 91.619219775330748, 26.129833204005756 ], [ 91.619225284545834, 26.129857044351336 ], [ 91.61927145862586, 26.129847961189721 ], [ 91.619265949410774, 26.129824120844145 ], [ 91.619219775330748, 26.129833204005756 ] ] } },
{ "type": "Feature", "properties": { "fid": 48, "name": "232", "type": "classroom", "floor": 2, "roomNo": "232" }, "geometry": { "type": "LineString", "coordinates": [ [ 91.619386138552471, 26.129622111671686 ], [ 91.619404575327565, 26.129701894196465 ], [ 91.619482293304102, 26.129686605858481 ], [ 91.619463856529023, 26.129606823333706 ], [ 91.619386138552471, 26.129622111671686 ] ] } },
{ "type": "Feature", "properties": { "fid": 49, "name": "227", "type": "classroom", "floor": 2, "roomNo": "227" }, "geometry": { "type": "LineString", "coordinates": [ [ 91.61959378683153, 26.129953927197729 ], [ 91.619579687761259, 26.129897671873419 ], [ 91.61970367392081, 26.129870753013837 ], [ 91.619719730083958, 26.129940233778747 ], [ 91.619626901275538, 26.129959288720993 ], [ 91.61962419907708, 26.129947595341108 ], [ 91.61959378683153, 26.129953927197729 ] ] } },
{ "type": "Feature", "properties": { "fid": 50, "name": "224", "type": "classroom", "floor": 2, "roomNo": "224" }, "geometry": { "type": "LineString", "coordinates": [ [ 91.619381288735084, 26.12993810838211 ], [ 91.619497408422447, 26.129914206768476 ], [ 91.619498435515325, 26.129918503058761 ], [ 91.619510047246337, 26.12991623718866 ], [ 91.619525149980092, 26.129981592123372 ], [ 91.619397594285971, 26.130008660181332 ], [ 91.619381288735084, 26.12993810838211 ] ] } },
{ "type": "Feature", "properties": { "fid": 51, "name": "208 (STAFF)", "type": "washroom", "floor": 2, "roomNo": "208" }, "geometry": { "type": "LineString", "coordinates": [ [ 91.619163859301182, 26.129530109541754 ], [ 91.619152661497679, 26.129482756040723 ], [ 91.619184733953048, 26.129476648285046 ], [ 91.619192515192907, 26.129511716311097 ], [ 91.619180523808254, 26.129514198709519 ], [ 91.619183280729644, 26.129526128895161 ], [ 91.619163859301182, 26.129530109541754 ] ] } },
{ "type": "Feature", "properties": { "fid": 52, "name": null, "type": null, "floor": null, "roomNo": null }, "geometry": { "type": "LineString", "coordinates": [ [ 91.618992562090625, 26.129588145477758 ], [ 91.618996614410534, 26.12960644089695 ], [ 91.619148000891357, 26.129576660815335 ], [ 91.619163362123118, 26.129643134363306 ], [ 91.619130655270581, 26.12964981853214 ], [ 91.619199299613982, 26.129952416352097 ], [ 91.61921656152623, 26.129948833159805 ], [ 91.619251411090644, 26.12994197770702 ], [ 91.619256203191412, 26.129962714842321 ], [ 91.619381288775557, 26.129938108557241 ] ] } },
{ "type": "Feature", "properties": { "fid": 53, "name": null, "type": null, "floor": null, "roomNo": null }, "geometry": { "type": "LineString", "coordinates": [ [ 91.619510045462391, 26.129916237630479 ], [ 91.619530130491754, 26.129912286591978 ], [ 91.619545233225537, 26.12997764152669 ], [ 91.619534862467816, 26.129979699954927 ], [ 91.619544037748668, 26.130018836170365 ], [ 91.619562524833228, 26.130015199472535 ], [ 91.619573682446045, 26.130063482456798 ], [ 91.619586697550957, 26.130060922182693 ], [ 91.619583292766919, 26.130047535578861 ], [ 91.619577418497457, 26.130022115512279 ], [ 91.619610523002407, 26.130015603339899 ], [ 91.61960831362012, 26.130004945080461 ], [ 91.619671340732978, 26.129992505403578 ], [ 91.619666728694867, 26.129972547463893 ], [ 91.619690633340426, 26.129967845047322 ], [ 91.619695245378551, 26.129987802987003 ], [ 91.619725277853746, 26.129981894626283 ], [ 91.619720674996515, 26.129961976415462 ], [ 91.61976990897972, 26.129952291323164 ], [ 91.619774511836965, 26.129972209533989 ], [ 91.619847917968002, 26.129957769907765 ], [ 91.619843333492838, 26.12993793124285 ], [ 91.619868742053683, 26.129932932982694 ], [ 91.619873326528833, 26.129952771647606 ], [ 91.619909359561646, 26.129945940577151 ], [ 91.619899928243768, 26.129904653307371 ], [ 91.619719729966135, 26.129940232234429 ] ] } },
{ "type": "Feature", "properties": { "fid": 54, "name": null, "type": null, "floor": null, "roomNo": null }, "geometry": { "type": "LineString", "coordinates": [ [ 91.619589779697037, 26.129939774300063 ], [ 91.619563163675892, 26.129945010086495 ], [ 91.619557134991751, 26.129918921812333 ], [ 91.619583751012883, 26.129913686025905 ] ] } },
{ "type": "Feature", "properties": { "fid": 55, "name": null, "type": null, "floor": null, "roomNo": null }, "geometry": { "type": "LineString", "coordinates": [ [ 91.619703673936627, 26.129870753034442 ], [ 91.619883901359927, 26.129835299489667 ], [ 91.619879012685857, 26.129815617627997 ], [ 91.619550785758605, 26.129882963497987 ], [ 91.619518458645516, 26.129747123265997 ], [ 91.619496832121328, 26.129653537555178 ], [ 91.6194645851036, 26.129515320515306 ], [ 91.619785888558042, 26.129449058886291 ], [ 91.619780608215692, 26.129427316310121 ] ] } },
{ "type": "Feature", "properties": { "fid": 56, "name": null, "type": null, "floor": null, "roomNo": null }, "geometry": { "type": "LineString", "coordinates": [ [ 91.619366302930501, 26.129536275781913 ], [ 91.619365897509226, 26.129534471942787 ], [ 91.6192063668217, 26.129566280106193 ], [ 91.6191662917428, 26.129574163499178 ] ] } },
{ "type": "Feature", "properties": { "fid": 57, "name": "HOD OFFICE - COMPUTER APPLICATIONS", "type": "office", "floor": 2, "roomNo": "215" }, "geometry": { "type": "LineString", "coordinates": [ [ 91.619193941988655, 26.129693820105523 ], [ 91.619186932399742, 26.129663766039741 ], [ 91.619227328695942, 26.129656680362956 ], [ 91.619234011422293, 26.12968592694854 ], [ 91.619193944030712, 26.129693820107097 ] ] } },
{ "type": "Feature", "properties": { "fid": 58, "name": "CSE & CA - STAFF COMMON ROOM", "type": "commonRoom", "floor": 2, "roomNo": "214" }, "geometry": { "type": "LineString", "coordinates": [ [ 91.619186932399742, 26.129663766039741 ], [ 91.6191662917428, 26.129574163499178 ], [ 91.6192063668217, 26.129566280106193 ], [ 91.619227328695942, 26.129656680362956 ], [ 91.619186932399742, 26.129663766039741 ] ] } },
{ "type": "Feature", "properties": { "fid": 59, "name": "217", "type": "fcabin", "floor": 2, "roomNo": "217" }, "geometry": { "type": "LineString", "coordinates": [ [ 91.619178385572383, 26.1297568415476 ], [ 91.619172537907943, 26.12973031059224 ], [ 91.61924102133527, 26.129716480270869 ], [ 91.619247270576125, 26.129743290804974 ], [ 91.619178385572383, 26.1297568415476 ] ] } },
{ "type": "Feature", "properties": { "fid": 60, "name": "216", "type": "fcabin", "floor": 2, "roomNo": "216" }, "geometry": { "type": "LineString", "coordinates": [ [ 91.619172537907943, 26.12973031059224 ], [ 91.619165136667817, 26.129699508795415 ], [ 91.619234011422293, 26.12968592694854 ], [ 91.61924102133527, 26.129716480270869 ], [ 91.619172537907943, 26.12973031059224 ] ] } },
{ "type": "Feature", "properties": { "fid": 61, "name": "218", "type": "fcabin", "floor": 2, "roomNo": "218" }, "geometry": { "type": "LineString", "coordinates": [ [ 91.619183553968853, 26.129781333111595 ], [ 91.619190696042978, 26.129811636992375 ], [ 91.619259812821682, 26.129798475992427 ], [ 91.619252908914262, 26.12976768991226 ], [ 91.619183553968853, 26.129781333111595 ] ] } },
{ "type": "Feature", "properties": { "fid": 62, "name": "", "type": "", "floor": null, "roomNo": "" }, "geometry": { "type": "LineString", "coordinates": [ [ 91.619190696042978, 26.129811636992375 ], [ 91.619183553968853, 26.129781333111595 ], [ 91.619252908914262, 26.12976768991226 ], [ 91.619259812821682, 26.129798475992427 ], [ 91.619190696042978, 26.129811636992375 ] ] } },
{ "type": "Feature", "properties": { "fid": 63, "name": "220", "type": "fcabin", "floor": 2, "roomNo": "220" }, "geometry": { "type": "LineString", "coordinates": [ [ 91.619201608055164, 26.12986170191526 ], [ 91.619208839830065, 26.129892504154409 ], [ 91.619278405308421, 26.129879119530006 ], [ 91.619271167711062, 26.129848018446182 ], [ 91.619201608055164, 26.12986170191526 ] ] } },
{ "type": "Feature", "properties": { "fid": 64, "name": "219", "type": "fcabin", "floor": 2, "roomNo": "219" }, "geometry": { "type": "LineString", "coordinates": [ [ 91.619190696042978, 26.129811636992375 ], [ 91.61919659447419, 26.129837764045689 ], [ 91.619265949410774, 26.129824120844145 ], [ 91.619259812821682, 26.129798475992427 ], [ 91.619190696042978, 26.129811636992375 ] ] } },
{ "type": "Feature", "properties": { "fid": 65, "name": "221", "type": "fcabin", "floor": 2, "roomNo": "221" }, "geometry": { "type": "LineString", "coordinates": [ [ 91.619208839830065, 26.129892504154409 ], [ 91.61921494511337, 26.129919416139817 ], [ 91.61928450476924, 26.129905732670739 ], [ 91.619278405308421, 26.129879119530006 ], [ 91.619208839830065, 26.129892504154409 ] ] } },
{ "type": "Feature", "properties": { "fid": 1, "type": "corridor", "floor": 2 }, "geometry": { "type": "LineString", "coordinates": [ [ 91.619772804354341, 26.129434984264009 ], [ 91.61967654167718, 26.129454246332418 ], [ 91.619647849340822, 26.129460100924842 ], [ 91.619555910414391, 26.129479366323352 ], [ 91.61951516774198, 26.129486159488089 ], [ 91.61948684757796, 26.129492203937808 ], [ 91.619472890708835, 26.129494468036484 ], [ 91.619459004998774, 26.129497869614017 ], [ 91.619449189600118, 26.129499852546399 ], [ 91.619371796248799, 26.12951562209026 ], [ 91.619348766422846, 26.12952034361982 ], [ 91.619304579050819, 26.129530167262306 ], [ 91.619276067091747, 26.129536401134995 ], [ 91.619213768059367, 26.129549433529551 ], [ 91.61919744419906, 26.129552548873228 ], [ 91.619181674791392, 26.129556138570631 ], [ 91.619169781997158, 26.129558593829699 ], [ 91.619157129634416, 26.129561427645122 ], [ 91.619145609012534, 26.129564072761514 ], [ 91.61912333494918, 26.129568605302467 ], [ 91.619004399394797, 26.129593537028736 ], [ 91.618981929730452, 26.129598448560412 ] ] } },
{ "type": "Feature", "properties": { "fid": 56, "type": "path", "floor": 2 }, "geometry": { "type": "LineString", "coordinates": [ [ 91.619540612811448, 26.129892523827852 ], [ 91.619536307369813, 26.129875222187597 ], [ 91.619521576633232, 26.129813031660667 ], [ 91.619515641712269, 26.129790278608624 ], [ 91.619502112722216, 26.129733776127534 ], [ 91.61949486418402, 26.12970154352999 ], [ 91.619488099688979, 26.129673292289457 ], [ 91.619474255615302, 26.129613756434875 ], [ 91.619468704284515, 26.129590624536917 ], [ 91.619455596943808, 26.129531847532473 ], [ 91.619451949839217, 26.129516868640181 ], [ 91.619449189600118, 26.129499852546399 ] ] } },
{ "type": "Feature", "properties": { "fid": 78, "type": "path", "floor": 2 }, "geometry": { "type": "LineString", "coordinates": [ [ 91.619540612811448, 26.129892523827852 ], [ 91.619562246133469, 26.129888449656871 ], [ 91.619584448596115, 26.129883541744075 ], [ 91.619686112504041, 26.129862040411819 ], [ 91.619713222879511, 26.129855963948355 ], [ 91.619862096234343, 26.129827451312103 ] ] } },
{ "type": "Feature", "properties": { "fid": 79, "type": "path", "floor": 2 }, "geometry": { "type": "LineString", "coordinates": [ [ 91.619540612811448, 26.129892523827852 ], [ 91.619546120134288, 26.129918831974177 ], [ 91.619552664018016, 26.129947578320561 ], [ 91.619561311292941, 26.12998497194187 ], [ 91.619616700594506, 26.129973753855477 ], [ 91.619652458244886, 26.129966275131213 ], [ 91.619676062968338, 26.129961367218417 ], [ 91.619702939633655, 26.129956926725885 ], [ 91.619731919690167, 26.129951317682689 ], [ 91.619755290703495, 26.129946176059757 ], [ 91.619797592237589, 26.129937528784836 ], [ 91.619834518438637, 26.12992981635044 ], [ 91.619853916379697, 26.129925142147776 ], [ 91.619887570638866, 26.129917663423509 ] ] } },
{ "type": "Feature", "properties": { "fid": 80, "type": "path", "floor": 2 }, "geometry": { "type": "LineString", "coordinates": [ [ 91.619561311292941, 26.12998497194187 ], [ 91.619564349524666, 26.130000163100519 ] ] } },
{ "type": "Feature", "properties": { "fid": 81, "type": "path", "floor": 2 }, "geometry": { "type": "LineString", "coordinates": [ [ 91.619540612811448, 26.129892523827852 ], [ 91.619448546153706, 26.129910885829641 ], [ 91.619391520881194, 26.129923038756573 ], [ 91.619356698071314, 26.129929348930176 ], [ 91.61927092645243, 26.129947578320561 ], [ 91.619263915148437, 26.129919299394444 ], [ 91.61922839120821, 26.129926778118712 ], [ 91.619206188745565, 26.129930517480837 ], [ 91.619200813412519, 26.129907380177652 ], [ 91.61919450323893, 26.129878867541404 ], [ 91.619188193065341, 26.12985082232542 ], [ 91.619182584022141, 26.129826049051299 ], [ 91.619176040138427, 26.129798471255583 ], [ 91.619169963674963, 26.129771127170006 ], [ 91.619163653501374, 26.129744484214818 ], [ 91.619157109617632, 26.129715971578566 ], [ 91.619146358951525, 26.129669229551929 ], [ 91.619177676109373, 26.129663153088465 ], [ 91.619171365935784, 26.129638379814349 ], [ 91.619157129634416, 26.129561427645122 ] ] } },
{ "type": "Feature", "properties": { "fid": 82, "type": "path", "floor": 2 }, "geometry": { "type": "LineString", "coordinates": [ [ 91.619171365935784, 26.129638379814349 ], [ 91.61918550539886, 26.129636042713017 ] ] } }
]
}
