{"type":"FeatureCollection","name":"ground","crs":{"type":"name","properties":{"name":"urn:ogc:def:crs:OGC:1.3:CRS84"}},"features":[{"type":"Feature","properties":{"fid":1,"name":"ELECTRICAL MACHINE AND POWER ELETRONIC LAB","type":"LAB","floor":null,"roomNo":null},"geometry":{"type":"LineString","coordinates":[[91.6188773695866,26.129549486420807],[91.61891336748378,26.129689469155533],[91.61915203787726,26.129639567042897],[91.61911603998007,26.12949958430817],[91.6188773695866,26.129549486420807]]}},{"type":"Feature","properties":{"fid":2,"name":"STAIRCASE","type":"STAIRCASE","floor":null,"roomNo":null},"geometry":{"type":"LineString","coordinates":[[91.61911933444387,26.129513964856653],[91.61912583727765,26.12953925201307],[91.61914907757598,26.1295343928432],[91.6191425747422,26.129509105686783],[91.61911933444387,26.129513964856653]]}},{"type":"Feature","properties":{"fid":3,"name":"LIFT","type":"LIFT","floor":null,"roomNo":null},"geometry":{"type":"LineString","coordinates":[[91.6191495147708,26.129536092807985],[91.61915530452704,26.12955860706509],[91.61917715072158,26.129554039379737],[91.61917136096534,26.129531525122633],[91.6191495147708,26.129536092807985]]}},{"type":"Feature","properties":{"fid":4,"name":"COMMON ROOM (WOMEN)","type":"COMMON ROOM","floor":null,"roomNo":null},"geometry":{"type":"LineString","coordinates":[[91.61917197633306,26.129487955475444],[91.61918836734435,26.1295516941592],[91.61927637440826,26.129533293307915],[91.61925998339697,26.12946955462416],[91.61917197633306,26.129487955475444]]}},{"type":"Feature","properties":{"fid":5,"name":"WASHROOM (WOMEN)","type":"WASHROOM","floor":null,"roomNo":null},"geometry":{"type":"LineString","coordinates":[[91.61925998337993,26.12946955462772],[91.6192763743924,26.12953329331605],[91.61930678859878,26.129526934198232],[91.61929039758631,26.1294631955099],[91.61925998337993,26.12946955462772]]}},{"type":"Feature","properties":{"fid":6,"name":"NURSING STATION","type":"NURSING STATION","floor":null,"roomNo":null},"geometry":{"type":"LineString","coordinates":[[91.61930686295665,26.129465350927884],[91.61932256894602,26.129526425810415],[91.61935751292964,26.129519119589556],[91.61934180694027,26.129458044707025],[91.61930686295665,26.129465350927884]]}},{"type":"Feature","properties":{"fid":7,"name":"TRAINING AND PLACEMENT OFFICE","type":"OFFICE","floor":null,"roomNo":null},"geometry":{"type":"LineString","coordinates":[[91.61934180694647,26.12945804470573],[91.619357512937,26.129519119592835],[91.6194263224096,26.12950473264688],[91.61941061641906,26.129443657759772],[91.61934180694647,26.12945804470573]]}},{"type":"Feature","properties":{"fid":8,"name":null,"type":null,"floor":null,"roomNo":null},"geometry":{"type":"LineString","coordinates":[[91.61943665623558,26.129452992152345],[91.61944299512939,26.12947764180581],[91.61947405638642,26.129471147400178],[91.61946771749261,26.129446497746713],[91.61943665623558,26.129452992152345]]}},{"type":"Feature","properties":{"fid":9,"name":null,"type":null,"floor":null,"roomNo":null},"geometry":{"type":"LineString","coordinates":[[91.6195270963423,26.129419303694885],[91.61954285683825,26.12948059053375],[91.6195704669195,26.129474817713067],[91.61955470642354,26.129413530874203],[91.6195270963423,26.129419303694885]]}},{"type":"Feature","properties":{"fid":10,"name":"CHAPEL","type":"CHAPEL","floor":null,"roomNo":null},"geometry":{"type":"LineString","coordinates":[[91.61955470644212,26.129413530870316],[91.61957046693885,26.129474817712232],[91.61962935401228,26.129462505379195],[91.61961359351554,26.12940121853728],[91.61955470644212,26.129413530870316]]}},{"type":"Feature","properties":{"fid":11,"name":null,"type":null,"floor":null,"roomNo":null},"geometry":{"type":"LineString","coordinates":[[91.61961359350161,26.12940121854019],[91.61962935399757,26.129462505379053],[91.61977990453892,26.129431027699887],[91.61976414404296,26.129369740861023],[91.61961359350161,26.12940121854019]]}},{"type":"Feature","properties":{"fid":12,"name":null,"type":null,"floor":null,"roomNo":null},"geometry":{"type":"LineString","coordinates":[[91.61954960539784,26.129740180845875],[91.6195400970528,26.129703206348896],[91.61960135685844,26.12969039791599],[91.61958736757495,26.1296359986785]]}},{"type":"Feature","properties":{"fid":13,"name":null,"type":null,"floor":null,"roomNo":null},"geometry":{"type":"LineString","coordinates":[[91.61956943272736,26.129697072734604],[91.61957894107239,26.129734047231583]]}},{"type":"Feature","properties":{"fid":14,"name":null,"type":null,"floor":null,"roomNo":null},"geometry":{"type":"LineString","coordinates":[[91.61964560756836,26.129623821652274],[91.6196691052197,26.12971519538036]]}},{"type":"Feature","properties":{"fid":15,"name":"ADMIN BLOCK-1: REGISTRAR, PRINCIPAL & HR DIRECTOR","type":"OFFICE","floor":null,"roomNo":null},"geometry":{"type":"LineString","coordinates":[[91.61935525188399,26.12953596012857],[91.61939129009204,26.129676099617615],[91.61947282609512,26.129659051760317],[91.61943678788707,26.129518912271273],[91.61935525188399,26.12953596012857]]}},{"type":"Feature","properties":{"fid":16,"name":null,"type":null,"floor":null,"roomNo":null},"geometry":{"type":"LineString","coordinates":[[91.61939215294318,26.129675919185306],[91.6193992568847,26.129703543831194],[91.6194618109217,26.129690464795477],[91.61945470698018,26.12966284014959],[91.61939215294318,26.129675919185306]]}},{"type":"Feature","properties":{"fid":17,"name":null,"type":null,"floor":null,"roomNo":null},"geometry":{"type":"LineString","coordinates":[[91.61939925688746,26.129703543841874],[91.61940395641174,26.129721818583274],[91.61943631194349,26.12971505356577],[91.6194316124192,26.12969677882437],[91.61939925688746,26.129703543841874]]}},{"type":"Feature","properties":{"fid":18,"name":null,"type":null,"floor":null,"roomNo":null},"geometry":{"type":"LineString","coordinates":[[91.61940395641018,26.12972181857717],[91.61940865593682,26.129740093327726],[91.61946948434182,26.129727375093708],[91.61946478481518,26.129709100343153],[91.61940395641018,26.12972181857717]]}},{"type":"Feature","properties":{"fid":19,"name":"ADMIN BLOCK-2: ADMIN OFFICE-1","type":"OFFICE","floor":null,"roomNo":null},"geometry":{"type":"LineString","coordinates":[[91.61941511566546,26.12976874832512],[91.61942899566033,26.12982272257895],[91.61950923740108,26.129805945330936],[91.61949535740621,26.129751971077106],[91.61941511566546,26.12976874832512]]}},{"type":"Feature","properties":{"fid":20,"name":"ADMIN BLOCK-2: CONTROLLER OF EXAMINATION'S OFFICE","type":"OFFICE","floor":null,"roomNo":null},"geometry":{"type":"LineString","coordinates":[[91.61942899566073,26.129822722580474],[91.61943566243094,26.129848647226115],[91.61951590417169,26.1298318699781],[91.61950923740147,26.12980594533246],[91.61942899566073,26.129822722580474]]}},{"type":"Feature","properties":{"fid":21,"name":"ADMIN BLOCK-2: EXAMINATION OFFICE","type":"OFFICE","floor":null,"roomNo":null},"geometry":{"type":"LineString","coordinates":[[91.61943566243566,26.129848647244422],[91.61944997959438,26.129904321469517],[91.61953022130726,26.12988754422733],[91.61951590414854,26.129831870002235],[91.61943566243566,26.129848647244422]]}},{"type":"Feature","properties":{"fid":22,"name":"WASHROOM (WOMEN)","type":"WASHROOM","floor":null,"roomNo":null},"geometry":{"type":"LineString","coordinates":[[91.61951275338905,26.129932756239096],[91.61951824030982,26.12995409287914],[91.61954264822678,26.129948989579127],[91.61953716130601,26.129927652939084],[91.61951275338905,26.129932756239096]]}},{"type":"Feature","properties":{"fid":23,"name":"WASHROOM (STAFF)","type":"WASHROOM","floor":null,"roomNo":null},"geometry":{"type":"LineString","coordinates":[[91.61951824031021,26.129954092880663],[91.61952283012532,26.129971941002925],[91.61954723803919,26.12996683770356],[91.61954264822408,26.129948989581298],[91.61951824031021,26.129954092880663]]}},{"type":"Feature","properties":{"fid":24,"name":"ADMIN BLOCK-3: ASSIST REGISTRAR, V. PRINCIPAL, DOC","type":"OFFICE","floor":null,"roomNo":null},"geometry":{"type":"LineString","coordinates":[[91.61953865997421,26.12999460622572],[91.61956352374602,26.130091292394788],[91.61959436936232,26.13008484307614],[91.6195695055905,26.12998815690707],[91.61953865997421,26.12999460622572]]}},{"type":"Feature","properties":{"fid":25,"name":"STAIRCASE","type":"STAIRCASE","floor":null,"roomNo":null},"geometry":{"type":"LineString","coordinates":[[91.61957666413906,26.130015994014],[91.6195826205149,26.130039156194137],[91.61961756454497,26.13003184996357],[91.61961160816912,26.13000868778343],[91.61957666413906,26.130015994014]]}},{"type":"Feature","properties":{"fid":26,"name":"SOIL TRANSPORTATION & CONCRETE LAB","type":"LAB","floor":null,"roomNo":null},"geometry":{"type":"LineString","coordinates":[[91.61960960703252,26.130000615702784],[91.61963424135561,26.130096409629214],[91.61985509823916,26.130050232032904],[91.61983046391606,26.129954438106473],[91.61960960703252,26.130000615702784]]}},{"type":"Feature","properties":{"fid":27,"name":"SURVEY STORE","type":"STORE","floor":null,"roomNo":null},"geometry":{"type":"LineString","coordinates":[[91.61983046389284,26.12995443811133],[91.6198550982273,26.130050232082002],[91.61989261950414,26.13004238699089],[91.61986798516968,26.129946593020218],[91.61983046389284,26.12995443811133]]}},{"type":"Feature","properties":{"fid":28,"name":null,"type":null,"floor":null,"roomNo":null},"geometry":{"type":"LineString","coordinates":[[91.61993166605853,26.1300342229777],[91.61989261948128,26.130042386984417],[91.61988435900223,26.130010264984577]]}},{"type":"Feature","properties":{"fid":29,"name":"LANGUAGE LAB","type":"LAB","floor":null,"roomNo":null},"geometry":{"type":"LineString","coordinates":[[91.61969960293261,26.12987057180499],[91.61971529089827,26.129931576599894],[91.6198958810698,26.12989381812072],[91.61988019310414,26.129832813325816],[91.61969960293261,26.12987057180499],[91.61971529090556,26.129931576583896]]}},{"type":"Feature","properties":{"fid":30,"name":null,"type":null,"floor":null,"roomNo":null},"geometry":{"type":"LineString","coordinates":[[91.61958382767303,26.129910497597667],[91.61958400918263,26.129911264420098],[91.61958419744657,26.129912053442734],[91.61958439199555,26.12991286284051],[91.61958459236021,26.129913690788353],[91.61958479807123,26.12991453546119],[91.6195850086593,26.12991539503396],[91.61958522365506,26.129916267681583],[91.61958544258921,26.129917151578997],[91.6195856649924,26.129918044901128],[91.61958589039531,26.1299189458229],[91.61958611832861,26.129919852519258],[91.61958634832297,26.12992076316512],[91.61958657990907,26.12992167593542],[91.61958681261756,26.129922589005087],[91.61958704597912,26.129923500549054],[91.61958727952441,26.129924408742248],[91.61958751278414,26.129925311759596],[91.61958774528894,26.129926207776034],[91.61958797656949,26.129927094966494],[91.61958820615648,26.1299279715059],[91.61958843358056,26.12992883556918],[91.61958865837241,26.129929685331273],[91.6195888800627,26.129930518967097],[91.61958909818209,26.129931334651594],[91.61958931226125,26.129932130559688],[91.61958952183087,26.129932904866312],[91.61958972642162,26.12993365574639],[91.61958992556416,26.12993438137486],[91.61959011878915,26.129935079926646],[91.61959030562727,26.12993574957668],[91.61959048560921,26.129936388499896]]}},{"type":"Feature","properties":{"fid":31,"name":null,"type":null,"floor":null,"roomNo":null},"geometry":{"type":"LineString","coordinates":[[91.61963973921831,26.12988392129272],[91.61958048386637,26.12989631062683],[91.61958382767303,26.129910497597667]]}},{"type":"Feature","properties":{"fid":33,"name":"STAIRCASE","type":"STAIRCASE","floor":null,"roomNo":null},"geometry":{"type":"LineString","coordinates":[[91.61955570008077,26.129918492482837],[91.61956138322842,26.129940592177885],[91.61958962339162,26.12993468761727],[91.61958394024397,26.12991258792222],[91.61955570008077,26.129918492482837]]}},{"type":"Feature","properties":{"fid":34,"name":"CAFETRIA-B AND NESCAFE","type":"CAFETRIA","floor":null,"roomNo":null},"geometry":{"type":"LineString","coordinates":[[91.61922961672674,26.129943678091],[91.61925147499632,26.1300286769546],[91.619395996403,26.129998459869814],[91.61937413813342,26.129913461006215],[91.61922961672674,26.129943678091]]}},{"type":"Feature","properties":{"fid":35,"name":"WASHROOM (MEN)","type":"WASHROOM ","floor":null,"roomNo":null},"geometry":{"type":"LineString","coordinates":[[91.6192114976239,26.12994746650186],[91.61923335589817,26.130032465383767],[91.61925147499329,26.130028676974522],[91.61922961671901,26.129943678092616],[91.6192114976239,26.12994746650186]]}},{"type":"Feature","properties":{"fid":36,"name":"STATIONARY AND BOOK SHOP","type":"SHOP","floor":null,"roomNo":null},"geometry":{"type":"LineString","coordinates":[[91.61915408502152,26.129578020860464],[91.6191708879607,26.12964336138213],[91.61921070854656,26.129635035542748],[91.61919390560737,26.129569695021083],[91.61915408502152,26.129578020860464]]}},{"type":"Feature","properties":{"fid":37,"name":"WASTE SEGREGATION UNIT","type":"WASTE SEGREGATION UNIT","floor":null,"roomNo":null},"geometry":{"type":"LineString","coordinates":[[91.61882700319885,26.129624349551445],[91.61883651154191,26.129661324040793],[91.61887835803812,26.129652574616383],[91.61886884969505,26.129615600127035],[91.61882700319885,26.129624349551445]]}},{"type":"Feature","properties":{"fid":38,"name":"VERMI COMPOSTING TANK","type":"VERMI COMPOSTING TANK","floor":null,"roomNo":null},"geometry":{"type":"LineString","coordinates":[[91.61888013493589,26.12950038357696],[91.61889008044399,26.12953905804215],[91.61893408397594,26.129529857616507],[91.61892413846785,26.12949118315132],[91.61888013493589,26.12950038357696]]}},{"type":"Feature","properties":{"fid":39,"name":"ATRIUM (QUADRANGLE)","type":"ATRIUM","floor":null,"roomNo":null},"geometry":{"type":"LineString","coordinates":[[91.61919390561512,26.129569695019466],[91.6192869938816,26.129931681444607],[91.61944834015047,26.12989794655371],[91.61935525188399,26.12953596012857],[91.61919390561512,26.129569695019466]]}},{"type":"Feature","properties":{"fid":40,"name":null,"type":null,"floor":null,"roomNo":null},"geometry":{"type":"LineString","coordinates":[[91.61977990454167,26.129431027710567],[91.61978543069269,26.12945280574916],[91.61945772717233,26.129519150814495],[91.61949082827482,26.129641759492138],[91.61964264657253,26.12961077033179],[91.61964560756522,26.129623821640067],[91.61949418363977,26.129655481929696],[91.61951768126829,26.129746855664166],[91.61966910521696,26.12971519536968],[91.6196730764792,26.12973146364766],[91.61952151266726,26.12976285175148],[91.61955160554149,26.12988105330457],[91.61987519794354,26.12981339537573],[91.61988019269045,26.129832813423565],[91.61957956860978,26.129895589856574],[91.61958393984885,26.129912588016087],[91.6195556996779,26.12991849257832],[91.61956138282123,26.129940592256585],[91.61958962299218,26.12993468769435],[91.6195933438816,26.129949156880546],[91.61962472709496,26.129942595159065],[91.61962665910836,26.129950108056793],[91.61989588064982,26.12989381819406],[91.61990662672714,26.12993685578328],[91.619906884601,26.12993785689885],[91.61987942995805,26.129943597219903],[91.61989595093694,26.13000784130044],[91.61988435900263,26.130010264986105],[91.61986798515231,26.129946593035104],[91.61960960703527,26.130000615713463],[91.61961160820168,26.130008687789488],[91.6195766641422,26.130015994026206],[91.61956950556853,26.12998815693578],[91.61954902818235,26.129992407857355],[91.6195426750952,26.129967850279492],[91.61954723807416,26.129966837623897],[91.61954723807416,26.129966837623897],[91.61953716135869,26.12992765294093],[91.61951275339219,26.1299327562513],[91.61950796198664,26.12991412421709],[91.61953297997951,26.129908893360092],[91.61952762921734,26.129888086191336],[91.61952762921734,26.129888086191336],[91.61953022133513,26.129887544221504],[91.61949535740895,26.129751971087785],[91.6194151156682,26.1297687483358],[91.61940865595118,26.129740093332767],[91.61946948431437,26.12972737510749],[91.6194647847885,26.12970910035998],[91.61943631197099,26.129715053564844],[91.61943161244827,26.129696778829548],[91.61946181092257,26.12969046481781],[91.61945470697869,26.129662840162766],[91.61947282611558,26.12965905174478],[91.61943678790715,26.129518912254213],[91.61915408501838,26.12957802084826],[91.6191708879607,26.12964336138213],[91.61921070856515,26.129635035538865],[91.61928699389833,26.129931681465226],[91.61921149763903,26.12994746650995],[91.61919872328733,26.12994993714196],[91.61912017660656,26.129646911861542],[91.61915232616053,26.129639506765926],[91.6191272786812,26.129538950629293],[91.61914907758137,26.12953439283243],[91.61915530453983,26.129558607070454],[91.61930678862436,26.129526934202534],[91.61932182216893,26.12952366447788],[91.61932256892318,26.129526425816792],[91.61944875560141,26.129500042237943],[91.61944299511701,26.129477641808396],[91.61947405637868,26.129471147401798],[91.6194798713693,26.129493759786154],[91.61977990454167,26.129431027710567]]}},{"type":"Feature","properties":{"fid":41,"name":null,"type":null,"floor":null,"roomNo":null},"geometry":{"type":"LineString","coordinates":[[91.61911603998087,26.129499584311223],[91.61913897376577,26.129494855782422],[91.6191425747403,26.129509105698432],[91.6191207758293,26.129513663497562],[91.61911970994083,26.12951389117253],[91.61911603998087,26.129499584311223]]}},{"type":"Feature","properties":{"fid":43,"name":null,"type":null,"floor":null,"roomNo":null},"geometry":{"type":"LineString","coordinates":[[91.61951780270803,26.129952286832516],[91.61951750148813,26.129951117308586],[91.61951720863034,26.12994998391367],[91.61951692418009,26.12994888680999],[91.6195166481828,26.129947826159764],[91.61951638068392,26.1299468021252],[91.61951612172889,26.12994581486852],[91.61951587136313,26.129944864551938],[91.61951562963208,26.129943951337673],[91.61951539658119,26.129943075387935],[91.61951517225589,26.129942236864945],[91.61951495670158,26.12994143593092],[91.61951474996376,26.129940672748074],[91.61951455208781,26.12993994747862],[91.61951436311918,26.129939260284775],[91.61951418310333,26.129938611328754],[91.61951401208566,26.12993800077278],[91.61951385011164,26.129937428779062],[91.61951369722668,26.12993689550982],[91.61951355347621,26.12993640112727],[91.6195134189057,26.129935945793623],[91.61951329356054,26.129935529671098],[91.6195131774862,26.129935152921913],[91.6195130707281,26.12993481570828],[91.61951297333168,26.129934518192417],[91.61951288534237,26.129934260536544],[91.61951280680562,26.129934042902867],[91.61951273776684,26.129933865453616],[91.61951267827149,26.12993372835099],[91.61951262836499,26.12993363175722],[91.61951258809277,26.129933575834517],[91.6195125575003,26.12993356074509]]}},{"type":"Feature","properties":{"fid":44,"name":null,"type":null,"floor":null,"roomNo":null},"geometry":{"type":"LineString","coordinates":[[91.6195125575003,26.12993356074509],[91.61951252969202,26.12993355461086],[91.61951249679913,26.129933525757245],[91.61951245887013,26.129933474345812],[91.6195124159535,26.129933400538143],[91.61951236809767,26.12993330449581],[91.61951231535117,26.129933186380402],[91.61951225776242,26.129933046353486],[91.61951219537994,26.12993288457665],[91.6195121282522,26.129932701211462],[91.61951205642764,26.129932496419507],[91.61951197995475,26.129932270362357],[91.61951189888204,26.129932023201597],[91.61951181325794,26.129931755098795],[91.61951172313093,26.12993146621554],[91.61951162854953,26.129931156713404],[91.61951152956216,26.129930826753963],[91.61951142621733,26.1299304764988],[91.61951131856348,26.129930106109487],[91.61951120664912,26.129929715747608],[91.61951109052272,26.129929305574734],[91.61951097023274,26.129928875752448],[91.61951084582766,26.129928426442326],[91.61951071735596,26.129927957805947],[91.61951058486612,26.129927470004887],[91.6195104484066,26.129926963200727],[91.61951030802588,26.129926437555042],[91.61951016377243,26.12992589322941],[91.61951001569474,26.129925330385408],[91.61950986384127,26.129924749184617],[91.61950970826052,26.12992414978861],[91.61950954900094,26.129923532358973]]}},{"type":"Feature","properties":{"fid":45,"name":null,"type":null,"floor":null,"roomNo":null},"geometry":{"type":"LineString","coordinates":[[91.61950954900094,26.129923532358973],[91.61950939065576,26.129922914739197],[91.61950923780897,26.129922314772553],[91.61950909049587,26.129921732623366],[91.61950894875181,26.12992116845596],[91.61950881261214,26.12992062243467],[91.61950868211215,26.12992009472382],[91.61950855728723,26.12991958548773],[91.61950843817267,26.12991909489074],[91.61950832480383,26.129918623097176],[91.61950821721602,26.129918170271356],[91.61950811544462,26.129917736577614],[91.61950801952493,26.129917322180276],[91.61950792949227,26.129916927243674],[91.61950784538202,26.12991655193213],[91.61950776722946,26.129916196409972],[91.61950769506998,26.129915860841532],[91.61950762893888,26.129915545391132],[91.61950756887153,26.1299152502231],[91.6195075149032,26.12991497550177],[91.61950746706928,26.12991472139146],[91.61950742540509,26.129914488056503],[91.61950738994597,26.12991427566123],[91.61950736072723,26.12991408436996],[91.61950733778423,26.129913914347025],[91.61950732115231,26.129913765756758],[91.61950731086678,26.129913638763476],[91.619507306963,26.129913533531514],[91.61950730947628,26.129913450225196],[91.61950731844196,26.12991338900885],[91.6195073338954,26.129913350046802],[91.6195073558719,26.129913333503385]]}},{"type":"Feature","properties":{"fid":46,"name":null,"type":null,"floor":null,"roomNo":null},"geometry":{"type":"LineString","coordinates":[[91.6195073558719,26.129913333503385],[91.61950737794923,26.129913317604252],[91.61950739383636,26.129913280547633],[91.61950740356822,26.129913222497937],[91.61950740717975,26.129913143619582],[91.61950740470584,26.129913044076986],[91.61950739618145,26.129912924034567],[91.61950738164145,26.129912783656742],[91.61950736112081,26.129912623107927],[91.6195073346544,26.129912442552538],[91.61950730227719,26.129912242154994],[91.61950726402405,26.129912022079708],[91.61950721992996,26.129911782491106],[91.61950717002978,26.129911523553595],[91.61950711435848,26.129911245431604],[91.61950705295096,26.129910948289535],[91.61950698584212,26.129910632291814],[91.61950691306691,26.129910297602855],[91.61950683466026,26.12990994438708],[91.61950675065705,26.129909572808902],[91.61950666109222,26.129909183032744],[91.61950656600071,26.12990877522301],[91.61950646541739,26.129908349544127],[91.61950635937724,26.12990790616051],[91.61950624791515,26.12990744523658],[91.61950613106603,26.129906966936744],[91.61950600886483,26.129906471425425],[91.61950588134646,26.129905958867045],[91.61950574854582,26.129905429426017],[91.61950561049785,26.129904883266754],[91.61950546723746,26.129904320553674],[91.61950531879958,26.129903741451198]]}},{"type":"Feature","properties":{"fid":47,"name":null,"type":null,"floor":null,"roomNo":null},"geometry":{"type":"LineString","coordinates":[[91.6194761705283,26.12989981792436],[91.61944946702081,26.12990540119516],[91.61944863475968,26.129902164834167],[91.61944780249814,26.129898928471647],[91.61941151834955,26.12990651489929],[91.61937523419941,26.129914101327255],[91.61938594955383,26.129955769444898],[91.61939666490785,26.129997437561013],[91.61945965256547,26.12998426786225],[91.61952264022155,26.129971098163807],[91.61951780270803,26.129952286832516]]}},{"type":"Feature","properties":{"fid":48,"name":null,"type":null,"floor":null,"roomNo":null},"geometry":{"type":"LineString","coordinates":[[91.61948832598398,26.12989703696679],[91.61948526204658,26.129897680561385],[91.61948238853904,26.129898284227693],[91.61947970418998,26.129898848239513],[91.61947720772795,26.129899372870646],[91.6194748978815,26.12989985839489],[91.61947277337923,26.12990030508605],[91.61947083294967,26.129900713217925],[91.61946907532143,26.129901083064315],[91.61946749922306,26.129901414899024],[91.61946610338313,26.129901708995853],[91.6194648865302,26.1299019656286],[91.61946384739284,26.129902185071067],[91.61946298469962,26.129902367597055],[91.61946229717913,26.129902513480367],[91.61946178355991,26.1299026229948],[91.61946144257055,26.129902696414156],[91.61946127293959,26.129902734012237],[91.61946127339563,26.129902736062846],[91.61946144266723,26.12990270283978],[91.61946177948293,26.12990263461684],[91.61946228257133,26.12990253166783],[91.619462950661,26.12990239426655],[91.6194637824805,26.129902222686802],[91.61946477675838,26.129902017202383],[91.61946593222322,26.1299017780871],[91.61946724760361,26.129901505614747],[91.61946872162811,26.12990120005913],[91.61947035302526,26.129900861694047],[91.61947214052367,26.1299004907933],[91.61947408285187,26.12990008763069],[91.61947617873845,26.12989965248002]]}},{"type":"Feature","properties":{"fid":49,"name":null,"type":null,"floor":null,"roomNo":null},"geometry":{"type":"LineString","coordinates":[[91.61950531879958,26.129903741451198],[91.61950287403577,26.129894234653563],[91.6194761705283,26.12989981792436]]}},{"type":"Feature","properties":{"fid":50,"name":null,"type":null,"floor":null,"roomNo":null},"geometry":{"type":"LineString","coordinates":[[91.61950520233269,26.129903305846614],[91.6195053457344,26.129903880738876],[91.61950548459686,26.129904438830398],[91.619505618904,26.12990498005237],[91.61950574863975,26.129905504335998],[91.61950587378804,26.12990601161248],[91.61950599433278,26.129906501813018],[91.61950611025792,26.129906974868813],[91.61950622154735,26.129907430711068],[91.61950632818503,26.129907869270976],[91.61950643015486,26.129908290479744],[91.61950652744078,26.12990869426857],[91.6195066200267,26.129909080568652],[91.61950670789658,26.1299094493112],[91.6195067910343,26.129909800427402],[91.61950686942382,26.129910133848465],[91.61950694304903,26.129910449505587],[91.61950701189392,26.129910747329973],[91.61950707594234,26.12991102725282],[91.61950713517825,26.129911289205328],[91.61950718958558,26.129911533118698],[91.61950723914823,26.129911758924134],[91.61950728385018,26.12991196655283],[91.6195073236753,26.12991215593599],[91.61950735860755,26.129912327004817],[91.61950738863082,26.129912479690507],[91.61950741372907,26.12991261392426],[91.6195074338862,26.129912729637283],[91.61950744908616,26.12991282676077],[91.61950745931284,26.129912905225925],[91.61950746455021,26.129912964963946],[91.61950746478216,26.129913005906033]]}},{"type":"Feature","properties":{"fid":52,"name":null,"type":null,"floor":null,"roomNo":null},"geometry":{"type":"LineString","coordinates":[[91.61950746478216,26.129913005906033],[91.61950742886859,26.12991350325095],[91.61951981478042,26.12991091355745],[91.6195322006814,26.12990832386621],[91.619529699569,26.12989859794939],[91.61952719845661,26.129888872032566],[91.61948832598398,26.12989703696679]]}},{"type":"Feature","properties":{"fid":53,"name":null,"type":null,"floor":null,"roomNo":null},"geometry":{"type":"LineString","coordinates":[[91.61913897376655,26.129494855785474],[91.61917197633385,26.129487955478492],[91.61918836734789,26.12955169417293],[91.61917715072819,26.12955403938639],[91.61917136097273,26.12953152513234],[91.61914951478437,26.1295360928164],[91.61913897376655,26.129494855785474]]}},{"type":"Feature","properties":{"fid":54,"name":"WASHROOM (MEN)","type":"WASHROOM","floor":null,"roomNo":null},"geometry":{"type":"LineString","coordinates":[[91.61915555327695,26.129491983356967],[91.61913969796977,26.129495298444834],[91.61914484731805,26.129515322388183],[91.6191499966671,26.12953534633458],[91.6191609512434,26.129533055910148],[91.61917190581813,26.12953076548604],[91.61917477474118,26.129541921684748],[91.61917764366423,26.129553077883454],[91.61918254439666,26.129552053219697],[91.61918744512755,26.129551028556264],[91.61917942685545,26.12951984841116],[91.61917140858412,26.129488668269104],[91.61915555327695,26.129491983356967]]}},{"type":"Feature","properties":{"fid":55,"name":null,"type":null,"floor":null,"roomNo":null},"geometry":{"type":"LineString","coordinates":[[91.61944299511701,26.129477641808396],[91.61943665623558,26.129452992152345],[91.61946771749726,26.129446497745743],[91.61947405637868,26.129471147401798]]}},{"type":"Feature","properties":{"fid":56,"name":null,"type":null,"floor":null,"roomNo":null},"geometry":{"type":"LineString","coordinates":[[91.61942632237322,26.129504732651274],[91.61941061638346,26.12944365776722],[91.6195270963423,26.129419303694885],[91.61954285684101,26.12948059054443]]}},{"type":"Feature","properties":{"fid":57,"name":null,"type":null,"floor":null,"roomNo":null},"geometry":{"type":"LineString","coordinates":[[91.61946906309593,26.129432149438077],[91.61941147950375,26.129444189234306],[91.61941916674628,26.129474082125714],[91.6194268539892,26.129503975018647],[91.61943737614774,26.12950177500576],[91.61944789830628,26.129499574992877],[91.61944184782074,26.129476046854336],[91.6194357973356,26.12945251871732],[91.6194520129904,26.12944912828661],[91.61946822864518,26.1294457378559],[91.61947429752085,26.12946933750701],[91.61948036639691,26.129492937159647],[91.61951121217422,26.129486487807334],[91.61954205795307,26.1294800384547],[91.61953435231962,26.129450074047675],[91.61952664668657,26.129420109642172],[91.61946906309593,26.129432149438077]]}},{"type":"Feature","properties":{"fid":58,"name":null,"type":null,"floor":null,"roomNo":null},"geometry":{"type":"LineString","coordinates":[[91.61989595093968,26.13000784131112],[91.6199090681918,26.130005098694955],[91.61990402011995,26.12998546857877],[91.61991835750803,26.1299824708632],[91.61990688461457,26.12993785690726]]}},{"type":"Feature","properties":{"fid":59,"name":null,"type":null,"floor":null,"roomNo":null},"geometry":{"type":"LineString","coordinates":[[91.6199183575216,26.129982470871614],[91.6199316660605,26.130034222985326]]}},{"type":"Feature","properties":{"fid":60,"name":null,"type":null,"floor":null,"roomNo":null},"geometry":{"type":"LineString","coordinates":[[91.6196116082184,26.130008687810104],[91.61963424137703,26.130096409668138],[91.61989261949407,26.130042386989782]]}},{"type":"Feature","properties":{"fid":61,"name":"STAIRCASE","type":"STAIRCASE","floor":null,"roomNo":null},"geometry":{"type":"LineString","coordinates":[[91.6194288831714,26.1296973494932],[91.61943358269215,26.12971562422087],[91.6194622520639,26.129709629919706],[91.61945755254314,26.129691355192033],[91.6194288831714,26.1296973494932]]}},{"type":"Feature","properties":{"fid":62,"name":"LIFT","type":"LIFT","floor":null,"roomNo":null},"geometry":{"type":"LineString","coordinates":[[91.61950536668562,26.129914666863744],[91.61951015809116,26.129933298897953],[91.61953473454953,26.129928160358663],[91.61952994314399,26.129909528324454],[91.61950536668562,26.129914666863744]]}},{"type":"Feature","properties":{"fid":63,"name":null,"type":null,"floor":null,"roomNo":null},"geometry":{"type":"LineString","coordinates":[]}},{"type":"Feature","properties":{"fid":64,"name":null,"type":null,"floor":null,"roomNo":null},"geometry":{"type":"LineString","coordinates":[[91.61977989496967,26.129431032935237],[91.6197641449501,26.12936974648984],[91.619613593953,26.12940121764756],[91.61962935359975,26.12946250569749],[91.61977989376634,26.12943103012735]]}},{"type":"Feature","properties":{"fid":65,"name":null,"type":null,"floor":null,"roomNo":null},"geometry":{"type":"LineString","coordinates":[[91.61978021988607,26.129430908985686],[91.61976440568547,26.129369911354825],[91.61961370867662,26.129401334376805],[91.61962936884281,26.129462486042087],[91.61978023914043,26.12943094749431]]}},{"type":"Feature","properties":{"fid":66,"name":"ENGINEERING CHEMISTRY LAB","type":"LAB","floor":null,"roomNo":null},"geometry":{"type":"LineString","coordinates":[[91.61977991181732,26.12943100525723],[91.61976421314255,26.129369802247147],[91.61961359635988,26.12940122206005],[91.619629354001,26.129462504895272],[91.6197799146253,26.129431006460624]]}},{"type":"Feature","properties":{"fid":67,"name":"PRO VICE CHANCELLOR'S OFFICE","type":"OFFICE","floor":null,"roomNo":null},"geometry":{"type":"LineString","coordinates":[[91.61957041082479,26.129474780510183],[91.61955470111363,26.1294135397611],[91.61952712057594,26.12941933091383],[91.6195428613852,26.129480585484277]]}},{"type":"Feature","properties":{"fid":68,"name":"INFIRMARY","type":"INFIRMARY","floor":null,"roomNo":null},"geometry":{"type":"LineString","coordinates":[[91.61945120089436,26.129449291638],[91.61944788259089,26.129436580102677],[91.61941147961132,26.129444189940557],[91.61942685458986,26.12950397375876],[91.61944789812117,26.129499575453654],[91.61943580003197,26.129452539408078],[91.61945119960012,26.12944929746184]]}},{"type":"Feature","properties":{"fid":69,"name":"COFFEE LOUNGE","type":"COFFEE LOUNGE","floor":null,"roomNo":null},"geometry":{"type":"LineString","coordinates":[[91.61921024032154,26.129635991815913],[91.61912316030822,26.129656588420218],[91.61919969353488,26.12994792269437],[91.6192841782656,26.129928761778316],[91.6192102403215,26.129636047034676]]}},{"type":"Feature","properties":{"fid":70,"name":"CAFETERIA-A","type":"CAFETERIA","floor":null,"roomNo":null},"geometry":{"type":"LineString","coordinates":[[91.61944780249813,26.129898928471853],[91.61937523419998,26.129914101327483],[91.61939666490804,26.129997437561006],[91.61952272025668,26.129971482444727],[91.61951270322517,26.12993288969549],[91.61951006307733,26.129933495376463],[91.61950532634147,26.129914633849722],[91.61950768694422,26.129914117467862],[91.61950287403616,26.129894234653985]]}},{"type":"Feature","properties":{"fid":71,"name":"COMMON ROOM (MEN)","type":"COMMON ROOM","floor":null,"roomNo":null},"geometry":{"type":"LineString","coordinates":[[91.61959379974579,26.12994809241886],[91.61962506570578,26.129941555213346],[91.61962704232612,26.129949241570372],[91.61971428735725,26.1299310000483],[91.61969899457056,26.12987153195871],[91.61958048386676,26.129896310627625],[91.6195937997453,26.129948092419028]]}},{"type":"Feature","properties":{"fid":72,"name":"RECEPTION AREA","type":"RECEPTION","floor":null,"roomNo":null},"geometry":{"type":"LineString","coordinates":[[91.61951768126858,26.129746855664038],[91.61954960539772,26.129740180845992],[91.61954009705282,26.129703206348946],[91.61960135685834,26.129690397915798],[91.61958736757502,26.129635998678584],[91.61949418364011,26.129655481930204],[91.61951768126866,26.12974685566409]]}},{"type":"Feature","properties":{"fid":73,"name":"VICE CHANCELLOR'S OFFICE","type":"OFFICE","floor":null,"roomNo":null},"geometry":{"type":"LineString","coordinates":[[91.61964560756499,26.129623821640475],[91.61958736757595,26.129635998678538],[91.61960135685862,26.129690397915965],[91.61956943272754,26.1296970727349],[91.61957894107236,26.129734047231555],[91.61966910521662,26.129715195369656],[91.61964560756488,26.12962382164092]]}},{"type":"Feature","properties":{"fid":74,"name":"RECTOR'S OFFICE","type":"OFFICE","floor":null,"roomNo":null},"geometry":{"type":"LineString","coordinates":[[91.61954009705308,26.12970320634938],[91.61954960539774,26.129740180845946],[91.61957894107225,26.12973404723162],[91.61956943272739,26.129697072734903],[91.61954009705345,26.1297032063495]]}},{"type":"Feature","properties":{"fid":75,"name":"GREEN AREA","type":"GREEN AREA","floor":null,"roomNo":null},"geometry":{"type":"LineString","coordinates":[[91.61903867110699,26.129863841769524],[91.61901705295529,26.129797786306014],[91.61908430942722,26.12977917067539],[91.61910592757891,26.129845226138897],[91.61903987211541,26.129865643282166]]}},{"type":"Feature","properties":{"fid":76,"name":"GREEN AREA","type":"GREEN AREA","floor":null,"roomNo":null},"geometry":{"type":"LineString","coordinates":[[91.619612002505,26.12957289747799],[91.61960239443758,26.1295296611746],[91.61965283679153,26.129518251594543],[91.61966364586738,26.129563889914785],[91.619612002505,26.12957289747799]]}},{"type":"Feature","properties":{"fid":77,"name":"GREEN AREA","type":"GREEN AREA","floor":null,"roomNo":null},"geometry":{"type":"LineString","coordinates":[[91.61972759956613,26.129669278404304],[91.61971769124662,26.129630245630413],[91.61976152805421,26.129620637562994],[91.61977083586953,26.129658469328458],[91.61972699906192,26.129669278404304]]}},{"type":"Feature","properties":{"fid":78,"name":"GREEN AREA","type":"GREEN AREA","floor":null,"roomNo":null},"geometry":{"type":"LineString","coordinates":[[91.61965674006893,26.129808595381874],[91.61964653149731,26.12976896210377],[91.61969817485968,26.129759954540564],[91.61970718242289,26.129795384289174],[91.6196549385563,26.129807394373447]]}},{"type":"Feature","properties":{"fid":79,"name":"WORKSHOP (ISO CERTIFIED)","type":"WORKSHOP","floor":null,"roomNo":null},"geometry":{"type":"LineString","coordinates":[[91.61990324704868,26.1294888268881],[91.61986361377058,26.129329693271465],[91.62009841091813,26.129279250917513],[91.62014284822995,26.12944378907207],[91.61990324704868,26.12948942739231]]}},{"type":"Feature","properties":{"fid":80,"name":"AUDITORIUM","type":"AUDITORIUM","floor":null,"roomNo":null},"geometry":{"type":"LineString","coordinates":[[91.62014494999471,26.129442588063643],[91.62009931167452,26.129278800539357],[91.6203117400401,26.12923976776546],[91.62035077281399,26.129404305920016],[91.62014494999474,26.129442813252727]]}},{"type":"Feature","properties":{"fid":81,"name":"KNOW HOW 3D","type":null,"floor":null,"roomNo":null},"geometry":{"type":"LineString","coordinates":[[91.62035332495687,26.129401753777096],[91.62032510125881,26.12928465545542],[91.6203809481507,26.12927264537115],[91.62040977235296,26.129391545205465],[91.62035332495687,26.129403555289738]]}},{"type":"Feature","properties":{"fid":82,"name":"ROYAL ENFIELD WORKSHOP","type":"WORKSHIOP","floor":null,"roomNo":null},"geometry":{"type":"LineString","coordinates":[[91.62041187411768,26.129390194070986],[91.62038274966332,26.129271894740885],[91.62046621974905,26.129253879614474],[91.6204950439513,26.129372178944575],[91.6204121743698,26.12938959356677]]}},{"type":"Feature","properties":{"fid":83,"name":"GREEN AREA","type":"GREEN AREA","floor":null,"roomNo":null},"geometry":{"type":"LineString","coordinates":[[91.6204776293291,26.129479669198826],[91.62045360916055,26.129387191549917],[91.61990775083028,26.129495282308383],[91.61993237150304,26.129593164495226],[91.62047732907699,26.129479519072785]]}},{"type":"Feature","properties":{"fid":84,"name":"GREEN AREA","type":"GREEN AREA","floor":null,"roomNo":null},"geometry":{"type":"LineString","coordinates":[[91.62035632747792,26.129708311178206],[91.62035152344421,26.129689095043368],[91.62037194058748,26.12968429100966],[91.62037629424303,26.12970380739661],[91.62035617735187,26.129708461304265]]}},{"type":"Feature","properties":{"fid":85,"name":"PARKING LOT","type":"PARKING ","floor":null,"roomNo":null},"geometry":{"type":"LineString","coordinates":[[91.62016686839847,26.129787877986537],[91.62016266486897,26.12977586790226],[91.62018037974327,26.129771664372768],[91.62018428302066,26.129782473448614],[91.62016626789426,26.129787277482322]]}},{"type":"Feature","properties":{"fid":86,"name":"MAIN GATE","type":"GATE","floor":null,"roomNo":null},"geometry":{"type":"LineString","coordinates":[[91.62074095042678,26.129510445039795],[91.62071392773717,26.129463605711127],[91.620733143872,26.129449193609997],[91.62076076706583,26.129498434955522],[91.62074095042678,26.129509244031368]]}},{"type":"Feature","properties":{"fid":87,"name":"BACK GATE","type":"GATE","floor":null,"roomNo":null},"geometry":{"type":"LineString","coordinates":[[91.61920696241282,26.130105844967698],[91.6191234923271,26.130015769335643],[91.61913550241138,26.13000375925137],[91.61921837199287,26.13009443538764],[91.61920636190861,26.130107045976125],[91.61920636190861,26.130107045976125]]}},{"type":"Feature","properties":{"fid":1,"name":"ELECTRICAL MACHINE AND POWER ELETRONIC LAB","type":"LAB","floor":"0","roomNo":"011-012-013"},"geometry":{"type":"LineString","coordinates":[[91.6188773695866,26.129549486420807],[91.61891336748378,26.129689469155533],[91.61915203787726,26.129639567042897],[91.61911603998007,26.12949958430817],[91.6188773695866,26.129549486420807]]}},{"type":"Feature","properties":{"fid":2,"name":"STAIRCASE","type":"STAIRCASE","floor":"0","roomNo":null},"geometry":{"type":"LineString","coordinates":[[91.61911933444387,26.129513964856653],[91.61912583727765,26.12953925201307],[91.61914907757598,26.1295343928432],[91.6191425747422,26.129509105686783],[91.61911933444387,26.129513964856653]]}},{"type":"Feature","properties":{"fid":3,"name":"LIFT","type":"LIFT","floor":"0","roomNo":null},"geometry":{"type":"LineString","coordinates":[[91.6191495147708,26.129536092807985],[91.61915530452704,26.12955860706509],[91.61917715072158,26.129554039379737],[91.61917136096534,26.129531525122633],[91.6191495147708,26.129536092807985]]}},{"type":"Feature","properties":{"fid":4,"name":"COMMON ROOM (WOMEN)","type":"COMMON ROOM","floor":"0","roomNo":"009 "},"geometry":{"type":"LineString","coordinates":[[91.61917197633306,26.129487955475444],[91.61918836734435,26.1295516941592],[91.61927637440826,26.129533293307915],[91.61925998339697,26.12946955462416],[91.61917197633306,26.129487955475444]]}},{"type":"Feature","properties":{"fid":5,"name":"WASHROOM (WOMEN)","type":"WASHROOM","floor":"0","roomNo":"008 "},"geometry":{"type":"LineString","coordinates":[[91.61925998337993,26.12946955462772],[91.6192763743924,26.12953329331605],[91.61930678859878,26.129526934198232],[91.61929039758631,26.1294631955099],[91.61925998337993,26.12946955462772]]}},{"type":"Feature","properties":{"fid":6,"name":"INFIRMARY (WOMEN)","type":"NURSING STATION","floor":"0","roomNo":"007"},"geometry":{"type":"LineString","coordinates":[[91.61930686295665,26.129465350927884],[91.61932256894602,26.129526425810415],[91.61935751292964,26.129519119589556],[91.61934180694027,26.129458044707025],[91.61930686295665,26.129465350927884]]}},{"type":"Feature","properties":{"fid":7,"name":"TRAINING AND PLACEMENT OFFICE","type":"OFFICE","floor":"0","roomNo":"006 "},"geometry":{"type":"LineString","coordinates":[[91.61934180694647,26.12945804470573],[91.619357512937,26.129519119592835],[91.6194263224096,26.12950473264688],[91.61941061641906,26.129443657759772],[91.61934180694647,26.12945804470573]]}},{"type":"Feature","properties":{"fid":10,"name":"CHAPEL","type":"CHAPEL","floor":"0","roomNo":"002"},"geometry":{"type":"LineString","coordinates":[[91.61955470644212,26.129413530870316],[91.61957046693885,26.129474817712232],[91.61962935401228,26.129462505379195],[91.61961359351554,26.12940121853728],[91.61955470644212,26.129413530870316]]}},{"type":"Feature","properties":{"fid":15,"name":"","type":"","floor":null,"roomNo":null},"geometry":{"type":"LineString","coordinates":[[91.61935525188399,26.12953596012857],[91.61939129009204,26.129676099617615],[91.61947282609512,26.129659051760317],[91.61943678788707,26.129518912271273],[91.61935525188399,26.12953596012857]]}},{"type":"Feature","properties":{"fid":19,"name":"ADMIN BLOCK-2: ADMIN OFFICE-1","type":"OFFICE","floor":"0","roomNo":"026 "},"geometry":{"type":"LineString","coordinates":[[91.61941511566546,26.12976874832512],[91.61942899566033,26.12982272257895],[91.61950923740108,26.129805945330936],[91.61949535740621,26.129751971077106],[91.61941511566546,26.12976874832512]]}},{"type":"Feature","properties":{"fid":20,"name":"ADMIN BLOCK-2: CONTROLLER OF EXAMINATION'S OFFICE","type":"OFFICE","floor":"0","roomNo":"025 "},"geometry":{"type":"LineString","coordinates":[[91.61942899566073,26.129822722580474],[91.61943566243094,26.129848647226115],[91.61951590417169,26.1298318699781],[91.61950923740147,26.12980594533246],[91.61942899566073,26.129822722580474]]}},{"type":"Feature","properties":{"fid":21,"name":"ADMIN BLOCK-2: EXAMINATION OFFICE","type":"OFFICE","floor":"0","roomNo":"024"},"geometry":{"type":"LineString","coordinates":[[91.61943566243566,26.129848647244422],[91.61944997959438,26.129904321469517],[91.61953022130726,26.12988754422733],[91.61951590414854,26.129831870002235],[91.61943566243566,26.129848647244422]]}},{"type":"Feature","properties":{"fid":22,"name":"WASHROOM (WOMEN)","type":"WASHROOM","floor":"0","roomNo":"020 "},"geometry":{"type":"LineString","coordinates":[[91.61951275338905,26.129932756239096],[91.61951824030982,26.12995409287914],[91.61954264822678,26.129948989579127],[91.61953716130601,26.129927652939084],[91.61951275338905,26.129932756239096]]}},{"type":"Feature","properties":{"fid":23,"name":"WASHROOM (STAFF)","type":"WASHROOM","floor":"0","roomNo":"021 "},"geometry":{"type":"LineString","coordinates":[[91.61951824031021,26.129954092880663],[91.61952283012532,26.129971941002925],[91.61954723803919,26.12996683770356],[91.61954264822408,26.129948989581298],[91.61951824031021,26.129954092880663]]}},{"type":"Feature","properties":{"fid":24,"name":"ADMIN BLOCK-3: ASSIST REGISTRAR, V. PRINCIPAL, DOC","type":"OFFICE","floor":"0","roomNo":"051"},"geometry":{"type":"LineString","coordinates":[[91.61953865997421,26.12999460622572],[91.61956352374602,26.130091292394788],[91.61959436936232,26.13008484307614],[91.6195695055905,26.12998815690707],[91.61953865997421,26.12999460622572]]}},{"type":"Feature","properties":{"fid":25,"name":"STAIRCASE","type":"STAIRCASE","floor":"0","roomNo":null},"geometry":{"type":"LineString","coordinates":[[91.61957666413906,26.130015994014],[91.6195826205149,26.130039156194137],[91.61961756454497,26.13003184996357],[91.61961160816912,26.13000868778343],[91.61957666413906,26.130015994014]]}},{"type":"Feature","properties":{"fid":26,"name":"SOIL TRANSPORTATION & CONCRETE LAB","type":"LAB","floor":"0","roomNo":"052 "},"geometry":{"type":"LineString","coordinates":[[91.61960960703252,26.130000615702784],[91.61963424135561,26.130096409629214],[91.61985509823916,26.130050232032904],[91.61983046391606,26.129954438106473],[91.61960960703252,26.130000615702784]]}},{"type":"Feature","properties":{"fid":27,"name":"SURVEY STORE","type":"STORE","floor":"0","roomNo":"054"},"geometry":{"type":"LineString","coordinates":[[91.61983046389284,26.12995443811133],[91.6198550982273,26.130050232082002],[91.61989261950414,26.13004238699089],[91.61986798516968,26.129946593020218],[91.61983046389284,26.12995443811133]]}},{"type":"Feature","properties":{"fid":29,"name":"COMMUNICATION & LANGUAGE LAB","type":"LAB","floor":"0","roomNo":"023 "},"geometry":{"type":"LineString","coordinates":[[91.61969960293261,26.12987057180499],[91.61971529089827,26.129931576599894],[91.6198958810698,26.12989381812072],[91.61988019310414,26.129832813325816],[91.61969960293261,26.12987057180499],[91.61971529090556,26.129931576583896]]}},{"type":"Feature","properties":{"fid":33,"name":"STAIRCASE","type":"STAIRCASE","floor":"0","roomNo":null},"geometry":{"type":"LineString","coordinates":[[91.61955570008077,26.129918492482837],[91.61956138322842,26.129940592177885],[91.61958962339162,26.12993468761727],[91.61958394024397,26.12991258792222],[91.61955570008077,26.129918492482837]]}},{"type":"Feature","properties":{"fid":34,"name":"CAFETRIA-B ","type":"CAFETRIA","floor":"0","roomNo":"018"},"geometry":{"type":"LineString","coordinates":[[91.61922961672674,26.129943678091],[91.61925147499632,26.1300286769546],[91.619395996403,26.129998459869814],[91.61937413813342,26.129913461006215],[91.61922961672674,26.129943678091]]}},{"type":"Feature","properties":{"fid":35,"name":"WASHROOM (MEN)","type":"WASHROOM ","floor":"0","roomNo":"017"},"geometry":{"type":"LineString","coordinates":[[91.6192114976239,26.12994746650186],[91.61923335589817,26.130032465383767],[91.61925147499329,26.130028676974522],[91.61922961671901,26.129943678092616],[91.6192114976239,26.12994746650186]]}},{"type":"Feature","properties":{"fid":36,"name":"STATIONARY AND BOOK SHOP","type":"SHOP","floor":"0","roomNo":"014"},"geometry":{"type":"LineString","coordinates":[[91.61915408502152,26.129578020860464],[91.6191708879607,26.12964336138213],[91.61921070854656,26.129635035542748],[91.61919390560737,26.129569695021083],[91.61915408502152,26.129578020860464]]}},{"type":"Feature","properties":{"fid":37,"name":"WASTE SEGREGATION UNIT","type":"WASTE SEGREGATION UNIT","floor":"0","roomNo":null},"geometry":{"type":"LineString","coordinates":[[91.61882700319885,26.129624349551445],[91.61883651154191,26.129661324040793],[91.61887835803812,26.129652574616383],[91.61886884969505,26.129615600127035],[91.61882700319885,26.129624349551445]]}},{"type":"Feature","properties":{"fid":38,"name":"VERMI COMPOSTING TANK","type":"VERMI COMPOSTING TANK","floor":"0","roomNo":null},"geometry":{"type":"LineString","coordinates":[[91.61888013493589,26.12950038357696],[91.61889008044399,26.12953905804215],[91.61893408397594,26.129529857616507],[91.61892413846785,26.12949118315132],[91.61888013493589,26.12950038357696]]}},{"type":"Feature","properties":{"fid":39,"name":"ATRIUM (QUADRANGLE)","type":"ATRIUM","floor":"0","roomNo":null},"geometry":{"type":"LineString","coordinates":[[91.61919390561512,26.129569695019466],[91.6192869938816,26.129931681444607],[91.61944834015047,26.12989794655371],[91.61935525188399,26.12953596012857],[91.61919390561512,26.129569695019466]]}},{"type":"Feature","properties":{"fid":54,"name":"WASHROOM (STAFF)","type":"WASHROOM","floor":"0","roomNo":"010"},"geometry":{"type":"LineString","coordinates":[[91.61915555327695,26.129491983356967],[91.61913969796977,26.129495298444834],[91.61914484731805,26.129515322388183],[91.6191499966671,26.12953534633458],[91.6191609512434,26.129533055910148],[91.61917190581813,26.12953076548604],[91.61917477474118,26.129541921684748],[91.61917764366423,26.129553077883454],[91.61918254439666,26.129552053219697],[91.61918744512755,26.129551028556264],[91.61917942685545,26.12951984841116],[91.61917140858412,26.129488668269104],[91.61915555327695,26.129491983356967]]}},{"type":"Feature","properties":{"fid":57,"name":null,"type":null,"floor":"0","roomNo":"004 "},"geometry":{"type":"LineString","coordinates":[[91.61946906309593,26.129432149438077],[91.61941147950375,26.129444189234306],[91.61941916674628,26.129474082125714],[91.6194268539892,26.129503975018647],[91.61943737614774,26.12950177500576],[91.61944789830628,26.129499574992877],[91.61944184782074,26.129476046854336],[91.6194357973356,26.12945251871732],[91.6194520129904,26.12944912828661],[91.61946822864518,26.1294457378559],[91.61947429752085,26.12946933750701],[91.61948036639691,26.129492937159647],[91.61951121217422,26.129486487807334],[91.61954205795307,26.1294800384547],[91.61953435231962,26.129450074047675],[91.61952664668657,26.129420109642172],[91.61946906309593,26.129432149438077]]}},{"type":"Feature","properties":{"fid":61,"name":"STAIRCASE","type":"STAIRCASE","floor":"0","roomNo":null},"geometry":{"type":"LineString","coordinates":[[91.6194288831714,26.1296973494932],[91.61943358269215,26.12971562422087],[91.6194622520639,26.129709629919706],[91.61945755254314,26.129691355192033],[91.6194288831714,26.1296973494932]]}},{"type":"Feature","properties":{"fid":62,"name":"LIFT","type":"LIFT","floor":"0","roomNo":null},"geometry":{"type":"LineString","coordinates":[[91.61950536668562,26.129914666863744],[91.61951015809116,26.129933298897953],[91.61953473454953,26.129928160358663],[91.61952994314399,26.129909528324454],[91.61950536668562,26.129914666863744]]}},{"type":"Feature","properties":{"fid":66,"name":"ENGINEERING CHEMISTRY LAB","type":"LAB","floor":"0","roomNo":"001"},"geometry":{"type":"LineString","coordinates":[[91.61977991181732,26.12943100525723],[91.61976421314255,26.129369802247147],[91.61961359635988,26.12940122206005],[91.619629354001,26.129462504895272],[91.6197799146253,26.129431006460624]]}},{"type":"Feature","properties":{"fid":67,"name":"PRO VICE CHANCELLOR'S OFFICE","type":"OFFICE","floor":"0","roomNo":"003"},"geometry":{"type":"LineString","coordinates":[[91.61957041082479,26.129474780510183],[91.61955470111363,26.1294135397611],[91.61952712057594,26.12941933091383],[91.6195428613852,26.129480585484277]]}},{"type":"Feature","properties":{"fid":68,"name":"INFIRMARY","type":"INFIRMARY","floor":"0","roomNo":"005 "},"geometry":{"type":"LineString","coordinates":[[91.61945120089436,26.129449291638],[91.61944788259089,26.129436580102677],[91.61941147961132,26.129444189940557],[91.61942685458986,26.12950397375876],[91.61944789812117,26.129499575453654],[91.61943580003197,26.129452539408078],[91.61945119960012,26.12944929746184]]}},{"type":"Feature","properties":{"fid":69,"name":"COFFEE LOUNGE","type":"COFFEE LOUNGE","floor":"0","roomNo":null},"geometry":{"type":"LineString","coordinates":[[91.61921024032154,26.129635991815913],[91.61912316030822,26.129656588420218],[91.61919969353488,26.12994792269437],[91.6192841782656,26.129928761778316],[91.6192102403215,26.129636047034676]]}},{"type":"Feature","properties":{"fid":70,"name":"CAFETERIA-A","type":"CAFETERIA","floor":"0","roomNo":"019 "},"geometry":{"type":"LineString","coordinates":[[91.61944780249813,26.129898928471853],[91.61937523419998,26.129914101327483],[91.61939666490804,26.129997437561006],[91.61952272025668,26.129971482444727],[91.61951270322517,26.12993288969549],[91.61951006307733,26.129933495376463],[91.61950532634147,26.129914633849722],[91.61950768694422,26.129914117467862],[91.61950287403616,26.129894234653985]]}},{"type":"Feature","properties":{"fid":71,"name":"COMMON ROOM (MEN)","type":"COMMON ROOM","floor":"0","roomNo":"022 "},"geometry":{"type":"LineString","coordinates":[[91.61959379974579,26.12994809241886],[91.61962506570578,26.129941555213346],[91.61962704232612,26.129949241570372],[91.61971428735725,26.1299310000483],[91.61969899457056,26.12987153195871],[91.61958048386676,26.129896310627625],[91.6195937997453,26.129948092419028]]}},{"type":"Feature","properties":{"fid":72,"name":"RECEPTION AREA","type":"RECEPTION","floor":"0","roomNo":null},"geometry":{"type":"LineString","coordinates":[[91.61951768126858,26.129746855664038],[91.61954960539772,26.129740180845992],[91.61954009705282,26.129703206348946],[91.61960135685834,26.129690397915798],[91.61958736757502,26.129635998678584],[91.61949418364011,26.129655481930204],[91.61951768126866,26.12974685566409]]}},{"type":"Feature","properties":{"fid":73,"name":"VICE CHANCELLOR'S OFFICE","type":"OFFICE","floor":"0","roomNo":null},"geometry":{"type":"LineString","coordinates":[[91.61964560756499,26.129623821640475],[91.61958736757595,26.129635998678538],[91.61960135685862,26.129690397915965],[91.61956943272754,26.1296970727349],[91.61957894107236,26.129734047231555],[91.61966910521662,26.129715195369656],[91.61964560756488,26.12962382164092]]}},{"type":"Feature","properties":{"fid":74,"name":"RECTOR'S OFFICE","type":"OFFICE","floor":"0","roomNo":"033"},"geometry":{"type":"LineString","coordinates":[[91.61954009705308,26.12970320634938],[91.61954960539774,26.129740180845946],[91.61957894107225,26.12973404723162],[91.61956943272739,26.129697072734903],[91.61954009705345,26.1297032063495]]}},{"type":"Feature","properties":{"fid":75,"name":"GREEN AREA","type":"GREEN AREA","floor":"0","roomNo":null},"geometry":{"type":"LineString","coordinates":[[91.61903867110699,26.129863841769524],[91.61901705295529,26.129797786306014],[91.61908430942722,26.12977917067539],[91.61910592757891,26.129845226138897],[91.61903987211541,26.129865643282166]]}},{"type":"Feature","properties":{"fid":76,"name":"GREEN AREA","type":"GREEN AREA","floor":"0","roomNo":null},"geometry":{"type":"LineString","coordinates":[[91.619612002505,26.12957289747799],[91.61960239443758,26.1295296611746],[91.61965283679153,26.129518251594543],[91.61966364586738,26.129563889914785],[91.619612002505,26.12957289747799]]}},{"type":"Feature","properties":{"fid":77,"name":"GREEN AREA","type":"GREEN AREA","floor":"0","roomNo":null},"geometry":{"type":"LineString","coordinates":[[91.61972759956613,26.129669278404304],[91.61971769124662,26.129630245630413],[91.61976152805421,26.129620637562994],[91.61977083586953,26.129658469328458],[91.61972699906192,26.129669278404304]]}},{"type":"Feature","properties":{"fid":78,"name":"GREEN AREA","type":"GREEN AREA","floor":"0","roomNo":null},"geometry":{"type":"LineString","coordinates":[[91.61965674006893,26.129808595381874],[91.61964653149731,26.12976896210377],[91.61969817485968,26.129759954540564],[91.61970718242289,26.129795384289174],[91.6196549385563,26.129807394373447]]}},{"type":"Feature","properties":{"fid":79,"name":"WORKSHOP (ISO CERTIFIED)","type":"WORKSHOP","floor":"0","roomNo":null},"geometry":{"type":"LineString","coordinates":[[91.61990324704868,26.1294888268881],[91.61986361377058,26.129329693271465],[91.62009841091813,26.129279250917513],[91.62014284822995,26.12944378907207],[91.61990324704868,26.12948942739231]]}},{"type":"Feature","properties":{"fid":80,"name":"AUDITORIUM","type":"AUDITORIUM","floor":"0","roomNo":null},"geometry":{"type":"LineString","coordinates":[[91.62014494999471,26.129442588063643],[91.62009931167452,26.129278800539357],[91.6203117400401,26.12923976776546],[91.62035077281399,26.129404305920016],[91.62014494999474,26.129442813252727]]}},{"type":"Feature","properties":{"fid":81,"name":"KNOW HOW 3D","type":null,"floor":"0","roomNo":null},"geometry":{"type":"LineString","coordinates":[[91.62035332495687,26.129401753777096],[91.62032510125881,26.12928465545542],[91.6203809481507,26.12927264537115],[91.62040977235296,26.129391545205465],[91.62035332495687,26.129403555289738]]}},{"type":"Feature","properties":{"fid":82,"name":"ROYAL ENFIELD WORKSHOP","type":"WORKSHIOP","floor":"0","roomNo":null},"geometry":{"type":"LineString","coordinates":[[91.62041187411768,26.129390194070986],[91.62038274966332,26.129271894740885],[91.62046621974905,26.129253879614474],[91.6204950439513,26.129372178944575],[91.6204121743698,26.12938959356677]]}},{"type":"Feature","properties":{"fid":83,"name":"GREEN AREA","type":"GREEN AREA","floor":"0","roomNo":null},"geometry":{"type":"LineString","coordinates":[[91.6204776293291,26.129479669198826],[91.62045360916055,26.129387191549917],[91.61990775083028,26.129495282308383],[91.61993237150304,26.129593164495226],[91.62047732907699,26.129479519072785]]}},{"type":"Feature","properties":{"fid":84,"name":"GREEN AREA","type":"GREEN AREA","floor":"0","roomNo":null},"geometry":{"type":"LineString","coordinates":[[91.62035632747792,26.129708311178206],[91.62035152344421,26.129689095043368],[91.62037194058748,26.12968429100966],[91.62037629424303,26.12970380739661],[91.62035617735187,26.129708461304265]]}},{"type":"Feature","properties":{"fid":85,"name":"PARKING LOT","type":"PARKING ","floor":"0","roomNo":null},"geometry":{"type":"LineString","coordinates":[[91.62016686839847,26.129787877986537],[91.62016266486897,26.12977586790226],[91.62018037974327,26.129771664372768],[91.62018428302066,26.129782473448614],[91.62016626789426,26.129787277482322]]}},{"type":"Feature","properties":{"fid":86,"name":"MAIN GATE","type":"GATE","floor":"0","roomNo":null},"geometry":{"type":"LineString","coordinates":[[91.62074095042678,26.129510445039795],[91.62071392773717,26.129463605711127],[91.620733143872,26.129449193609997],[91.62076076706583,26.129498434955522],[91.62074095042678,26.129509244031368]]}},{"type":"Feature","properties":{"fid":87,"name":"BACK GATE","type":"GATE","floor":"0","roomNo":null},"geometry":{"type":"LineString","coordinates":[[91.61920696241282,26.130105844967698],[91.6191234923271,26.130015769335643],[91.61913550241138,26.13000375925137],[91.61921837199287,26.13009443538764],[91.61920636190861,26.130107045976125],[91.61920636190861,26.130107045976125]]}},{"type":"Feature","properties":{"fid":88,"name":null,"type":null,"floor":null,"roomNo":null},"geometry":{"type":"LineString","coordinates":[[91.61945129718109,26.12944922649642],[91.61944818955966,26.12943649863064],[91.61952663841465,26.12942020220437],[91.61954198322482,26.129480005330727],[91.6194803958182,26.129492881886538],[91.6194682627125,26.129445598459927],[91.61945128974665,26.129449215344685]]}},{"type":"Feature","properties":{"fid":89,"name":"NESCAFE","type":"refreshmentArea","floor":"0","roomNo":null},"geometry":{"type":"LineString","coordinates":[[91.61929205388611,26.1300199248171],[91.61927123728321,26.129934993077214],[91.61922948512536,26.129943676574428],[91.61925152098651,26.130028515383056],[91.61929205388618,26.130019891361858]]}},{"type":"Feature","properties":{"fid":90,"name":null,"type":null,"floor":null,"roomNo":"055"},"geometry":{"type":"LineString","coordinates":[[91.61989282104642,26.13004204617499],[91.61988520811738,26.130010702318604],[91.61990947432878,26.130004992621807],[91.61990447834408,26.129985484491076],[91.61991875258607,26.12998310545074],[91.61993148045184,26.130033897961848],[91.61989282104643,26.13004198669898]]}},{"type":"Feature","properties":{"fid":91,"name":"REGISTRAR","type":"office","floor":"0","roomNo":"056"},"geometry":{"type":"LineString","coordinates":[[91.61989638960698,26.13000713375811],[91.61987949842062,26.12994432709332],[91.61990685738445,26.129938379492486],[91.61991756306594,26.129981440122513],[91.61990376463201,26.12998477077898],[91.61990852271268,26.130004754717774],[91.61989615170295,26.130007609566174]]}},{"type":"Feature","properties":{"fid":93,"name":"DIRECTOR HUMAN RESOURCE","type":"office","floor":"0","roomNo":"032"},"geometry":{"type":"LineString","coordinates":[[91.61936366628076,26.129568680658632],[91.61944529442572,26.129551991013646],[91.61943675748863,26.129518922938658],[91.61935525188588,26.129535960132813]]}},{"type":"Feature","properties":{"fid":94,"name":"REGISTRAR","type":"office","floor":"0","roomNo":"031 "},"geometry":{"type":"LineString","coordinates":[[91.61936367915129,26.129568708295736],[91.6194453112713,26.12955214104451],[91.61945328348239,26.12958589007154],[91.61937249840977,26.129603030325434],[91.61936368330339,26.129568705181555]]}},{"type":"Feature","properties":{"fid":95,"name":"ADMINISTRATIVE OFFICER","type":"office","floor":"0","roomNo":"030 "},"geometry":{"type":"LineString","coordinates":[[91.61938255709796,26.129641277215836],[91.61937272470425,26.12960367495342],[91.61945397482246,26.129586169306517],[91.61946374078104,26.129625432446236],[91.61938262353301,26.129641493129874],[91.61938252388038,26.129641144345637]]}},{"type":"Feature","properties":{"fid":1,"type":"path","floor":"0"},"geometry":{"type":"LineString","coordinates":[[91.62072602699834,26.129484577764075],[91.62056419065556,26.129507644202505],[91.62017280690812,26.129571634701147],[91.61992130936687,26.12961851146176],[91.61986401554832,26.12967692139366],[91.6195209967126,26.129750212836857],[91.61950202278562,26.129744260232332],[91.61933609393449,26.12977662751943],[91.61923601577088,26.129885262552005],[91.61916756081885,26.12995297342847],[91.61916224328809,26.130057586919442]]}},{"type":"Feature","properties":{"fid":2,"type":"path","floor":"0"},"geometry":{"type":"LineString","coordinates":[[91.61986401554832,26.12967692139366],[91.61992130936687,26.12961851146176],[91.61988455003947,26.129692560944083],[91.61991301092985,26.129811985072354],[91.61993533319684,26.129907412763625],[91.61996044574717,26.130014559645062],[91.61993031068675,26.13004776401717],[91.61954748380825,26.130134262801665],[91.61944814972023,26.130014838673393],[91.61934658340553,26.130017628956754],[91.61925729433766,26.130032138430284],[91.61916224328809,26.130057586919442]]}},{"type":"Feature","properties":{"fid":3,"type":"path","floor":"0"},"geometry":{"type":"LineString","coordinates":[[91.61996044574717,26.130014559645062],[91.62006480234515,26.129948987985813],[91.62020878096709,26.12988313729826],[91.62018428302066,26.129782473448614]]}},{"type":"Feature","properties":{"fid":4,"type":"path","floor":"0"},"geometry":{"type":"LineString","coordinates":[[91.62020878096709,26.12988313729826],[91.62054012711735,26.129735252279605],[91.6205233854171,26.129546908152076],[91.62056419065556,26.129507644202505]]}},{"type":"Feature","properties":{"fid":5,"type":"path","floor":"0"},"geometry":{"type":"LineString","coordinates":[[91.62038778433194,26.129803245270086],[91.62037629424303,26.12970380739661]]}},{"type":"Feature","properties":{"fid":6,"type":"path","floor":"0"},"geometry":{"type":"LineString","coordinates":[[91.61991301092985,26.129811985072354],[91.61957762555936,26.129884024009705],[91.61957316110593,26.129926645588192]]}},{"type":"Feature","properties":{"fid":7,"type":"corridor","floor":"0"},"geometry":{"type":"LineString","coordinates":[[91.61957762555936,26.129884024009705],[91.6195540267714,26.129889400023057],[91.61945357657001,26.129914233545048]]}},{"type":"Feature","properties":{"fid":8,"type":"path","floor":"0"},"geometry":{"type":"LineString","coordinates":[[91.61957762555936,26.129884024009705],[91.61952444976765,26.12992065119681]]}},{"type":"Feature","properties":{"fid":9,"type":"path","floor":"0"},"geometry":{"type":"LineString","coordinates":[[91.61957762555936,26.129884024009705],[91.61954844620463,26.12991953508346],[91.6195322625611,26.129939346095394]]}},{"type":"Feature","properties":{"fid":10,"type":"path","floor":"0"},"geometry":{"type":"LineString","coordinates":[[91.61954844620463,26.12991953508346],[91.61955597996973,26.129954413625594],[91.61955821219644,26.12996445864573],[91.61956100247978,26.12997841006257],[91.61934658340553,26.130017628956754]]}},{"type":"Feature","properties":{"fid":11,"type":"corridor","floor":"0"},"geometry":{"type":"LineString","coordinates":[[91.61955597996973,26.129954413625594],[91.61958597551585,26.12998245597345],[91.61962057502964,26.129973527066667],[91.6198410074159,26.129929440589397],[91.61986946830629,26.129922743909308],[91.6198884422332,26.129918837512587],[91.61993533319684,26.129907412763625]]}},{"type":"Feature","properties":{"fid":12,"type":"path","floor":"0"},"geometry":{"type":"LineString","coordinates":[[91.6198884422332,26.129918837512587],[91.61989541794162,26.129947577431288]]}},{"type":"Feature","properties":{"fid":13,"type":"path","floor":"0"},"geometry":{"type":"LineString","coordinates":[[91.6198410074159,26.129929440589397],[91.61984882020933,26.12995901759311]]}},{"type":"Feature","properties":{"fid":14,"type":"path","floor":"0"},"geometry":{"type":"LineString","coordinates":[[91.61962057502964,26.129973527066667],[91.61963062004969,26.130010358807123]]}},{"type":"Feature","properties":{"fid":15,"type":"path","floor":"0"},"geometry":{"type":"LineString","coordinates":[[91.61958597551585,26.12998245597345],[91.6195954624792,26.130022357025624]]}},{"type":"Feature","properties":{"fid":16,"type":"path","floor":"0"},"geometry":{"type":"LineString","coordinates":[[91.61956100247978,26.12997841006257],[91.61956476936207,26.12999668641862]]}},{"type":"Feature","properties":{"fid":17,"type":"corridor","floor":"0"},"geometry":{"type":"LineString","coordinates":[[91.61986946830629,26.129922743909308],[91.61989318571482,26.13001817160057]]}},{"type":"Feature","properties":{"fid":18,"type":"path","floor":"0"},"geometry":{"type":"LineString","coordinates":[[91.6195540267714,26.129889400023057],[91.61954070316796,26.1298805408733],[91.61953372745953,26.129853335610434],[91.61952451952439,26.129815527270758],[91.61951112616423,26.129761674801692],[91.61950202278562,26.129744260232332]]}},{"type":"Feature","properties":{"fid":19,"type":"path","floor":"0"},"geometry":{"type":"LineString","coordinates":[[91.61951112616423,26.129761674801692],[91.6194885248689,26.12976732512552]]}},{"type":"Feature","properties":{"fid":20,"type":"path","floor":"0"},"geometry":{"type":"LineString","coordinates":[[91.61952451952439,26.129815527270758],[91.61950596413996,26.12981894536787]]}},{"type":"Feature","properties":{"fid":21,"type":"path","floor":"0"},"geometry":{"type":"LineString","coordinates":[[91.61953372745953,26.129853335610434],[91.61951119592128,26.12985800933504]]}},{"type":"Feature","properties":{"fid":22,"type":"path","floor":"0"},"geometry":{"type":"LineString","coordinates":[[91.61950202278562,26.129744260232332],[91.61949250102272,26.129705101806323],[91.61948719948431,26.129685011766053],[91.61948357211593,26.129671897434203],[91.61947548029411,26.12963771646292],[91.61946655138732,26.129602279864113],[91.61945678539553,26.129564052981934],[91.61944701940374,26.12952777929811],[91.61944478717699,26.129517176221302],[91.61946362158974,26.12949610958184],[91.61945748296633,26.129465137436426]]}},{"type":"Feature","properties":{"fid":23,"type":"path","floor":"0"},"geometry":{"type":"LineString","coordinates":[[91.61944701940374,26.12952777929811],[91.61942930110428,26.12953168569482]]}},{"type":"Feature","properties":{"fid":24,"type":"path","floor":"0"},"geometry":{"type":"LineString","coordinates":[[91.61945678539553,26.129564052981934],[91.61943376555769,26.1295693545203]]}},{"type":"Feature","properties":{"fid":25,"type":"path","floor":"0"},"geometry":{"type":"LineString","coordinates":[[91.61947548029411,26.12963771646292],[91.61945357656961,26.12964190188794]]}},{"type":"Feature","properties":{"fid":26,"type":"path","floor":"0"},"geometry":{"type":"LineString","coordinates":[[91.61948357211593,26.129671897434203],[91.61944980968705,26.129679849741787]]}},{"type":"Feature","properties":{"fid":27,"type":"path","floor":"0"},"geometry":{"type":"LineString","coordinates":[[91.61949250102272,26.129705101806323],[91.61946641187312,26.12970021881038],[91.61944855405955,26.12970328812209]]}},{"type":"Feature","properties":{"fid":28,"type":"path","floor":"0"},"geometry":{"type":"LineString","coordinates":[[91.61950202278562,26.129744260232332],[91.61953421575902,26.12969240601694],[91.61955402677096,26.12968794156355],[91.61958639405806,26.129681523911795],[91.61960592604166,26.12967817557175]]}},{"type":"Feature","properties":{"fid":29,"type":"path","floor":"0"},"geometry":{"type":"LineString","coordinates":[[91.61955402677096,26.12968794156355],[91.61955849122435,26.129705450591697]]}},{"type":"Feature","properties":{"fid":30,"type":"path","floor":"0"},"geometry":{"type":"LineString","coordinates":[[91.61948357211593,26.129671897434203],[91.61946641187312,26.12970021881038]]}},{"type":"Feature","properties":{"fid":31,"type":"path","floor":"0"},"geometry":{"type":"LineString","coordinates":[[91.61953421575902,26.12969240601694],[91.61946641187312,26.12970021881038]]}},{"type":"Feature","properties":{"fid":33,"type":"path","floor":"0"},"geometry":{"type":"LineString","coordinates":[[91.62054012711735,26.129735252279605],[91.62037194058748,26.12968429100966]]}},{"type":"Feature","properties":{"fid":34,"type":"path","floor":"0"},"geometry":{"type":"LineString","coordinates":[[91.61973633691052,26.129594746098945],[91.61974533959334,26.129641625345997]]}},{"type":"Feature","properties":{"fid":35,"type":"path","floor":"0"},"geometry":{"type":"LineString","coordinates":[[91.61966518468459,26.12961009265749],[91.61965493441213,26.12956014907157]]}},{"type":"Feature","properties":{"fid":36,"type":"path","floor":"0"},"geometry":{"type":"LineString","coordinates":[[91.61949260565817,26.129649296138865],[91.61947548029411,26.12963771646292]]}},{"type":"Feature","properties":{"fid":37,"type":"path","floor":"0"},"geometry":{"type":"LineString","coordinates":[[91.61949250102272,26.129705101806323],[91.61947231036541,26.129736843766022],[91.61933609393449,26.12977662751943]]}},{"type":"Feature","properties":{"fid":38,"type":"path","floor":"0"},"geometry":{"type":"LineString","coordinates":[[91.61965674006893,26.129808595381874],[91.61957762555936,26.129884024009705]]}},{"type":"Feature","properties":{"fid":39,"type":"path","floor":"0"},"geometry":{"type":"LineString","coordinates":[[91.61970718242289,26.129795384289174],[91.61991301092985,26.129811985072354]]}},{"type":"Feature","properties":{"fid":40,"type":"path","floor":"0"},"geometry":{"type":"LineString","coordinates":[[91.61969817485968,26.129759954540564],[91.61986401554832,26.12967692139366]]}},{"type":"Feature","properties":{"fid":41,"type":"path","floor":"0"},"geometry":{"type":"LineString","coordinates":[[91.61964653149731,26.12976896210377],[91.6195209967126,26.129750212836857]]}},{"type":"Feature","properties":{"fid":43,"type":"path","floor":"0"},"geometry":{"type":"LineString","coordinates":[[91.61992130936687,26.12961851146176],[91.61974533959334,26.129641625345997]]}},{"type":"Feature","properties":{"fid":44,"type":"path","floor":"0"},"geometry":{"type":"LineString","coordinates":[[91.61977083586953,26.129658469328458],[91.61974533959334,26.129641625345997]]}},{"type":"Feature","properties":{"fid":45,"type":"path","floor":"0"},"geometry":{"type":"LineString","coordinates":[[91.61964653149731,26.12976896210377],[91.61967714768343,26.129782246908217],[91.61965674006893,26.129808595381874]]}},{"type":"Feature","properties":{"fid":46,"type":"path","floor":"0"},"geometry":{"type":"LineString","coordinates":[[91.61967714768343,26.129782246908217],[91.61970718242289,26.129795384289174]]}},{"type":"Feature","properties":{"fid":47,"type":"path","floor":"0"},"geometry":{"type":"LineString","coordinates":[[91.61967714768343,26.129782246908217],[91.61969817485968,26.129759954540564]]}},{"type":"Feature","properties":{"fid":48,"type":"path","floor":"0"},"geometry":{"type":"LineString","coordinates":[[91.61967714768343,26.129782246908217],[91.61972759956613,26.129669278404304]]}},{"type":"Feature","properties":{"fid":49,"type":"path","floor":"0"},"geometry":{"type":"LineString","coordinates":[[91.61974533959334,26.129641625345997],[91.61972759956613,26.129669278404304]]}},{"type":"Feature","properties":{"fid":50,"type":"path","floor":"0"},"geometry":{"type":"LineString","coordinates":[[91.61988455003947,26.129692560944083],[91.61986401554832,26.12967692139366]]}},{"type":"Feature","properties":{"fid":52,"type":"path","floor":"0"},"geometry":{"type":"LineString","coordinates":[[91.6197513692211,26.12944657581869],[91.61974662573937,26.129429834118472]]}},{"type":"Feature","properties":{"fid":53,"type":"path","floor":"0"},"geometry":{"type":"LineString","coordinates":[[91.6196564995865,26.129466107802287],[91.61965147707642,26.129446854847032]]}},{"type":"Feature","properties":{"fid":54,"type":"path","floor":"0"},"geometry":{"type":"LineString","coordinates":[[91.6196046003158,26.12947726893577],[91.61960013586241,26.129456899867165]]}},{"type":"Feature","properties":{"fid":55,"type":"path","floor":"0"},"geometry":{"type":"LineString","coordinates":[[91.61955716549849,26.12948675589923],[91.61955353813009,26.129465549745618]]}},{"type":"Feature","properties":{"fid":56,"type":"path","floor":"0"},"geometry":{"type":"LineString","coordinates":[[91.61951642736128,26.129496242862693],[91.61951196290786,26.129476710879104]]}},{"type":"Feature","properties":{"fid":57,"type":"path","floor":"0"},"geometry":{"type":"LineString","coordinates":[[91.61948238590415,26.129503497599455],[91.61946362158974,26.12949610958184]]}},{"type":"Feature","properties":{"fid":58,"type":"path","floor":"0"},"geometry":{"type":"LineString","coordinates":[[91.61948238590415,26.129503497599455],[91.6194355091434,26.129511031364554],[91.61939142266614,26.12951996027134],[91.61933952339544,26.12953056334815],[91.61929097246478,26.129540608368288],[91.61922121538052,26.12955455978514],[91.61918717392338,26.129561814521903],[91.61916819999645,26.129565720918624],[91.61915313246625,26.12956851120199],[91.6191428084178,26.129561535493572],[91.61913387951095,26.129525261809736]]}},{"type":"Feature","properties":{"fid":59,"type":"path","floor":"0"},"geometry":{"type":"LineString","coordinates":[[91.6191428084178,26.129561535493572],[91.61910848793232,26.129569906343676]]}},{"type":"Feature","properties":{"fid":60,"type":"path","floor":"0"},"geometry":{"type":"LineString","coordinates":[[91.6191428084178,26.129561535493572],[91.61915090023956,26.12959557695069],[91.6191640145714,26.129591949582306]]}},{"type":"Feature","properties":{"fid":61,"type":"path","floor":"0"},"geometry":{"type":"LineString","coordinates":[[91.61915313246625,26.12956851120199],[91.61914790068491,26.129578486465043],[91.61915090023956,26.12959557695069]]}},{"type":"Feature","properties":{"fid":62,"type":"path","floor":"0"},"geometry":{"type":"LineString","coordinates":[[91.61915090023956,26.12959557695069],[91.61916073598846,26.129637500958328],[91.61915403930837,26.12964419763842],[91.61912250910626,26.129652010431855],[91.61906391315543,26.129727348082866],[91.61906056481538,26.1298216596608]]}},{"type":"Feature","properties":{"fid":63,"type":"path","floor":"0"},"geometry":{"type":"LineString","coordinates":[[91.61912250910626,26.129652010431855],[91.61899248190112,26.12967907618055],[91.61891170319751,26.12969386468243],[91.61885366530339,26.12963833804335]]}},{"type":"Feature","properties":{"fid":64,"type":"path","floor":"0"},"geometry":{"type":"LineString","coordinates":[[91.61891170319751,26.12969386468243],[91.61888910190211,26.12963917512836],[91.61886566352179,26.12954374743708],[91.61890193720562,26.129516402660045]]}},{"type":"Feature","properties":{"fid":65,"type":"path","floor":"0"},"geometry":{"type":"LineString","coordinates":[[91.61886566352179,26.12954374743708],[91.61885366530339,26.12963833804335]]}},{"type":"Feature","properties":{"fid":66,"type":"path","floor":"0"},"geometry":{"type":"LineString","coordinates":[[91.61891170319751,26.12969386468243],[91.61906056481538,26.1298216596608]]}},{"type":"Feature","properties":{"fid":67,"type":"path","floor":"0"},"geometry":{"type":"LineString","coordinates":[[91.61906056481538,26.1298216596608],[91.61910339566488,26.12994303698744],[91.61916756081885,26.12995297342847]]}},{"type":"Feature","properties":{"fid":68,"type":"path","floor":"0"},"geometry":{"type":"LineString","coordinates":[[91.61910339566488,26.12994303698744],[91.61916224328809,26.130057586919442]]}},{"type":"Feature","properties":{"fid":69,"type":"path","floor":"0"},"geometry":{"type":"LineString","coordinates":[[91.61912250910626,26.129652010431855],[91.61920356683783,26.12979068751538],[91.6192088683762,26.129907879416947],[91.61916756081885,26.12995297342847]]}},{"type":"Feature","properties":{"fid":70,"type":"path","floor":"0"},"geometry":{"type":"LineString","coordinates":[[91.61916073598846,26.129637500958328],[91.61916980440895,26.129648662091807],[91.61933609393449,26.12977662751943]]}},{"type":"Feature","properties":{"fid":71,"type":"path","floor":"0"},"geometry":{"type":"LineString","coordinates":[[91.61916980440895,26.129648662091807],[91.61921193768787,26.129639175128347],[91.61921514651374,26.12963457116077],[91.6192196109671,26.129627874480683],[91.61920328780937,26.129559931080614],[91.61929097246478,26.129540608368288]]}},{"type":"Feature","properties":{"fid":72,"type":"corridor","floor":"0"},"geometry":{"type":"LineString","coordinates":[[91.61920328780937,26.129559931080614],[91.61915313246625,26.12956851120199]]}},{"type":"Feature","properties":{"fid":73,"type":"path","floor":"0"},"geometry":{"type":"LineString","coordinates":[[91.61921193768787,26.129639175128347],[91.61920370635187,26.129633664318682]]}},{"type":"Feature","properties":{"fid":74,"type":"path","floor":"0"},"geometry":{"type":"LineString","coordinates":[[91.61921193768787,26.129639175128347],[91.61938437720008,26.129749042536066],[91.61947231036541,26.129736843766022]]}},{"type":"Feature","properties":{"fid":75,"type":"path","floor":"0"},"geometry":{"type":"LineString","coordinates":[[91.61938437720008,26.129749042536066],[91.6192196109671,26.129627874480683]]}},{"type":"Feature","properties":{"fid":76,"type":"path","floor":"0"},"geometry":{"type":"LineString","coordinates":[[91.61950202278562,26.129744260232332],[91.61947231036541,26.129736843766022]]}},{"type":"Feature","properties":{"fid":77,"type":"path","floor":"0"},"geometry":{"type":"LineString","coordinates":[[91.61916819999645,26.129565720918624],[91.6191640843279,26.129549118732537]]}},{"type":"Feature","properties":{"fid":78,"type":"path","floor":"0"},"geometry":{"type":"LineString","coordinates":[[91.61918717392338,26.129561814521903],[91.61918222116982,26.129544933307482]]}},{"type":"Feature","properties":{"fid":79,"type":"path","floor":"0"},"geometry":{"type":"LineString","coordinates":[[91.61922121538052,26.12955455978514],[91.61920049752588,26.12955783836808],[91.61919763748543,26.12954611917792]]}},{"type":"Feature","properties":{"fid":80,"type":"path","floor":"0"},"geometry":{"type":"LineString","coordinates":[[91.61929097246478,26.129540608368288],[91.61928762412414,26.1295257501093]]}},{"type":"Feature","properties":{"fid":81,"type":"path","floor":"0"},"geometry":{"type":"LineString","coordinates":[[91.61933952339544,26.12953056334815],[91.61933561699814,26.129513751890787]]}},{"type":"Feature","properties":{"fid":82,"type":"corridor","floor":"0"},"geometry":{"type":"LineString","coordinates":[[91.61939142266614,26.12951996027134],[91.61938640015549,26.12950007950227]]}},{"type":"Feature","properties":{"fid":83,"type":"path","floor":"0"},"geometry":{"type":"LineString","coordinates":[[91.6194355091434,26.129511031364554],[91.6194323175035,26.129497766397808]]}},{"type":"Feature","properties":{"fid":84,"type":"path","floor":"0"},"geometry":{"type":"LineString","coordinates":[[91.6194355091434,26.129511031364554],[91.61946362158974,26.12949610958184]]}},{"type":"Feature","properties":{"fid":85,"type":"path","floor":"0"},"geometry":{"type":"LineString","coordinates":[[91.61946655138732,26.129602279864113],[91.61944403669366,26.12960651769219]]}},{"type":"Feature","properties":{"fid":86,"type":"path","floor":"0"},"geometry":{"type":"LineString","coordinates":[[91.61947231036541,26.129736843766022],[91.61938767296955,26.129773934694438],[91.61939157936627,26.12988945242599],[91.61934693483234,26.129899497446125],[91.61924648463099,26.12992293582644],[91.61921579151391,26.1299324227899],[91.61918230811347,26.129939677526657],[91.61916756081885,26.12995297342847]]}},{"type":"Feature","properties":{"fid":87,"type":"path","floor":"0"},"geometry":{"type":"LineString","coordinates":[[91.61938767296955,26.129773934694438],[91.61932837944795,26.12993772432829]]}},{"type":"Feature","properties":{"fid":88,"type":"path","floor":"0"},"geometry":{"type":"LineString","coordinates":[[91.61934693483234,26.129899497446125],[91.61932837944795,26.12993772432829]]}},{"type":"Feature","properties":{"fid":89,"type":"path","floor":"0"},"geometry":{"type":"LineString","coordinates":[[91.61939157936627,26.12988945242599],[91.61939813653221,26.129925447081458],[91.61945357657001,26.129914233545048]]}},{"type":"Feature","properties":{"fid":90,"type":"path","floor":"0"},"geometry":{"type":"LineString","coordinates":[[91.61924648463099,26.12992293582644],[91.61925359985361,26.129955024085188]]}},{"type":"Feature","properties":{"fid":91,"type":"path","floor":"0"},"geometry":{"type":"LineString","coordinates":[[91.61921579151391,26.1299324227899],[91.61922179062319,26.12995948853858]]}},{"type":"Feature","properties":{"fid":93,"type":"path","floor":"0"},"geometry":{"type":"LineString","coordinates":[[91.6192088683762,26.129907879416947],[91.61924648463099,26.12992293582644]]}},{"type":"Feature","properties":{"fid":94,"type":"path","floor":"0"},"geometry":{"type":"LineString","coordinates":[[91.6192088683762,26.129907879416947],[91.61931163774773,26.129904798984516],[91.61932837944795,26.12993772432829]]}},{"type":"Feature","properties":{"fid":95,"type":"path","floor":"0"},"geometry":{"type":"LineString","coordinates":[[91.61931163774773,26.129904798984516],[91.61939157936627,26.12988945242599]]}},{"type":"Feature","properties":{"fid":96,"type":"path","floor":"0"},"geometry":{"type":"LineString","coordinates":[[91.61920356683783,26.12979068751538],[91.61924648463099,26.12992293582644]]}},{"type":"Feature","properties":{"fid":97,"type":"path","floor":"0"},"geometry":{"type":"LineString","coordinates":[[91.61920356683783,26.12979068751538],[91.61931163774773,26.129904798984516]]}},{"type":"Feature","properties":{"fid":98,"type":"path","floor":"0"},"geometry":{"type":"LineString","coordinates":[[91.61920356683783,26.12979068751538],[91.61939157936627,26.12988945242599]]}},{"type":"Feature","properties":{"fid":99,"type":"path","floor":"0"},"geometry":{"type":"LineString","coordinates":[[91.61920356683783,26.12979068751538],[91.61933609393449,26.12977662751943]]}},{"type":"Feature","properties":{"fid":100,"type":"path","floor":"0"},"geometry":{"type":"LineString","coordinates":[[91.61938437720008,26.129749042536066],[91.61935391054077,26.1296272355462],[91.61934330746396,26.129540178705028],[91.61933952339544,26.12953056334815]]}},{"type":"Feature","properties":{"fid":101,"type":"path","floor":"0"},"geometry":{"type":"LineString","coordinates":[[91.61960239443758,26.1295296611746],[91.61944478717699,26.129517176221302],[91.6194355091434,26.129511031364554]]}},{"type":"Feature","properties":{"fid":102,"type":"path","floor":"0"},"geometry":{"type":"LineString","coordinates":[[91.61973633691052,26.129594746098945],[91.61965493441213,26.12956014907157]]}},{"type":"Feature","properties":{"fid":103,"type":"path","floor":"0"},"geometry":{"type":"LineString","coordinates":[[91.61981498768195,26.129436251770223],[91.61989048203287,26.129509485587956],[91.62000767393445,26.129484931094293],[91.6202052259971,26.12944698324045],[91.62038157190614,26.129410151499957],[91.62046528040727,26.129393409799732],[91.62056419065556,26.129507644202505]]}},{"type":"Feature","properties":{"fid":104,"type":"path","floor":"0"},"geometry":{"type":"LineString","coordinates":[[91.62046528040729,26.129389782431346],[91.62044993384875,26.12934067344402]]}},{"type":"Feature","properties":{"fid":105,"type":"path","floor":"0"},"geometry":{"type":"LineString","coordinates":[[91.62038157190614,26.129410151499957],[91.62037752599527,26.129392293686383]]}},{"type":"Feature","properties":{"fid":106,"type":"path","floor":"0"},"geometry":{"type":"LineString","coordinates":[[91.6202052259971,26.12944698324045],[91.62019518097699,26.129405128989884]]}},{"type":"Feature","properties":{"fid":107,"type":"path","floor":"0"},"geometry":{"type":"LineString","coordinates":[[91.62000767393445,26.129484931094293],[91.61999539668764,26.129431915710242]]}},{"type":"Feature","properties":{"fid":108,"type":"path","floor":"0"},"geometry":{"type":"LineString","coordinates":[[91.61992130936687,26.12961851146176],[91.61989048203287,26.129509485587956]]}},{"type":"Feature","properties":{"fid":109,"type":"path","floor":"0"},"geometry":{"type":"LineString","coordinates":[[91.61981498768195,26.129436251770223],[91.6198145863252,26.129349323322465],[91.6198904820329,26.12933481384894]]}},{"type":"Feature","properties":{"fid":110,"type":"path","floor":"0"},"geometry":{"type":"LineString","coordinates":[[91.61955597996973,26.129954413625594],[91.61953904584236,26.12995886072482]]}},{"type":"Feature","properties":{"fid":111,"type":"path","floor":"0"},"geometry":{"type":"LineString","coordinates":[[91.61955597996973,26.129954413625594],[91.61954337078159,26.129938212627877],[91.6195322625611,26.129939346095394]]}},{"type":"Feature","properties":{"fid":112,"type":"path","floor":"0"},"geometry":{"type":"LineString","coordinates":[[91.61952444976765,26.12992065119681],[91.61954844620463,26.12991953508346]]}},{"type":"Feature","properties":{"fid":113,"type":"path","floor":"0"},"geometry":{"type":"LineString","coordinates":[[91.6195540267714,26.129889400023057],[91.6195582987976,26.129910030765824],[91.61957316110593,26.129926645588192]]}},{"type":"Feature","properties":{"fid":114,"type":"path","floor":"0"},"geometry":{"type":"LineString","coordinates":[[91.6195582987976,26.129910030765824],[91.61952444976765,26.12992065119681]]}},{"type":"Feature","properties":{"fid":115,"type":"path","floor":"0"},"geometry":{"type":"LineString","coordinates":[[91.6195540267714,26.129889400023057],[91.61952444976765,26.12992065119681]]}},{"type":"Feature","properties":{"fid":116,"type":"path","floor":"0"},"geometry":{"type":"LineString","coordinates":[[91.6195582987976,26.129910030765824],[91.61953269794765,26.129896288620213],[91.61945357657001,26.129914233545048]]}},{"type":"Feature","properties":{"fid":117,"type":"path","floor":"0"},"geometry":{"type":"LineString","coordinates":[[91.61954844620463,26.12991953508346],[91.61953269794765,26.129896288620213]]}},{"type":"Feature","properties":{"fid":118,"type":"path","floor":"0"},"geometry":{"type":"LineString","coordinates":[[91.61954070316796,26.1298805408733],[91.61953269794765,26.129896288620213]]}},{"type":"Feature","properties":{"fid":119,"type":"path","floor":"0"},"geometry":{"type":"LineString","coordinates":[[91.61954070316796,26.1298805408733],[91.61953486041725,26.129915541575475],[91.61952444976765,26.12992065119681]]}},{"type":"Feature","properties":{"fid":120,"type":"path","floor":"0"},"geometry":{"type":"LineString","coordinates":[[91.61953269794765,26.129896288620213],[91.6195540267714,26.129889400023057]]}},{"type":"Feature","properties":{"fid":121,"type":"path","floor":"0"},"geometry":{"type":"LineString","coordinates":[[91.61953269794765,26.129896288620213],[91.61953486041725,26.129915541575475]]}},{"type":"Feature","properties":{"fid":122,"type":"path","floor":"0"},"geometry":{"type":"LineString","coordinates":[[91.61954337078159,26.129938212627877],[91.61953486041725,26.129915541575475]]}},{"type":"Feature","properties":{"fid":123,"type":"path","floor":"0"},"geometry":{"type":"LineString","coordinates":[[91.61956100247978,26.12997841006257],[91.61958597551585,26.12998245597345]]}},{"type":"Feature","properties":{"fid":124,"type":"path","floor":"0"},"geometry":{"type":"LineString","coordinates":[[91.61962758335807,26.12987329334886],[91.6196330330681,26.129892436680898]]}},{"type":"Feature","properties":{"fid":125,"type":"path","floor":"0"},"geometry":{"type":"LineString","coordinates":[[91.6197181097677,26.1298538487728],[91.61972462805566,26.12987706529652]]}},{"type":"Feature","properties":{"fid":126,"type":"path","floor":"0"},"geometry":{"type":"LineString","coordinates":[[91.61957762555936,26.129884024009705],[91.61959272057513,26.12989914303163]]}}]}